{"type":"FeatureCollection","features":[{"type":"Feature","properties":{"iso":"UZB","name":"Uzbekistan","label_lon":63.136,"label_lat":41.755},"geometry":{"type":"MultiPolygon","coordinates":[[[[70.95,42.25],[71.04,42.28],[71.23,42.16],[70.86,42.03],[70.8,41.92],[70.18,41.57],[70.2,41.51],[70.47,41.41],[70.69,41.45],[70.86,41.22],[71.39,41.12],[71.42,41.34],[71.59,41.33],[71.66,41.54],[71.88,41.2],[72.16,41.17],[72.19,41.03],[72.36,41.04],[72.66,40.87],[73.14,40.81],[72.6,40.53],[72.4,40.58],[72.36,40.4],[72.13,40.44],[71.96,40.26],[71.69,40.15],[71.3,40.29],[70.6,40.21],[70.38,40.44],[70.75,40.74],[70.4,41.04],[70.29,40.89],[69.71,40.66],[69.41,40.8],[69.21,40.57],[69.3,40.33],[69.22,40.29],[69.27,40.2],[68.63,40.17],[68.97,40.09],[68.8,40.05],[68.87,39.91],[68.64,39.84],[68.51,39.56],[67.72,39.62],[67.43,39.47],[67.36,39.22],[67.65,39.13],[67.69,38.99],[68.13,38.93],[68.05,38.67],[68.09,38.47],[68.35,38.21],[68.29,38.03],[67.81,37.49],[67.76,37.17],[67.52,37.27],[67.2,37.24],[66.83,37.37],[66.52,37.35],[66.53,37.79],[66.63,37.93],[66.57,38.01],[65.97,38.24],[65.61,38.24],[64.31,38.98],[64.16,38.95],[63.76,39.16],[62.48,39.98],[62.38,40.33],[62.1,40.68],[61.9,41.09],[61.5,41.28],[61.24,41.19],[60.45,41.22],[60.09,41.4],[60.14,41.59],[60.08,41.76],[60.2,41.8],[59.94,41.97],[59.99,42.21],[59.86,42.3],[59.35,42.32],[59.16,42.51],[58.88,42.56],[58.59,42.78],[58.48,42.66],[58.15,42.63],[58.47,42.3],[58.03,42.49],[57.81,42.19],[57.29,42.12],[56.96,41.86],[57.02,41.45],[57.12,41.35],[57.02,41.26],[55.98,41.32],[55.98,44.99],[58.56,45.56],[61.01,44.39],[61.16,44.17],[61.99,43.49],[63.21,43.63],[64.44,43.55],[64.91,43.71],[65.5,43.31],[65.8,42.88],[66.1,42.99],[66.01,42.0],[66.5,41.99],[66.71,41.18],[67.94,41.2],[68.11,41.03],[68.05,40.81],[68.42,40.62],[68.57,40.62],[68.58,40.88],[69.15,41.43],[70.1,41.82],[70.42,42.08],[70.58,42.04],[70.95,42.25]],[[70.65,40.94],[70.65,40.96],[70.62,41.0],[70.57,41.02],[70.55,41.01],[70.57,40.98],[70.62,40.93],[70.65,40.94]]],[[[71.21,39.89],[71.01,39.9],[70.98,40.13],[71.23,40.05],[71.21,39.89]]],[[[71.78,39.95],[71.75,39.91],[71.71,39.92],[71.67,39.95],[71.68,39.97],[71.74,39.98],[71.77,39.99],[71.79,40.0],[71.78,39.95]]]]}},{"type":"Feature","properties":{"iso":"UKR","name":"Ukraine","label_lon":31.256,"label_lat":49.159},"geometry":{"type":"MultiPolygon","coordinates":[[[[38.21,47.09],[37.54,47.07],[37.34,46.92],[37.05,46.88],[36.79,46.71],[36.56,46.76],[36.28,46.66],[35.83,46.62],[35.06,46.1],[35.28,46.28],[35.23,46.44],[35.06,46.27],[34.85,46.19],[34.86,45.99],[35.0,45.73],[34.95,45.73],[34.8,45.79],[34.69,45.98],[34.45,45.97],[34.35,46.06],[33.81,46.21],[33.66,46.22],[33.59,46.1],[33.43,46.06],[33.2,46.18],[32.48,46.08],[31.83,46.28],[31.78,46.32],[31.99,46.36],[32.01,46.43],[31.55,46.55],[32.36,46.47],[32.58,46.62],[32.35,46.56],[32.04,46.64],[31.94,46.78],[31.94,46.98],[31.76,47.21],[31.91,46.93],[31.87,46.65],[31.53,46.66],[31.56,46.78],[31.4,46.63],[30.8,46.55],[30.66,46.27],[30.22,45.87],[29.63,45.72],[29.71,45.26],[29.4,45.42],[28.78,45.31],[28.76,45.23],[28.45,45.29],[28.21,45.45],[28.5,45.52],[28.49,45.67],[28.95,46.05],[29.01,46.18],[28.96,46.46],[29.19,46.52],[29.2,46.38],[29.3,46.47],[29.61,46.4],[29.71,46.45],[29.84,46.35],[30.13,46.42],[29.92,46.54],[29.88,46.83],[29.57,46.96],[29.54,47.27],[29.13,47.49],[29.21,47.77],[29.13,47.96],[28.92,47.95],[28.77,48.12],[28.53,48.15],[28.46,48.09],[28.29,48.24],[27.55,48.48],[27.23,48.37],[26.85,48.39],[26.31,48.2],[26.16,47.99],[25.46,47.91],[24.89,47.72],[24.48,47.95],[24.18,47.91],[23.14,48.09],[22.88,47.95],[22.77,48.11],[22.58,48.13],[22.35,48.26],[22.25,48.41],[22.13,48.41],[22.14,48.57],[22.54,49.07],[22.84,49.04],[22.71,49.17],[22.65,49.54],[22.71,49.61],[23.71,50.38],[23.97,50.41],[24.09,50.53],[23.98,50.79],[24.1,50.87],[23.66,51.31],[23.61,51.61],[23.98,51.59],[24.36,51.87],[25.93,51.91],[27.14,51.75],[27.3,51.6],[27.69,51.57],[27.7,51.48],[27.86,51.59],[28.18,51.61],[28.6,51.54],[28.73,51.43],[29.1,51.63],[29.35,51.38],[30.16,51.48],[30.54,51.27],[30.63,51.36],[30.53,51.6],[30.58,51.69],[30.98,52.05],[31.57,52.11],[32.12,52.05],[32.28,52.11],[32.44,52.31],[32.81,52.25],[33.15,52.34],[33.74,52.34],[33.92,52.25],[34.11,51.98],[34.4,51.78],[34.38,51.72],[34.12,51.68],[34.27,51.34],[34.21,51.26],[34.71,51.17],[35.06,51.2],[35.16,51.06],[35.31,51.04],[35.44,50.73],[35.41,50.54],[35.59,50.37],[36.12,50.41],[36.62,50.21],[37.42,50.41],[37.7,50.11],[38.05,49.92],[38.26,50.05],[38.92,49.82],[39.17,49.86],[39.78,49.57],[40.08,49.58],[40.11,49.25],[39.89,49.06],[39.69,49.01],[40.0,48.82],[39.79,48.81],[39.64,48.59],[39.84,48.54],[39.85,48.3],[39.96,48.27],[39.78,47.89],[38.9,47.86],[38.64,47.67],[38.37,47.61],[38.2,47.32],[38.28,47.28],[38.21,47.09]]],[[[32.01,46.2],[31.56,46.26],[31.51,46.37],[31.64,46.27],[32.01,46.2]]]]}},{"type":"Feature","properties":{"iso":"TKM","name":"Turkmenistan","label_lon":59.373,"label_lat":39.11},"geometry":{"type":"MultiPolygon","coordinates":[[[[53.11,38.8],[53.1,38.76],[53.05,38.9],[53.02,39.05],[53.05,39.1],[53.09,39.09],[53.06,39.04],[53.11,38.8]]],[[[55.98,41.32],[57.02,41.26],[57.12,41.35],[57.02,41.45],[56.96,41.86],[57.29,42.12],[57.81,42.19],[58.03,42.49],[58.47,42.3],[58.15,42.63],[58.48,42.66],[58.59,42.78],[58.88,42.56],[59.16,42.51],[59.35,42.32],[59.86,42.3],[59.99,42.21],[59.94,41.97],[60.2,41.8],[60.08,41.76],[60.14,41.59],[60.09,41.4],[60.45,41.22],[61.24,41.19],[61.5,41.28],[61.9,41.09],[62.1,40.68],[62.38,40.33],[62.48,39.98],[63.76,39.16],[64.16,38.95],[64.31,38.98],[65.61,38.24],[65.97,38.24],[66.57,38.01],[66.63,37.93],[66.53,37.79],[66.52,37.35],[66.11,37.41],[65.77,37.57],[65.55,37.25],[65.09,37.24],[64.82,37.13],[64.51,36.34],[64.01,36.01],[63.13,35.85],[63.17,35.68],[63.06,35.45],[62.69,35.26],[62.31,35.17],[61.98,35.44],[61.62,35.43],[61.26,35.62],[61.25,35.87],[61.15,35.98],[61.21,36.19],[61.12,36.64],[60.34,36.64],[60.06,36.96],[59.45,37.25],[59.3,37.51],[58.82,37.68],[58.26,37.67],[57.98,37.83],[57.35,37.97],[57.19,38.22],[56.44,38.25],[56.27,38.08],[55.38,38.05],[54.9,37.78],[54.7,37.47],[54.19,37.33],[53.91,37.34],[53.82,37.93],[53.87,38.95],[53.7,39.21],[53.34,39.34],[53.16,39.26],[53.12,39.43],[53.24,39.61],[53.6,39.55],[53.47,39.67],[53.49,39.91],[52.99,39.99],[52.95,39.9],[53.04,39.77],[52.8,40.05],[52.73,40.4],[52.94,41.04],[53.15,40.82],[53.62,40.82],[53.87,40.65],[54.38,40.69],[54.32,40.83],[54.69,40.87],[54.7,41.07],[54.09,41.52],[53.8,42.12],[53.16,42.09],[52.97,41.98],[52.81,41.71],[52.88,41.65],[52.85,41.2],[52.49,41.78],[53.06,42.15],[54.12,42.34],[54.85,41.97],[55.43,41.3],[55.98,41.32]]]]}},{"type":"Feature","properties":{"iso":"TUR","name":"Turkey","label_lon":35.418,"label_lat":38.991},"geometry":{"type":"MultiPolygon","coordinates":[[[[41.51,41.52],[41.82,41.43],[41.93,41.5],[42.47,41.44],[42.61,41.58],[42.79,41.56],[43.21,41.2],[43.43,41.16],[43.63,40.93],[43.72,40.72],[43.57,40.48],[43.71,40.17],[43.67,40.13],[43.94,40.02],[44.4,40.0],[44.82,39.65],[44.59,39.77],[44.46,39.67],[44.39,39.42],[44.02,39.38],[44.18,39.14],[44.17,38.93],[44.27,38.84],[44.3,38.39],[44.45,38.33],[44.21,37.91],[44.56,37.74],[44.57,37.44],[44.8,37.27],[44.77,37.14],[44.61,37.18],[44.28,36.98],[44.11,37.3],[43.68,37.23],[42.77,37.37],[42.36,37.11],[42.2,37.3],[41.52,37.09],[40.71,37.1],[40.02,36.83],[39.36,36.68],[38.77,36.69],[38.19,36.9],[37.44,36.64],[37.07,36.65],[36.94,36.76],[36.66,36.8],[36.54,36.46],[36.64,36.23],[36.38,36.17],[36.35,36.0],[36.13,35.83],[35.89,35.92],[35.96,36.0],[35.81,36.31],[36.19,36.66],[36.18,36.81],[36.05,36.91],[35.39,36.58],[34.7,36.82],[33.69,36.18],[32.79,36.04],[32.38,36.18],[32.02,36.54],[31.35,36.8],[30.64,36.87],[30.45,36.27],[30.23,36.31],[29.69,36.16],[29.22,36.32],[28.97,36.72],[28.82,36.68],[28.3,36.81],[28.02,36.63],[28.08,36.75],[27.66,36.67],[27.45,36.71],[28.01,36.83],[28.24,37.03],[27.26,36.98],[27.3,37.13],[27.54,37.16],[27.52,37.25],[27.22,37.39],[27.07,37.66],[27.22,37.73],[27.23,37.98],[26.29,38.28],[26.42,38.37],[26.38,38.62],[26.44,38.64],[26.59,38.56],[26.67,38.34],[26.73,38.42],[26.86,38.37],[27.14,38.45],[26.91,38.48],[26.76,38.71],[27.01,38.89],[26.81,38.96],[26.85,39.12],[26.68,39.29],[26.9,39.55],[26.11,39.47],[26.18,39.99],[26.31,40.02],[26.74,40.4],[27.28,40.46],[27.48,40.32],[27.73,40.33],[27.85,40.38],[27.73,40.48],[27.87,40.51],[27.99,40.49],[27.96,40.37],[29.01,40.39],[29.06,40.42],[28.79,40.53],[28.96,40.63],[29.85,40.76],[29.36,40.81],[29.11,40.94],[29.05,41.01],[29.15,41.22],[31.25,41.11],[31.46,41.32],[32.31,41.73],[33.28,42.0],[34.75,41.96],[35.01,42.06],[35.15,42.03],[35.12,41.89],[35.3,41.73],[35.56,41.63],[36.05,41.68],[36.18,41.43],[36.41,41.27],[36.78,41.36],[37.07,41.18],[38.38,40.92],[39.43,41.11],[39.81,40.98],[40.27,40.96],[41.08,41.26],[41.51,41.52]]],[[[28.01,41.97],[27.99,41.85],[28.2,41.55],[29.06,41.23],[28.96,41.01],[28.78,40.97],[28.17,41.08],[27.93,40.99],[27.5,40.97],[27.26,40.69],[26.77,40.5],[26.2,40.08],[26.25,40.31],[26.79,40.63],[26.11,40.61],[26.04,40.73],[26.33,40.95],[26.33,41.24],[26.62,41.4],[26.58,41.6],[26.32,41.72],[26.33,41.77],[26.51,41.83],[26.62,41.96],[27.24,42.09],[27.53,41.92],[28.01,41.97]]]]}},{"type":"Feature","properties":{"iso":"SWE","name":"Sweden","label_lon":16.731,"label_lat":62.824},"geometry":{"type":"MultiPolygon","coordinates":[[[[19.08,57.84],[18.81,57.71],[18.79,57.48],[18.91,57.4],[18.48,57.16],[18.34,56.98],[18.15,56.92],[18.29,57.08],[18.11,57.27],[18.14,57.56],[18.54,57.83],[18.81,57.83],[18.9,57.92],[19.08,57.84]]],[[[16.53,56.29],[16.43,56.24],[16.4,56.31],[16.41,56.57],[17.0,57.32],[17.12,57.32],[16.53,56.29]]],[[[11.39,59.04],[11.47,58.91],[11.64,58.93],[11.8,59.29],[11.68,59.59],[11.93,59.86],[12.17,59.91],[12.49,60.11],[12.59,60.45],[12.29,61.0],[12.71,61.06],[12.88,61.35],[12.16,61.72],[12.3,62.29],[12.11,62.59],[12.11,62.92],[12.22,63.0],[12.0,63.29],[12.21,63.49],[12.18,63.6],[12.79,64],[13.2,64.08],[13.96,64.01],[14.14,64.17],[14.08,64.46],[13.65,64.58],[14.48,65.3],[14.63,65.79],[14.54,66.13],[15.04,66.17],[15.48,66.31],[15.42,66.49],[16.4,67.05],[16.43,67.16],[16.13,67.43],[16.19,67.51],[16.46,67.55],[16.78,67.9],[17.32,68.1],[17.92,67.96],[18.18,68.2],[18.16,68.53],[18.38,68.56],[19.97,68.36],[20.24,68.48],[19.97,68.54],[20.24,68.67],[20.35,68.85],[20.12,69.02],[20.9,68.98],[20.92,68.91],[22.0,68.52],[22.85,68.37],[23.1,68.26],[23.18,68.14],[23.64,67.95],[23.5,67.88],[23.54,67.61],[23.45,67.46],[23.73,67.42],[23.77,67.33],[23.63,67.23],[23.64,67.13],[23.99,66.81],[23.87,66.58],[23.7,66.48],[23.7,66.25],[23.91,66.15],[24.16,65.81],[23.69,65.83],[23.1,65.74],[22.75,65.87],[22.54,65.79],[22.4,65.86],[22.25,65.6],[22.09,65.61],[22.15,65.55],[21.92,65.53],[21.88,65.42],[21.57,65.41],[21.52,65.36],[21.61,65.26],[21.41,65.32],[21.57,65.13],[21.14,64.81],[21.52,64.46],[21.02,64.18],[20.76,63.87],[19.91,63.61],[19.72,63.46],[19.35,63.48],[19.03,63.24],[18.61,63.18],[18.53,63.06],[18.31,63.0],[18.5,62.99],[18.46,62.9],[18.17,62.79],[17.88,62.87],[17.97,62.72],[17.9,62.66],[18.04,62.6],[17.65,62.45],[17.38,62.46],[17.43,62.33],[17.63,62.23],[17.51,62.17],[17.37,61.87],[17.47,61.68],[17.2,61.72],[17.13,61.58],[17.25,60.7],[17.59,60.63],[17.66,60.54],[17.96,60.59],[18.16,60.41],[18.56,60.25],[18.54,60.15],[18.79,60.08],[18.99,59.83],[18.58,59.57],[17.96,59.36],[18.13,59.32],[18.56,59.39],[18.62,59.33],[18.41,59.29],[18.29,59.11],[16.98,58.65],[16.21,58.64],[16.79,58.59],[16.92,58.49],[16.65,58.43],[16.77,58.21],[16.7,58.16],[16.69,57.92],[16.6,57.91],[16.56,57.81],[16.65,57.5],[16.48,57.27],[16.53,57.07],[16.0,56.22],[15.83,56.12],[15.63,56.19],[14.71,56.13],[14.75,56.03],[14.56,56.05],[14.22,55.83],[14.2,55.73],[14.34,55.53],[14.17,55.4],[13.81,55.43],[13.32,55.35],[12.89,55.41],[12.97,55.75],[12.47,56.29],[12.8,56.26],[12.66,56.44],[12.86,56.45],[12.92,56.52],[12.88,56.62],[12.42,56.91],[12.05,57.45],[11.96,57.43],[11.88,57.68],[11.73,57.72],[11.7,57.97],[11.55,58.0],[11.45,58.12],[11.43,58.34],[11.25,58.37],[11.15,58.99],[11.2,59.08],[11.39,59.04]]],[[[19.16,57.92],[19.14,57.86],[19.04,57.91],[19.13,57.98],[19.33,57.96],[19.16,57.92]]],[[[18.42,59.03],[18.35,59.02],[18.38,59.07],[18.49,59.1],[18.42,59.03]]]]}},{"type":"Feature","properties":{"iso":"SVK","name":"Slovakia","label_lon":19.472,"label_lat":48.706},"geometry":{"type":"MultiPolygon","coordinates":[[[[22.54,49.07],[22.14,48.57],[22.11,48.39],[21.72,48.35],[21.45,48.55],[20.49,48.53],[20.33,48.3],[19.95,48.15],[19.63,48.22],[19.47,48.11],[18.79,48.0],[18.72,47.79],[17.64,47.81],[17.09,48.04],[16.87,48.39],[17.14,48.84],[17.76,48.89],[18.09,49.07],[18.16,49.26],[18.6,49.49],[18.94,49.5],[18.97,49.4],[19.15,49.4],[19.44,49.6],[19.63,49.41],[19.77,49.37],[19.8,49.19],[20.06,49.18],[20.16,49.32],[20.36,49.39],[20.95,49.32],[21.08,49.42],[21.35,49.43],[21.89,49.34],[22.02,49.21],[22.54,49.07]]]]}},{"type":"Feature","properties":{"iso":"ROU","name":"Romania","label_lon":24.977,"label_lat":45.855},"geometry":{"type":"MultiPolygon","coordinates":[[[[28.21,45.45],[28.45,45.29],[28.76,45.23],[28.78,45.31],[29.4,45.42],[29.71,45.26],[29.56,44.84],[29.05,44.76],[29.1,44.98],[28.89,44.92],[28.93,44.81],[28.81,44.57],[28.89,44.57],[28.65,44.3],[28.59,43.74],[28.22,43.77],[28.05,43.82],[27.88,43.99],[27.43,44.02],[27.09,44.17],[26.22,44.01],[25.5,43.67],[23.22,43.87],[22.92,43.83],[22.87,43.95],[23.03,44.08],[22.49,44.44],[22.72,44.61],[22.5,44.71],[22.09,44.54],[21.36,44.83],[21.53,44.9],[21.35,45.01],[21.49,45.15],[20.79,45.47],[20.77,45.75],[20.24,46.11],[21.12,46.28],[22.0,47.4],[22.0,47.51],[22.29,47.73],[22.61,47.77],[23.14,48.09],[24.18,47.91],[24.58,47.93],[24.89,47.72],[25.46,47.91],[26.16,47.99],[26.31,48.2],[26.71,48.26],[26.98,48.16],[27.61,47.34],[28.07,46.98],[28.24,46.64],[28.1,45.97],[28.16,45.65],[28.07,45.6],[28.21,45.45]]]]}},{"type":"Feature","properties":{"iso":"POL","name":"Poland","label_lon":19.393,"label_lat":52.129},"geometry":{"type":"MultiPolygon","coordinates":[[[[23.61,51.52],[23.66,51.31],[24.1,50.87],[23.98,50.79],[24.09,50.53],[23.97,50.41],[23.71,50.38],[22.71,49.61],[22.65,49.54],[22.71,49.17],[22.85,49.08],[22.81,49.02],[22.02,49.21],[21.89,49.34],[21.64,49.41],[21.08,49.42],[20.87,49.31],[20.36,49.39],[20.16,49.32],[20.06,49.18],[19.76,49.2],[19.77,49.37],[19.63,49.41],[19.44,49.6],[19.15,49.4],[18.97,49.4],[18.94,49.5],[18.83,49.51],[18.81,49.61],[18.59,49.76],[18.56,49.88],[18.03,50.04],[17.83,49.98],[17.63,50.12],[17.59,50.16],[17.74,50.23],[17.7,50.31],[17.42,50.25],[16.88,50.43],[16.99,50.24],[16.64,50.1],[16.21,50.42],[16.42,50.57],[16.28,50.66],[16.01,50.61],[15.35,50.81],[15.26,50.96],[14.99,51.01],[14.98,50.89],[14.81,50.86],[15.02,51.25],[14.91,51.46],[14.72,51.52],[14.72,51.66],[14.6,51.83],[14.75,52.08],[14.55,52.36],[14.62,52.53],[14.13,52.88],[14.41,53.2],[14.26,53.73],[14.58,53.64],[14.56,53.82],[14.2,53.92],[16.19,54.29],[16.56,54.55],[18.09,54.84],[18.32,54.84],[18.76,54.68],[18.44,54.74],[18.67,54.43],[18.98,54.35],[19.6,54.46],[22.89,54.39],[23.45,54.14],[23.6,53.6],[23.89,53.03],[23.9,52.7],[23.41,52.52],[23.18,52.29],[23.65,52.04],[23.54,51.71],[23.61,51.52]]]]}},{"type":"Feature","properties":{"iso":"NOR","name":"Norway","label_lon":13.885,"label_lat":64.222},"geometry":{"type":"MultiPolygon","coordinates":[[[[20.62,69.04],[20.12,69.02],[20.35,68.85],[20.24,68.67],[19.97,68.54],[20.24,68.48],[19.97,68.36],[18.3,68.56],[18.16,68.53],[18.18,68.2],[17.92,67.96],[17.32,68.1],[16.78,67.9],[16.57,67.62],[16.13,67.43],[16.43,67.16],[16.4,67.05],[15.42,66.49],[15.48,66.31],[15.04,66.17],[14.54,66.13],[14.63,65.79],[14.48,65.3],[13.65,64.58],[14.08,64.46],[14.15,64.26],[14.06,64.1],[13.96,64.01],[13.2,64.08],[12.79,64],[12.18,63.6],[12.21,63.49],[12.0,63.29],[12.22,63.0],[12.11,62.92],[12.11,62.59],[12.3,62.29],[12.16,61.72],[12.88,61.35],[12.71,61.06],[12.29,61.0],[12.59,60.45],[12.49,60.11],[12.17,59.91],[11.93,59.86],[11.68,59.59],[11.8,59.29],[11.64,58.93],[11.47,58.91],[11.37,59.1],[10.83,59.18],[10.64,59.39],[10.6,59.76],[10.53,59.7],[10.57,59.59],[10.4,59.52],[10.43,59.28],[10.18,59.01],[9.84,58.96],[9.56,59.11],[9.7,59.01],[9.66,58.97],[9.31,58.86],[9.4,58.81],[9.32,58.75],[8.17,58.15],[7.47,58.02],[7.0,58.02],[6.88,58.15],[6.73,58.07],[6.59,58.1],[6.66,58.26],[6.05,58.38],[5.71,58.52],[5.52,58.73],[5.61,59.01],[6.1,58.87],[6.36,59.0],[6.1,58.95],[5.89,59.1],[5.95,59.3],[6.4,59.56],[5.36,59.17],[5.17,59.16],[5.13,59.23],[5.3,59.64],[5.47,59.71],[5.77,59.66],[6.22,59.82],[5.83,59.79],[5.73,59.86],[6.07,60.08],[6.14,60.23],[6.52,60.41],[6.57,60.36],[6.53,60.15],[6.72,60.42],[7.0,60.51],[6.15,60.35],[5.88,60.07],[5.15,59.64],[5.1,59.73],[5.21,60.09],[5.69,60.12],[5.29,60.21],[5.14,60.45],[5.65,60.69],[5.24,60.57],[5.12,60.64],[5.01,61.04],[6.78,61.14],[7.04,60.95],[7.04,61.09],[7.6,61.21],[7.4,61.22],[7.35,61.3],[7.44,61.43],[7.33,61.37],[7.28,61.18],[7.17,61.17],[6.66,61.21],[6.6,61.29],[6.38,61.13],[5.45,61.1],[5.11,61.19],[5.02,61.25],[5.0,61.43],[5.34,61.49],[4.93,61.71],[4.93,61.88],[5.47,61.9],[6.02,61.79],[6.73,61.87],[5.27,61.94],[5.1,62.03],[5.14,62.16],[5.36,62.15],[5.53,62.31],[5.91,62.42],[6.08,62.35],[6.58,62.41],[6.69,62.47],[6.14,62.41],[6.35,62.61],[7.57,62.55],[7.69,62.59],[7.53,62.61],[7.54,62.67],[8.1,62.73],[6.73,62.72],[6.94,62.93],[7.57,63.1],[8.1,63.09],[8.62,62.85],[8.16,63.16],[8.27,63.29],[8.64,63.34],[8.59,63.43],[8.36,63.5],[8.58,63.6],[9.14,63.59],[9.08,63.5],[9.16,63.46],[9.32,63.57],[9.7,63.62],[10.02,63.39],[10.76,63.46],[10.67,63.56],[10.73,63.62],[11.37,63.8],[11.18,63.9],[11.43,64.02],[11.08,63.99],[10.91,63.92],[11.05,63.85],[10.93,63.77],[10.06,63.51],[9.92,63.52],[9.77,63.7],[9.59,63.68],[9.61,63.79],[10.57,64.42],[11.52,64.74],[11.63,64.81],[11.56,64.82],[11.3,64.75],[11.35,64.91],[11.49,64.98],[12.16,65.18],[12.31,65.09],[12.74,65.21],[12.92,65.34],[12.42,65.18],[12.13,65.28],[12.12,65.36],[12.69,65.9],[13.03,65.96],[12.78,66.1],[13.67,66.18],[14.03,66.3],[13.12,66.23],[13.07,66.43],[13.21,66.64],[13.62,66.79],[13.96,66.79],[13.65,66.91],[14.11,67.12],[15.42,67.2],[14.44,67.27],[14.96,67.57],[15.41,67.47],[15.59,67.35],[15.58,67.44],[15.69,67.52],[15.25,67.6],[15.3,67.77],[14.85,67.66],[14.78,67.67],[14.8,67.81],[15.13,67.97],[15.62,67.95],[15.32,68.07],[16.01,68.23],[16.31,67.88],[16.26,68.0],[16.39,68.09],[16.26,68.14],[16.2,68.32],[16.39,68.39],[16.95,68.35],[17.55,68.43],[17.43,68.48],[16.58,68.47],[16.51,68.53],[17.39,68.8],[17.7,69.1],[18.1,69.16],[18.08,69.33],[18.26,69.47],[18.86,69.31],[18.92,69.34],[18.61,69.49],[18.99,69.56],[19.2,69.75],[19.69,69.8],[19.64,69.42],[19.96,69.82],[20.32,69.95],[20.39,69.87],[20.34,69.62],[20.04,69.36],[20.11,69.34],[20.49,69.54],[20.74,69.52],[20.53,69.69],[20.62,69.91],[21.16,69.89],[21.25,70.0],[21.43,70.01],[21.97,69.83],[21.8,70.07],[21.36,70.23],[22.32,70.26],[22.68,70.37],[22.94,70.3],[23.05,70.1],[23.35,69.98],[23.4,70.02],[23.29,70.1],[23.38,70.25],[24.42,70.7],[24.26,70.83],[24.66,71.0],[25.26,70.84],[25.44,70.91],[25.77,70.85],[25.27,70.55],[24.99,70.22],[25.04,70.11],[25.21,70.14],[26.51,70.91],[26.66,70.94],[26.73,70.85],[26.56,70.67],[26.64,70.64],[26.59,70.41],[26.99,70.51],[27.18,70.74],[27.55,70.8],[27.24,70.95],[27.6,71.09],[28.39,70.98],[28.33,70.83],[27.9,70.68],[28.27,70.67],[28.2,70.58],[28.19,70.25],[28.61,70.76],[28.83,70.86],[29.1,70.86],[29.74,70.65],[30.07,70.7],[30.24,70.62],[30.21,70.54],[30.6,70.52],[30.93,70.4],[30.94,70.27],[30.26,70.12],[28.78,70.15],[29.6,69.98],[29.69,69.74],[30.09,69.72],[30.24,69.86],[30.43,69.72],[30.48,69.79],[30.87,69.78],[30.92,69.61],[30.86,69.54],[30.18,69.64],[30.09,69.43],[29.39,69.3],[29.21,69.1],[28.97,69.02],[28.85,69.18],[29.33,69.47],[29.14,69.67],[28.41,69.82],[27.75,70.06],[27.13,69.91],[26.53,69.92],[26.07,69.69],[25.77,69.28],[25.75,68.99],[25.25,68.82],[24.94,68.59],[23.85,68.81],[23.32,68.65],[22.41,68.72],[22.3,68.86],[21.59,69.27],[21.07,69.21],[21.13,69.08],[21.07,69.04],[20.62,69.04]]],[[[5.09,60.31],[5.09,60.19],[5.0,60.2],[4.96,60.45],[5.09,60.31]]],[[[29.96,69.8],[29.74,69.79],[29.84,69.91],[30.06,69.84],[29.96,69.8]]],[[[11.97,65.63],[11.77,65.63],[11.88,65.71],[12.0,65.68],[11.97,65.63]]],[[[8.47,63.67],[8.29,63.69],[8.81,63.77],[8.79,63.7],[8.47,63.67]]],[[[8.1,63.34],[7.8,63.41],[8.07,63.47],[8.14,63.43],[8.1,63.34]]],[[[23.44,70.82],[22.83,70.54],[22.36,70.51],[21.99,70.66],[22.96,70.71],[23.2,70.82],[23.44,70.82]]],[[[25.59,71.14],[26.15,71.04],[25.58,70.96],[25.32,71.05],[25.59,71.14]]],[[[23.62,70.55],[23.64,70.46],[23.27,70.3],[22.92,70.38],[23.02,70.49],[23.55,70.62],[23.62,70.55]]],[[[24.02,70.57],[23.83,70.53],[23.67,70.6],[23.66,70.68],[23.78,70.75],[23.96,70.7],[24.08,70.65],[24.02,70.57]]],[[[13.87,68.27],[14.12,68.25],[14.03,68.19],[13.23,68.0],[13.2,68.09],[13.3,68.16],[13.87,68.27]]],[[[12.97,67.87],[12.82,67.82],[12.96,68.02],[13.12,68.05],[12.97,67.87]]],[[[15.21,68.94],[15.4,68.78],[15.22,68.62],[14.52,68.63],[14.37,68.71],[14.55,68.82],[14.8,68.79],[14.87,68.91],[15.04,68.89],[15.04,69.0],[15.21,68.94]]],[[[19.77,70.22],[20.09,70.1],[19.78,70.08],[19.6,70.27],[19.77,70.22]]],[[[20.78,70.09],[20.41,70.12],[20.65,70.23],[20.82,70.21],[20.78,70.09]]],[[[19.26,70.07],[19.61,70.02],[19.59,69.97],[19.33,69.82],[19.01,69.76],[18.78,69.58],[18.27,69.54],[18.06,69.6],[18.23,69.64],[18.35,69.77],[18.67,69.78],[18.69,69.89],[19.05,70.04],[19.13,70.24],[19.21,70.25],[19.26,70.07]]],[[[12.51,65.9],[12.43,65.94],[12.55,66.0],[12.78,65.99],[12.51,65.9]]],[[[12.42,66.04],[12.33,66.04],[12.46,66.19],[12.62,66.18],[12.58,66.07],[12.42,66.04]]],[[[11.23,64.87],[10.74,64.87],[11.02,64.98],[11.13,64.98],[11.23,64.87]]],[[[17.5,69.6],[18.0,69.5],[18.08,69.4],[17.94,69.33],[17.95,69.2],[17.49,69.2],[17.08,69.01],[16.81,69.07],[16.97,69.14],[17.0,69.36],[17.36,69.38],[17.37,69.44],[17.23,69.48],[17.5,69.6]]],[[[15.76,68.56],[16.06,68.68],[16.15,68.84],[16.33,68.88],[16.48,68.8],[16.52,68.63],[15.98,68.4],[15.44,68.31],[15.28,68.37],[14.63,68.2],[14.26,68.19],[14.26,68.26],[14.59,68.4],[15.1,68.44],[15.41,68.62],[15.56,68.87],[15.44,68.92],[15.48,69.04],[15.97,69.3],[16.13,69.27],[16.11,69.22],[15.81,69.02],[15.93,68.73],[15.76,68.56]]],[[[19.22,74.39],[19.1,74.35],[18.8,74.49],[19.18,74.52],[19.27,74.46],[19.22,74.39]]],[[[26.88,78.65],[26.41,78.78],[26.59,78.81],[27.01,78.7],[26.88,78.65]]],[[[21.61,78.6],[22.04,78.58],[22.3,78.23],[22.99,78.25],[23.45,78.15],[23.15,78.09],[23.12,77.99],[23.68,77.88],[24.24,77.9],[24.9,77.76],[24.13,77.66],[23.74,77.46],[22.8,77.28],[22.43,77.32],[22.49,77.36],[22.44,77.43],[22.69,77.55],[20.93,77.46],[20.87,77.57],[21.2,77.62],[21.33,77.77],[21.65,77.92],[21.04,78.06],[20.79,78.25],[20.53,78.33],[20.56,78.42],[20.23,78.48],[21.61,78.6]]],[[[20.9,80.25],[21.55,80.24],[22.29,80.05],[22.44,80.19],[22.45,80.4],[23.01,80.47],[23.32,80.43],[23.11,80.19],[23.69,80.21],[24.4,80.36],[25.84,80.18],[26.86,80.16],[27.15,80.06],[27.2,79.91],[26.01,79.62],[25.64,79.4],[24.75,79.36],[23.95,79.19],[22.9,79.23],[22.7,79.33],[22.87,79.41],[20.86,79.4],[19.9,79.53],[19.67,79.59],[19.75,79.62],[20.49,79.63],[20.78,79.75],[18.94,79.74],[18.32,79.86],[18.26,79.93],[18.86,80.04],[17.92,80.14],[18.78,80.19],[19.34,80.12],[19.54,80.16],[19.35,80.19],[19.18,80.33],[19.75,80.23],[19.81,80.33],[19.61,80.46],[20.36,80.4],[20.9,80.25]]],[[[16.79,79.91],[17.22,79.94],[17.83,79.8],[17.96,79.7],[17.69,79.53],[17.73,79.48],[17.67,79.39],[18.4,79.61],[18.82,79.43],[18.81,79.3],[18.68,79.26],[19.09,79.16],[19.75,79.15],[19.89,79.06],[20.16,79.15],[20.61,79.11],[20.77,79.06],[20.5,78.98],[21.39,78.74],[19.68,78.61],[19.15,78.38],[18.98,78.23],[19.0,78.08],[18.44,78.03],[18.36,77.68],[18.23,77.52],[17.85,77.5],[17.62,77.4],[17.15,77.05],[17.25,76.97],[16.98,76.81],[17.06,76.66],[16.7,76.58],[15.55,76.89],[15.12,77.09],[14.37,77.23],[14.05,77.4],[14.0,77.51],[14.38,77.58],[14.7,77.53],[14.92,77.69],[17.03,77.8],[16.91,77.9],[14.09,77.77],[13.79,77.85],[13.68,78.03],[13.94,78.09],[14.31,78.01],[14.25,78.07],[15.7,78.23],[15.66,78.3],[15.78,78.33],[17.0,78.37],[17.17,78.42],[16.73,78.41],[16.45,78.5],[16.78,78.66],[15.94,78.49],[15.42,78.47],[15.25,78.59],[15.38,78.77],[15.02,78.63],[14.69,78.72],[14.47,78.68],[14.52,78.58],[14.43,78.49],[14.64,78.41],[14.11,78.27],[13.15,78.24],[11.77,78.72],[11.76,78.81],[11.86,78.83],[11.37,78.95],[12.4,78.95],[11.98,79.03],[11.89,79.15],[12.08,79.27],[11.98,79.29],[11.58,79.28],[11.62,79.21],[11.52,79.15],[11.21,79.13],[10.74,79.52],[10.81,79.64],[10.68,79.76],[10.87,79.8],[11.15,79.72],[11.7,79.82],[12.29,79.71],[12.22,79.8],[12.28,79.82],[12.75,79.78],[13.69,79.86],[13.91,79.82],[13.78,79.72],[13.04,79.69],[12.56,79.57],[13.33,79.57],[13.38,79.48],[13.96,79.34],[14.06,79.38],[14.04,79.59],[14.59,79.8],[14.83,79.77],[15.76,79.17],[16.34,78.98],[15.88,79.52],[15.83,79.71],[16.1,79.88],[16.09,80.01],[16.25,80.05],[16.79,79.91]]],[[[11.25,78.61],[11.26,78.54],[11.83,78.44],[12.12,78.23],[11.12,78.46],[10.63,78.75],[10.56,78.9],[10.96,78.85],[11.15,78.72],[11.08,78.69],[11.25,78.61]]],[[[18.74,80.3],[18.52,80.25],[18.16,80.29],[18.29,80.36],[18.74,80.3]]],[[[29.05,78.91],[29.65,78.92],[29.31,78.85],[27.89,78.85],[28.51,78.97],[29.05,78.91]]]]}},{"type":"Feature","properties":{"iso":"MNG","name":"Mongolia","label_lon":103.052,"label_lat":46.826},"geometry":{"type":"MultiPolygon","coordinates":[[[[87.81,49.16],[88.12,49.26],[88.19,49.45],[89.11,49.5],[89.24,49.63],[89.65,49.72],[89.64,49.9],[89.98,49.98],[90.05,50.09],[90.66,50.22],[91.02,50.42],[91.42,50.47],[91.8,50.69],[92.19,50.7],[92.35,50.86],[92.63,50.69],[92.94,50.78],[93.1,50.6],[94.25,50.56],[94.35,50.22],[94.61,50.02],[94.93,50.04],[95.11,49.94],[95.52,49.91],[95.79,50.01],[96.07,50.0],[96.32,49.9],[96.99,49.88],[97.21,49.73],[97.36,49.74],[97.59,49.91],[98.0,50.01],[98.25,50.3],[98.28,50.53],[98.03,50.64],[97.84,51.05],[98.04,51.45],[98.22,51.51],[98.35,51.72],[98.64,51.8],[98.89,52.12],[99.92,51.76],[100.47,51.73],[101.38,51.45],[102.11,51.35],[102.22,50.83],[102.32,50.72],[102.29,50.59],[103.3,50.2],[104.08,50.15],[104.47,50.31],[105.38,50.47],[106.22,50.3],[106.71,50.31],[107.23,49.99],[107.92,49.95],[107.97,49.65],[108.61,49.32],[109.24,49.33],[110.71,49.14],[111.34,49.36],[112.81,49.52],[113.06,49.62],[113.16,49.8],[113.57,50.01],[114.3,50.27],[114.74,50.23],[115.43,49.9],[115.72,49.88],[116.13,50.01],[116.35,49.98],[116.68,49.82],[116.03,48.78],[115.82,48.58],[115.79,48.25],[115.53,48.13],[115.62,47.87],[115.9,47.69],[116.23,47.86],[116.76,47.87],[117.35,47.65],[117.77,47.99],[118.5,47.98],[118.76,47.76],[119.08,47.65],[119.16,47.53],[119.71,47.15],[119.9,46.86],[119.9,46.73],[119.71,46.61],[119.16,46.64],[118.84,46.76],[118.72,46.69],[118.07,46.67],[117.74,46.52],[117.44,46.59],[117.33,46.36],[116.86,46.39],[116.56,46.29],[116.21,45.89],[116.2,45.74],[115.68,45.46],[114.56,45.39],[114.08,44.97],[113.59,44.75],[112.71,44.88],[112.41,45.06],[111.9,45.06],[111.62,44.83],[111.4,44.37],[111.84,43.93],[111.93,43.71],[111.55,43.5],[111.01,43.34],[110.4,42.77],[109.34,42.44],[108.17,42.45],[106.77,42.29],[105.2,41.74],[104.98,41.6],[104.5,41.66],[104.5,41.88],[103.71,41.75],[103.07,42.01],[102.16,42.16],[101.5,42.54],[99.98,42.68],[99.47,42.57],[97.21,42.79],[96.39,42.72],[96.3,42.93],[95.86,43.28],[95.53,43.95],[95.33,44.04],[95.35,44.28],[95.05,44.26],[94.71,44.35],[93.52,44.94],[91.58,45.08],[90.88,45.2],[90.66,45.53],[90.71,45.73],[91.0,46.04],[90.91,46.27],[91.03,46.57],[90.87,46.95],[90.72,47.0],[90.5,47.29],[90.33,47.66],[90.1,47.75],[90.03,47.88],[89.78,47.83],[89.48,48.03],[89.05,48.0],[88.58,48.22],[88.52,48.38],[87.98,48.56],[88.06,48.71],[87.74,48.88],[87.87,49.0],[87.81,49.16]]]]}},{"type":"Feature","properties":{"iso":"MDA","name":"Moldova","label_lon":28.455,"label_lat":47.194},"geometry":{"type":"MultiPolygon","coordinates":[[[[26.62,48.26],[26.85,48.39],[27.23,48.37],[27.55,48.48],[28.29,48.24],[28.46,48.09],[28.53,48.15],[28.77,48.12],[28.92,47.95],[29.13,47.96],[29.21,47.77],[29.13,47.49],[29.54,47.27],[29.57,46.96],[29.88,46.83],[29.92,46.54],[30.13,46.42],[29.84,46.35],[29.71,46.45],[29.61,46.4],[29.3,46.47],[29.2,46.38],[29.19,46.52],[28.96,46.46],[29.01,46.18],[28.95,46.05],[28.49,45.67],[28.5,45.52],[28.21,45.45],[28.07,45.6],[28.16,45.65],[28.1,45.97],[28.24,46.64],[28.07,46.98],[27.61,47.34],[26.98,48.16],[26.62,48.26]]]]}},{"type":"Feature","properties":{"iso":"LTU","name":"Lithuania","label_lon":23.889,"label_lat":55.323},"geometry":{"type":"MultiPolygon","coordinates":[[[[22.77,54.36],[22.68,54.56],[22.82,54.87],[22.57,55.06],[22.07,55.06],[21.24,55.26],[21.05,56.07],[21.65,56.31],[22.08,56.41],[22.88,56.4],[23.04,56.32],[23.2,56.37],[24.12,56.26],[24.47,56.28],[24.84,56.41],[25.07,56.2],[25.66,56.1],[26.28,55.75],[26.59,55.67],[26.46,55.34],[26.78,55.27],[26.6,55.13],[26.29,55.14],[26.18,55.0],[25.86,54.92],[25.55,54.33],[25.75,54.26],[25.77,54.18],[25.68,54.14],[25.51,54.16],[25.46,54.29],[25.05,54.13],[24.87,54.15],[24.77,53.97],[24.32,53.89],[24.19,53.95],[23.56,53.92],[23.48,53.94],[23.45,54.14],[23.37,54.2],[22.89,54.39],[22.77,54.36]]]]}},{"type":"Feature","properties":{"iso":"LVA","name":"Latvia","label_lon":24.907,"label_lat":56.85},"geometry":{"type":"MultiPolygon","coordinates":[[[[26.59,55.67],[26.28,55.75],[25.66,56.1],[25.07,56.2],[24.84,56.41],[24.47,56.28],[24.12,56.26],[22.08,56.41],[21.05,56.07],[21.03,56.64],[21.07,56.82],[21.35,57.02],[21.46,57.32],[21.73,57.57],[22.55,57.72],[22.65,57.6],[23.14,57.32],[23.29,57.09],[23.65,56.97],[23.93,57.01],[24.38,57.25],[24.32,57.87],[25.11,58.06],[25.23,58.0],[25.34,58.04],[25.99,57.84],[26.46,57.54],[26.97,57.61],[27.47,57.52],[27.83,57.29],[27.64,56.85],[27.85,56.85],[28.1,56.55],[28.2,56.26],[28.15,56.14],[27.9,56.08],[27.58,55.8],[27.05,55.83],[26.59,55.67]]]]}},{"type":"Feature","properties":{"iso":"KGZ","name":"Kyrgyzstan","label_lon":74.543,"label_lat":41.464},"geometry":{"type":"MultiPolygon","coordinates":[[[[70.96,40.24],[71.3,40.29],[71.69,40.15],[71.96,40.26],[72.13,40.44],[72.36,40.4],[72.4,40.58],[72.6,40.53],[73.14,40.81],[72.66,40.87],[72.36,41.04],[72.19,41.03],[72.16,41.17],[71.88,41.2],[71.66,41.54],[71.59,41.33],[71.42,41.34],[71.39,41.12],[70.86,41.22],[70.69,41.45],[70.47,41.41],[70.18,41.54],[70.8,41.92],[70.86,42.03],[71.23,42.16],[71.04,42.28],[70.95,42.25],[70.89,42.34],[71.17,42.67],[71.42,42.78],[71.82,42.82],[72.28,42.76],[73.49,42.41],[73.42,42.59],[73.56,43.0],[74.21,43.24],[75.37,42.84],[75.64,42.81],[75.84,42.94],[76.99,42.97],[79.13,42.78],[79.43,42.48],[79.92,42.41],[80.21,42.19],[80.25,42.06],[79.84,42.0],[79.77,41.9],[78.74,41.56],[78.36,41.37],[78.12,41.08],[77.58,40.99],[76.91,41.02],[76.66,40.78],[76.48,40.45],[76.32,40.35],[76.26,40.43],[75.68,40.31],[75.56,40.63],[75.11,40.45],[74.84,40.48],[74.83,40.33],[73.99,40.04],[73.84,39.8],[73.91,39.58],[73.72,39.46],[73.11,39.36],[72.56,39.38],[72.36,39.34],[72.23,39.21],[72.04,39.35],[71.78,39.28],[71.73,39.42],[71.5,39.48],[71.47,39.6],[70.8,39.39],[70.5,39.59],[69.3,39.52],[69.23,39.76],[69.28,39.92],[69.31,39.97],[69.48,39.92],[69.53,40.1],[69.97,40.2],[70.45,40.05],[70.52,39.95],[70.96,40.24]],[[71.21,39.89],[71.23,40.05],[70.98,40.13],[71.01,39.9],[71.21,39.89]],[[71.78,39.95],[71.79,40.0],[71.77,39.99],[71.74,39.98],[71.68,39.97],[71.67,39.95],[71.71,39.92],[71.75,39.91],[71.78,39.95]]]]}},{"type":"Feature","properties":{"iso":"KAZ","name":"Kazakhstan","label_lon":67.28,"label_lat":48.159},"geometry":{"type":"MultiPolygon","coordinates":[[[[50.18,44.85],[50.1,44.83],[50.0,44.94],[50.02,45.04],[50.11,45.08],[50.04,44.95],[50.18,44.85]]],[[[70.95,42.25],[70.58,42.04],[70.42,42.08],[70.1,41.82],[69.15,41.43],[68.58,40.88],[68.57,40.62],[68.42,40.62],[68.05,40.81],[68.11,41.03],[67.94,41.2],[66.71,41.18],[66.5,41.99],[66.01,42.0],[66.1,42.99],[65.8,42.88],[65.5,43.31],[64.91,43.71],[64.44,43.55],[63.21,43.63],[61.99,43.49],[61.16,44.17],[61.01,44.39],[58.56,45.56],[55.98,44.99],[55.98,41.32],[55.43,41.3],[54.85,41.97],[54.12,42.34],[53.06,42.15],[52.49,41.78],[52.46,42.1],[52.62,42.43],[52.6,42.76],[51.9,42.87],[51.62,43.16],[51.3,43.17],[51.3,43.48],[50.83,44.19],[50.33,44.33],[50.25,44.46],[50.3,44.58],[50.41,44.62],[50.86,44.63],[51.18,44.5],[51.54,44.53],[51.31,44.62],[51.01,44.92],[51.42,45.36],[52.43,45.4],[53.2,45.33],[52.77,45.57],[53.14,46.19],[53.06,46.48],[53.17,46.67],[53.07,46.86],[52.92,46.95],[52.48,46.99],[52.14,46.83],[51.18,47.11],[50.42,46.88],[49.89,46.6],[49.35,46.52],[49.36,46.41],[49.29,46.44],[49.23,46.34],[48.61,46.57],[48.52,46.73],[48.88,46.71],[48.96,46.77],[48.17,47.71],[47.48,47.8],[47.29,47.74],[47.09,47.95],[47.06,48.23],[46.66,48.41],[46.61,48.57],[46.7,48.81],[47.03,49.15],[46.8,49.37],[46.82,49.5],[46.99,49.85],[47.25,50.0],[47.33,50.27],[47.5,50.4],[47.71,50.38],[48.33,49.86],[48.76,49.93],[48.84,50.01],[48.63,50.61],[48.81,50.6],[49.32,50.85],[49.5,51.08],[50.31,51.32],[50.79,51.73],[51.16,51.65],[51.34,51.48],[51.61,51.48],[52.22,51.71],[52.57,51.48],[53.34,51.48],[54.14,51.04],[54.42,50.78],[54.47,50.58],[54.56,50.54],[54.65,50.66],[54.55,50.95],[54.64,51.01],[55.69,50.58],[56.05,50.71],[56.14,50.84],[56.49,51.02],[57.01,51.07],[57.44,50.89],[57.65,50.93],[57.84,51.09],[58.36,51.06],[58.88,50.69],[59.45,50.62],[59.52,50.49],[59.81,50.58],[60.06,50.85],[60.42,50.68],[60.94,50.7],[61.39,50.86],[61.59,51.23],[61.55,51.32],[61.36,51.44],[60.46,51.65],[60.39,51.77],[60.03,51.93],[60.99,52.34],[60.77,52.68],[61.05,52.97],[61.97,52.94],[62.08,53.01],[62.01,53.11],[61.66,53.23],[61.2,53.29],[61.23,53.45],[61.53,53.52],[60.98,53.62],[61.23,54.02],[61.93,53.95],[64.46,54.38],[65.09,54.34],[65.24,54.52],[65.48,54.62],[66.22,54.67],[68.16,54.98],[68.24,55.05],[68.21,55.16],[68.98,55.39],[69.49,55.36],[70.18,55.16],[70.74,55.31],[70.91,55.13],[71.19,54.6],[71.15,54.36],[71.05,54.26],[71.09,54.21],[71.34,54.16],[72.0,54.21],[72.19,54.33],[72.39,54.12],[72.45,53.94],[72.59,54.0],[72.62,54.13],[72.91,54.11],[73.23,53.96],[73.67,54.06],[73.68,53.93],[73.31,53.71],[73.29,53.6],[73.41,53.45],[73.86,53.62],[74.35,53.49],[74.45,53.65],[74.83,53.83],[75.22,53.89],[75.44,54.09],[76.84,54.44],[76.65,54.15],[76.42,54.15],[76.48,54.02],[77.86,53.27],[79.47,51.49],[79.99,50.77],[80.42,50.95],[80.45,51.18],[80.74,51.29],[81.13,51.19],[81.07,50.97],[81.39,50.96],[81.47,50.74],[82.49,50.73],[82.76,50.89],[83.36,50.99],[83.95,50.77],[84.32,50.24],[84.99,50.06],[85.0,49.89],[85.23,49.62],[86.18,49.5],[86.68,49.78],[86.73,49.7],[86.63,49.56],[87.0,49.29],[87.23,49.22],[87.32,49.09],[86.81,49.05],[86.72,48.7],[86.55,48.53],[85.75,48.39],[85.53,47.92],[85.66,47.25],[85.48,47.06],[85.23,47.04],[84.79,46.83],[84.67,46.97],[84.02,46.97],[83.03,47.19],[82.32,45.59],[82.33,45.52],[82.61,45.42],[82.52,45.13],[82.27,45.22],[81.94,45.16],[81.69,45.35],[80.06,45.01],[79.87,44.88],[80.48,44.71],[80.36,44.55],[80.36,44.1],[80.79,43.16],[80.39,43.04],[80.38,42.97],[80.54,42.87],[80.2,42.73],[80.16,42.63],[80.26,42.24],[80.21,42.19],[79.92,42.41],[79.43,42.48],[79.13,42.78],[76.99,42.97],[75.84,42.94],[75.64,42.81],[75.37,42.84],[74.21,43.24],[73.56,43.0],[73.42,42.59],[73.49,42.41],[72.28,42.76],[71.76,42.82],[71.26,42.73],[70.89,42.34],[70.95,42.25]]]]}},{"type":"Feature","properties":{"iso":"HUN","name":"Hungary","label_lon":19.401,"label_lat":47.163},"geometry":{"type":"MultiPolygon","coordinates":[[[[22.13,48.41],[22.25,48.41],[22.35,48.26],[22.58,48.13],[22.77,48.11],[22.88,47.95],[22.61,47.77],[22.29,47.73],[22.0,47.51],[22.0,47.4],[21.66,47.04],[21.5,46.7],[21.32,46.61],[21.26,46.41],[21.04,46.24],[20.84,46.26],[20.61,46.13],[20.24,46.11],[19.61,46.17],[19.28,46.0],[18.67,45.91],[18.44,45.77],[17.96,45.77],[17.31,46.0],[16.87,46.34],[16.52,46.5],[16.28,46.86],[16.09,46.86],[16.45,47.01],[16.44,47.4],[16.68,47.54],[16.42,47.67],[16.59,47.75],[16.79,47.68],[17.07,47.71],[17.03,47.84],[17.15,48.01],[17.76,47.77],[18.72,47.79],[18.79,48.0],[19.47,48.11],[19.63,48.22],[19.95,48.15],[20.33,48.3],[20.49,48.53],[21.45,48.55],[21.72,48.35],[22.13,48.41]]]]}},{"type":"Feature","properties":{"iso":"DEU","name":"Germany","label_lon":10.375,"label_lat":51.088},"geometry":{"type":"MultiPolygon","coordinates":[[[[9.52,47.52],[9.18,47.67],[8.88,47.66],[8.57,47.78],[8.4,47.69],[8.57,47.64],[8.43,47.59],[7.57,47.61],[7.62,48.16],[7.84,48.64],[8.14,48.89],[8.13,48.97],[7.45,49.15],[6.74,49.16],[6.53,49.39],[6.34,49.45],[6.49,49.8],[6.26,49.87],[6.11,50.09],[6.18,50.23],[6.36,50.32],[6.34,50.45],[6.18,50.52],[6.24,50.6],[5.99,50.75],[6.05,50.9],[5.86,51.03],[6.13,51.15],[6.08,51.22],[6.2,51.45],[5.95,51.8],[6.74,51.91],[6.8,51.98],[6.72,52.08],[7.02,52.27],[7.0,52.42],[6.69,52.53],[6.75,52.63],[7.01,52.63],[7.18,52.97],[7.2,53.28],[7.05,53.38],[7.21,53.65],[8.01,53.69],[8.17,53.54],[8.11,53.47],[8.25,53.45],[8.33,53.61],[8.49,53.51],[8.5,53.39],[8.53,53.78],[8.62,53.88],[9.21,53.86],[9.59,53.6],[9.78,53.55],[9.31,53.86],[8.98,53.93],[8.9,54.0],[8.91,54.26],[8.64,54.29],[8.65,54.4],[8.95,54.47],[8.96,54.54],[8.68,54.79],[8.67,54.9],[9.25,54.81],[9.62,54.86],[10.02,54.67],[10.03,54.58],[9.87,54.47],[10.14,54.49],[10.21,54.41],[10.36,54.44],[10.73,54.32],[11.01,54.38],[11.06,54.28],[11.01,54.18],[10.81,54.08],[10.92,54.0],[11.4,53.94],[11.8,54.15],[12.11,54.17],[12.58,54.47],[13.03,54.41],[13.45,54.14],[13.72,54.15],[13.87,53.85],[14.26,53.73],[14.41,53.2],[14.13,52.88],[14.62,52.53],[14.55,52.36],[14.75,52.08],[14.6,51.83],[14.72,51.66],[14.72,51.52],[14.94,51.44],[15.02,51.25],[14.96,51.1],[14.77,50.82],[14.61,50.86],[14.55,50.99],[14.32,51.04],[14.26,51.0],[14.37,50.9],[13.56,50.7],[12.94,50.41],[12.55,50.39],[12.28,50.18],[12.13,50.31],[12.09,50.27],[12.21,50.1],[12.51,49.9],[12.39,49.74],[12.63,49.46],[13.77,48.82],[13.79,48.59],[13.68,48.52],[13.49,48.58],[13.37,48.36],[12.76,48.11],[12.95,47.89],[12.9,47.72],[13.05,47.66],[13.01,47.48],[12.69,47.67],[12.48,47.64],[12.21,47.72],[12.19,47.62],[11.72,47.58],[11.04,47.39],[10.87,47.52],[10.44,47.55],[10.37,47.37],[10.18,47.28],[10.2,47.36],[9.97,47.51],[9.75,47.58],[9.52,47.52]]],[[[13.71,54.38],[13.71,54.28],[13.48,54.34],[13.36,54.25],[13.16,54.36],[13.18,54.54],[13.42,54.7],[13.66,54.56],[13.58,54.46],[13.71,54.38]]],[[[14.21,53.95],[14.21,53.87],[13.93,53.88],[13.83,54.13],[14.21,53.95]]],[[[8.31,54.79],[8.3,54.91],[8.41,55.06],[8.38,54.9],[8.63,54.89],[8.31,54.79]]],[[[8.59,54.71],[8.55,54.69],[8.45,54.69],[8.4,54.71],[8.42,54.74],[8.47,54.76],[8.51,54.76],[8.57,54.75],[8.59,54.71]]]]}},{"type":"Feature","properties":{"iso":"GEO","name":"Georgia","label_lon":43.506,"label_lat":42.166},"geometry":{"type":"MultiPolygon","coordinates":[[[[43.44,41.11],[43.4,41.18],[43.21,41.2],[42.75,41.58],[42.61,41.58],[42.47,41.44],[41.93,41.5],[41.82,41.43],[41.51,41.52],[41.7,41.71],[41.76,41.97],[41.49,42.66],[40.84,43.06],[40.46,43.15],[39.98,43.42],[40.15,43.57],[40.65,43.53],[41.58,43.22],[42.76,43.17],[43.78,42.75],[43.74,42.62],[43.83,42.57],[44.51,42.75],[44.77,42.62],[44.87,42.76],[45.16,42.67],[45.34,42.53],[45.71,42.5],[45.64,42.21],[46.43,41.89],[46.18,41.66],[46.67,41.29],[46.53,41.09],[46.17,41.2],[45.92,41.19],[45.73,41.26],[45.72,41.34],[45.28,41.45],[44.81,41.26],[44.84,41.21],[43.44,41.11]]]]}},{"type":"Feature","properties":{"iso":"FIN","name":"Finland","label_lon":26.289,"label_lat":64.505},"geometry":{"type":"MultiPolygon","coordinates":[[[[24.16,65.81],[23.91,66.15],[23.7,66.25],[23.7,66.48],[23.87,66.58],[23.99,66.81],[23.64,67.13],[23.63,67.23],[23.77,67.33],[23.73,67.42],[23.45,67.46],[23.54,67.61],[23.5,67.88],[23.64,67.95],[23.18,68.14],[23.1,68.26],[22.85,68.37],[22.0,68.52],[20.62,69.04],[21.07,69.04],[21.13,69.08],[21.07,69.21],[21.59,69.27],[22.3,68.86],[22.41,68.72],[23.32,68.65],[23.85,68.81],[24.94,68.59],[25.25,68.82],[25.75,68.99],[25.77,69.28],[26.01,69.65],[26.53,69.92],[27.13,69.91],[27.89,70.06],[28.41,69.82],[29.14,69.67],[29.33,69.47],[28.85,69.18],[28.97,69.02],[28.41,68.9],[28.78,68.81],[28.47,68.49],[28.69,68.19],[29.34,68.06],[29.99,67.67],[29.94,67.55],[29.24,67.1],[29.07,66.89],[29.9,66.09],[30.09,65.79],[30.1,65.68],[29.72,65.62],[29.82,65.57],[29.61,65.25],[29.83,65.15],[29.6,64.97],[29.78,64.8],[30.11,64.73],[30.12,64.64],[29.99,64.52],[30.11,64.37],[30.49,64.24],[30.53,64.08],[30.21,63.8],[29.99,63.74],[31.18,63.21],[31.53,62.89],[31.19,62.48],[29.25,61.29],[27.8,60.54],[27.46,60.46],[27.21,60.54],[26.53,60.41],[26.57,60.62],[26.38,60.42],[25.96,60.47],[26.04,60.34],[25.76,60.27],[25.66,60.33],[24.6,60.11],[24.45,60.02],[23.46,59.99],[22.96,59.83],[23.2,60.02],[22.87,60.22],[22.79,60.08],[22.46,60.03],[22.44,60.16],[22.59,60.23],[22.51,60.28],[22.58,60.38],[21.85,60.51],[21.81,60.59],[21.61,60.53],[21.44,60.6],[21.36,60.97],[21.51,61.28],[21.51,61.48],[21.57,61.48],[21.5,61.55],[21.61,61.59],[21.26,61.99],[21.34,62.28],[21.17,62.41],[21.1,62.62],[21.47,63.03],[21.65,63.04],[21.55,63.2],[22.32,63.31],[22.24,63.44],[22.35,63.44],[22.32,63.5],[22.4,63.49],[22.53,63.65],[23.6,64.04],[24.28,64.52],[24.56,64.8],[24.94,64.88],[25.29,64.86],[25.23,64.95],[25.37,65.01],[25.26,65.14],[25.35,65.48],[24.67,65.67],[24.58,65.76],[24.63,65.86],[24.4,65.78],[24.16,65.81]]],[[[21.22,63.24],[21.42,63.25],[21.25,63.15],[21.08,63.28],[21.22,63.24]]],[[[22.18,60.37],[22.42,60.3],[22.31,60.27],[22.36,60.17],[22.08,60.29],[22.18,60.37]]],[[[21.83,60.14],[21.7,60.11],[21.76,60.2],[21.86,60.2],[21.83,60.14]]],[[[24.85,64.99],[24.58,64.98],[24.58,65.04],[24.97,65.06],[24.85,64.99]]]]}},{"type":"Feature","properties":{"iso":"EST","name":"Estonia","label_lon":25.831,"label_lat":58.686},"geometry":{"type":"MultiPolygon","coordinates":[[[[27.35,57.53],[26.97,57.61],[26.46,57.54],[25.99,57.84],[25.28,58.05],[24.32,57.87],[24.53,58.35],[24.34,58.38],[24.11,58.27],[23.77,58.36],[23.51,58.66],[23.68,58.79],[23.5,58.79],[23.43,58.92],[23.52,59.0],[23.49,59.2],[24.08,59.29],[24.05,59.37],[24.38,59.47],[25.44,59.52],[25.51,59.64],[26.62,59.55],[26.97,59.45],[27.89,59.41],[28.01,59.48],[28.15,59.37],[27.9,59.28],[27.76,59.05],[27.43,58.79],[27.53,58.44],[27.5,58.22],[27.78,57.87],[27.54,57.8],[27.35,57.53]]],[[[22.62,58.62],[22.96,58.61],[23.32,58.45],[23.13,58.44],[22.73,58.23],[22.37,58.22],[22.15,57.97],[22.0,57.93],[21.99,58.0],[22.19,58.15],[21.88,58.26],[21.98,58.39],[21.86,58.5],[22.27,58.51],[22.33,58.58],[22.62,58.62]]],[[[22.92,58.83],[22.54,58.69],[22.41,58.86],[22.06,58.94],[22.46,58.97],[22.65,59.09],[22.91,58.99],[23.01,58.83],[22.92,58.83]]],[[[23.34,58.55],[23.06,58.61],[23.17,58.68],[23.33,58.65],[23.34,58.55]]]]}},{"type":"Feature","properties":{"iso":"CZE","name":"Czechia","label_lon":15.308,"label_lat":49.731},"geometry":{"type":"MultiPolygon","coordinates":[[[[18.83,49.51],[18.6,49.49],[18.16,49.26],[18.09,49.07],[17.76,48.89],[17.14,48.84],[16.95,48.6],[16.88,48.7],[16.54,48.8],[16.06,48.75],[15.83,48.86],[14.99,49.0],[14.92,48.77],[14.79,48.75],[14.69,48.6],[14.19,48.58],[12.68,49.41],[12.39,49.74],[12.51,49.9],[12.21,50.1],[12.09,50.3],[12.28,50.18],[12.55,50.39],[12.94,50.41],[13.56,50.7],[14.37,50.9],[14.28,51.03],[14.55,50.99],[14.72,50.81],[14.98,50.89],[14.99,51.01],[15.26,50.96],[15.35,50.81],[16.01,50.61],[16.36,50.62],[16.42,50.57],[16.38,50.52],[16.21,50.42],[16.64,50.1],[16.99,50.24],[16.88,50.43],[17.42,50.25],[17.7,50.31],[17.74,50.23],[17.59,50.16],[17.63,50.12],[17.83,49.98],[18.03,50.04],[18.56,49.88],[18.83,49.51]]]]}},{"type":"Feature","properties":{"iso":"CHN","name":"China","label_lon":103.795,"label_lat":36.617},"geometry":{"type":"MultiPolygon","coordinates":[[[[107.97,21.51],[107.76,21.66],[107.35,21.61],[106.97,21.92],[106.66,21.98],[106.55,22.5],[106.78,22.78],[106.54,22.91],[106.28,22.86],[106.15,22.97],[105.84,22.92],[105.55,23.07],[105.28,23.35],[104.86,23.14],[104.8,22.91],[104.69,22.82],[104.37,22.7],[104.14,22.8],[103.94,22.54],[103.62,22.78],[103.49,22.59],[103.3,22.76],[102.98,22.45],[102.47,22.75],[102.13,22.38],[102.02,22.44],[101.84,22.39],[101.71,22.49],[101.52,22.25],[101.74,21.83],[101.72,21.31],[101.8,21.24],[101.73,21.16],[101.54,21.23],[101.25,21.2],[101.08,21.76],[100.6,21.47],[100.15,21.48],[100.1,21.66],[99.94,21.76],[99.92,22.03],[99.17,22.15],[99.34,22.5],[99.39,22.83],[99.51,22.96],[99.42,23.07],[98.86,23.19],[98.83,23.62],[98.68,23.91],[98.84,24.12],[98.21,24.11],[97.56,23.91],[97.71,24.23],[97.53,24.49],[97.53,24.63],[97.58,24.77],[97.74,24.87],[97.71,25.03],[97.82,25.25],[98.01,25.29],[98.14,25.57],[98.33,25.59],[98.47,25.79],[98.66,25.86],[98.56,26.07],[98.69,26.19],[98.74,26.7],[98.65,27.57],[98.45,27.66],[98.3,27.55],[98.1,28.14],[97.66,28.5],[97.54,28.51],[97.32,28.22],[97.08,28.37],[96.78,28.37],[96.6,28.46],[96.39,28.37],[96.28,28.41],[96.58,28.76],[96.44,29.05],[96.14,28.92],[96.12,29.08],[96.36,29.25],[96.23,29.25],[96.04,29.45],[95.52,29.21],[95.39,29.04],[94.77,29.18],[94.62,29.31],[93.76,28.73],[93.25,28.63],[93.12,28.4],[92.65,28.09],[92.66,27.95],[91.98,27.73],[91.63,27.76],[91.64,27.92],[91.27,28.08],[91.02,27.97],[90.72,28.07],[90.35,28.08],[90.35,28.24],[89.9,28.29],[89.48,28.06],[88.89,27.32],[88.75,27.52],[88.85,27.87],[88.8,28.01],[88.62,28.09],[88.14,27.95],[88.11,27.87],[87.62,27.82],[87.14,27.84],[86.61,28.1],[86.41,27.93],[86.14,28.11],[85.99,27.91],[85.68,28.28],[85.12,28.32],[85.16,28.59],[84.8,28.56],[84.23,28.91],[84.1,29.22],[83.94,29.28],[83.58,29.18],[83.16,29.61],[82.85,29.68],[82.22,30.06],[82.04,30.33],[81.64,30.39],[81.42,30.34],[81.26,30.09],[81.11,30.04],[80.99,30.24],[80.68,30.41],[80.19,30.57],[80.15,30.79],[79.39,31.06],[79.11,31.4],[78.76,31.3],[78.73,31.47],[78.8,31.62],[78.69,31.74],[78.74,31.96],[78.5,32.22],[78.39,32.52],[78.7,32.6],[78.92,32.36],[79.22,32.5],[79.14,33.17],[78.8,33.5],[78.73,34.01],[78.97,34.3],[78.67,34.52],[78.28,34.65],[78.01,35.25],[78.04,35.48],[77.09,35.55],[76.63,35.73],[76.55,35.89],[76.18,35.81],[76.07,35.98],[75.91,36.05],[75.97,36.38],[75.84,36.65],[75.67,36.74],[75.42,36.74],[75.35,36.91],[74.54,37.02],[74.38,37.14],[74.73,37.29],[74.89,37.23],[75.12,37.39],[74.89,37.6],[74.94,37.77],[74.78,38.19],[74.84,38.4],[74.75,38.51],[74.28,38.66],[74.13,38.66],[74.03,38.54],[73.8,38.61],[73.7,38.85],[73.81,38.97],[73.61,39.23],[73.63,39.45],[73.91,39.58],[73.84,39.8],[73.99,40.04],[74.83,40.33],[74.84,40.48],[75.11,40.45],[75.56,40.63],[75.68,40.31],[76.26,40.43],[76.32,40.35],[76.48,40.45],[76.66,40.78],[76.91,41.02],[77.58,40.99],[78.12,41.08],[78.36,41.37],[78.74,41.56],[79.77,41.9],[79.84,42.0],[80.24,42.04],[80.17,42.67],[80.25,42.8],[80.54,42.87],[80.38,42.97],[80.39,43.04],[80.79,43.16],[80.36,44.1],[80.36,44.55],[80.48,44.71],[79.87,44.88],[80.06,45.01],[81.69,45.35],[81.94,45.16],[82.27,45.22],[82.52,45.13],[82.61,45.42],[82.33,45.52],[82.32,45.59],[83.03,47.19],[84.02,46.97],[84.67,46.97],[84.79,46.83],[85.23,47.04],[85.48,47.06],[85.66,47.25],[85.53,47.92],[85.69,48.31],[85.83,48.41],[86.55,48.53],[86.72,48.7],[86.75,49.01],[87.05,49.11],[87.42,49.08],[87.81,49.16],[87.87,49.0],[87.74,48.88],[88.06,48.71],[87.98,48.56],[88.52,48.38],[88.58,48.22],[89.05,48.0],[89.48,48.03],[89.78,47.83],[90.03,47.88],[90.1,47.75],[90.31,47.68],[90.5,47.29],[90.72,47.0],[90.87,46.95],[91.03,46.57],[90.91,46.27],[91.0,46.04],[90.71,45.73],[90.66,45.53],[90.88,45.2],[91.58,45.08],[93.52,44.94],[94.71,44.35],[95.05,44.26],[95.35,44.28],[95.33,44.04],[95.53,43.95],[95.86,43.28],[96.3,42.93],[96.39,42.72],[97.21,42.79],[99.47,42.57],[99.98,42.68],[101.5,42.54],[102.16,42.16],[103.07,42.01],[103.71,41.75],[104.5,41.88],[104.5,41.66],[104.98,41.6],[105.2,41.74],[106.77,42.29],[108.17,42.45],[109.44,42.46],[110.4,42.77],[111.01,43.34],[111.55,43.5],[111.93,43.71],[111.84,43.93],[111.4,44.37],[111.62,44.83],[111.9,45.06],[112.41,45.06],[112.71,44.88],[113.59,44.75],[114.08,44.97],[114.56,45.39],[115.68,45.46],[116.2,45.74],[116.21,45.89],[116.56,46.29],[116.86,46.39],[117.33,46.36],[117.44,46.59],[117.74,46.52],[118.07,46.67],[118.72,46.69],[118.84,46.76],[119.33,46.61],[119.87,46.67],[119.9,46.86],[119.71,47.15],[119.16,47.53],[119.08,47.65],[118.76,47.76],[118.5,47.98],[117.77,47.99],[117.35,47.65],[116.76,47.87],[116.23,47.86],[115.9,47.69],[115.62,47.87],[115.53,48.13],[115.79,48.25],[115.82,48.58],[116.03,48.78],[116.68,49.82],[117.25,49.62],[117.87,49.51],[118.45,49.84],[119.26,50.07],[119.35,50.28],[119.16,50.41],[120.07,51.6],[120.51,51.85],[120.75,52.1],[120.66,52.57],[120.07,52.63],[120.09,52.79],[120.99,53.28],[123.31,53.56],[123.74,53.51],[124.81,53.13],[125.08,53.2],[125.65,53.04],[125.73,52.89],[126.05,52.74],[126.02,52.61],[126.34,52.36],[126.51,51.93],[126.81,51.51],[126.92,51.1],[127.31,50.71],[127.34,50.35],[127.59,50.21],[127.49,49.98],[127.55,49.8],[128.0,49.57],[128.7,49.6],[128.82,49.46],[129.07,49.37],[129.5,49.39],[130.2,48.89],[130.55,48.86],[130.62,48.77],[130.55,48.6],[130.8,48.34],[130.73,48.02],[130.96,47.71],[132.48,47.71],[132.71,47.95],[133.02,48.06],[133.47,48.1],[134.29,48.37],[134.67,48.25],[134.57,48.02],[134.75,47.72],[134.54,47.49],[134.17,47.3],[134.2,47.13],[133.87,46.5],[133.86,46.25],[133.51,45.88],[133.44,45.6],[133.19,45.49],[133.11,45.13],[132.94,45.03],[131.85,45.33],[131.45,44.98],[130.98,44.84],[131.26,44.07],[131.17,43.7],[131.26,43.38],[131.07,42.9],[130.42,42.73],[130.58,42.62],[130.53,42.54],[130.25,42.74],[130.24,42.89],[129.9,43.0],[129.7,42.45],[129.31,42.41],[129.2,42.22],[128.92,42.04],[128.05,41.99],[128.03,41.9],[128.29,41.61],[128.15,41.39],[127.18,41.53],[126.95,41.77],[126.72,41.72],[126.6,41.64],[126.49,41.36],[125.99,40.9],[125.73,40.87],[125.42,40.66],[124.89,40.46],[124.39,40.1],[124.27,39.92],[124.11,39.84],[123.65,39.88],[123.58,39.79],[122.84,39.6],[122.33,39.37],[121.98,39.05],[121.68,39.0],[121.65,38.87],[121.16,38.73],[121.11,38.92],[121.68,39.11],[121.63,39.22],[121.82,39.39],[121.28,39.38],[121.27,39.54],[121.52,39.64],[121.52,39.84],[121.8,39.95],[122.26,40.5],[122.14,40.69],[121.86,40.84],[121.83,40.97],[121.73,40.85],[121.17,40.9],[120.77,40.59],[120.48,40.23],[119.59,39.9],[119.39,39.75],[119.22,39.41],[118.98,39.18],[118.63,39.18],[118.3,39.07],[118.04,39.23],[117.78,39.13],[117.55,38.69],[117.66,38.42],[118.01,38.18],[118.54,38.09],[118.8,38.13],[118.94,38.04],[119.09,37.7],[118.99,37.64],[118.95,37.33],[119.29,37.14],[119.76,37.16],[119.89,37.25],[119.88,37.35],[120.31,37.62],[120.26,37.68],[120.75,37.83],[121.64,37.46],[121.96,37.45],[122.06,37.53],[122.34,37.41],[122.67,37.4],[122.57,37.32],[122.59,37.18],[122.45,37.07],[122.52,36.95],[122.34,36.83],[122.16,36.96],[121.93,36.96],[121.05,36.61],[120.81,36.63],[120.9,36.44],[120.71,36.41],[120.64,36.13],[120.39,36.05],[120.33,36.23],[120.18,36.2],[120.09,36.12],[120.28,35.98],[119.43,35.3],[119.17,34.85],[119.2,34.75],[119.35,34.75],[120.27,34.27],[120.5,33.64],[120.87,33.02],[120.85,32.66],[121.34,32.43],[121.45,32.15],[121.83,31.9],[121.87,31.7],[121.76,31.7],[121.35,31.86],[120.97,31.87],[120.79,32.03],[120.52,32.11],[120.04,31.94],[120.19,31.91],[120.5,32.02],[120.72,31.98],[120.79,31.82],[121.66,31.32],[121.83,31.06],[121.88,30.92],[121.42,30.79],[121.0,30.56],[120.9,30.39],[120.45,30.39],[120.19,30.24],[120.49,30.3],[120.63,30.13],[121.26,30.3],[121.68,29.98],[122.08,29.87],[121.51,29.48],[121.89,29.63],[121.97,29.49],[121.92,29.14],[121.72,29.26],[121.53,29.24],[121.45,29.13],[121.68,28.95],[121.54,28.93],[121.66,28.85],[121.48,28.64],[121.61,28.29],[121.51,28.32],[121.27,28.22],[121.22,28.35],[121.15,28.33],[120.96,28.04],[120.75,28.01],[120.83,27.89],[120.59,27.58],[120.61,27.41],[120.28,27.1],[120.04,26.63],[119.88,26.61],[119.82,26.85],[119.71,26.73],[119.59,26.78],[119.88,26.33],[119.46,26.05],[119.14,26.12],[119.33,25.95],[119.62,26.0],[119.54,25.59],[119.62,25.39],[119.18,25.45],[119.17,25.36],[119.29,25.23],[118.98,25.21],[118.91,24.93],[118.64,24.84],[118.72,24.75],[118.66,24.62],[118.3,24.57],[118.09,24.63],[118.01,24.48],[117.84,24.47],[117.88,24.4],[118.02,24.38],[118.06,24.25],[117.84,24.01],[117.74,24.01],[117.63,23.84],[117.47,23.84],[117.37,23.59],[117.29,23.71],[117.08,23.58],[116.91,23.65],[116.86,23.45],[116.63,23.35],[116.7,23.28],[116.54,23.18],[116.47,22.95],[116.25,22.98],[115.85,22.8],[115.64,22.85],[115.5,22.72],[115.2,22.82],[114.85,22.62],[114.75,22.63],[114.65,22.76],[114.55,22.53],[114.34,22.59],[114.02,22.51],[113.83,22.61],[113.62,22.86],[113.62,23.13],[113.52,23.1],[113.44,22.94],[113.33,22.91],[113.55,22.59],[113.55,22.23],[113.15,22.07],[113.09,22.21],[112.95,21.91],[112.81,21.94],[112.59,21.78],[112.36,21.98],[112.39,21.8],[112.3,21.74],[111.94,21.85],[111.87,21.72],[111.78,21.72],[111.6,21.56],[111.02,21.51],[111.0,21.43],[110.77,21.39],[110.57,21.21],[110.46,21.23],[110.41,21.34],[110.37,21.17],[110.15,20.94],[110.18,20.86],[110.37,20.84],[110.31,20.67],[110.51,20.52],[110.34,20.29],[110.12,20.26],[109.88,20.36],[109.97,20.45],[109.86,20.51],[109.66,20.92],[109.68,21.13],[109.78,21.34],[109.92,21.38],[109.93,21.48],[109.69,21.52],[109.57,21.69],[109.54,21.54],[109.15,21.43],[109.08,21.44],[109.1,21.59],[108.77,21.63],[108.62,21.77],[108.59,21.9],[108.48,21.9],[108.5,21.63],[108.32,21.69],[108.25,21.56],[107.97,21.51]]]]}},{"type":"Feature","properties":{"iso":"BGR","name":"Bulgaria","label_lon":25.228,"label_lat":42.771},"geometry":{"type":"MultiPolygon","coordinates":[[[[28.01,41.97],[27.53,41.92],[27.24,42.09],[26.62,41.96],[26.32,41.72],[26.11,41.73],[26.14,41.39],[25.92,41.31],[25.25,41.24],[24.99,41.36],[24.77,41.36],[24.49,41.56],[22.92,41.34],[23.0,41.74],[22.84,41.99],[22.34,42.31],[22.52,42.44],[22.44,42.63],[22.47,42.84],[22.71,42.88],[22.98,43.19],[22.5,43.52],[22.37,43.78],[22.4,43.97],[22.6,44.08],[22.71,44.24],[23.03,44.08],[22.87,43.95],[22.92,43.83],[23.22,43.87],[25.5,43.67],[26.22,44.01],[27.09,44.17],[27.43,44.02],[27.88,43.99],[28.05,43.82],[28.22,43.77],[28.59,43.74],[28.56,43.5],[28.47,43.39],[28.13,43.4],[27.93,43.19],[27.89,42.75],[27.48,42.47],[27.71,42.35],[28.01,41.97]]]]}},{"type":"Feature","properties":{"iso":"AZE","name":"Azerbaijan","label_lon":47.667,"label_lat":40.338},"geometry":{"type":"MultiPolygon","coordinates":[[[[44.82,39.65],[44.77,39.7],[45.03,39.77],[45.17,39.57],[45.46,39.49],[45.78,39.55],[45.77,39.38],[45.98,39.24],[46.11,38.88],[45.48,39.01],[45.14,39.25],[44.82,39.65]]],[[[48.87,38.44],[48.59,38.41],[48.0,38.85],[48.29,39.02],[48.1,39.24],[48.32,39.4],[48.0,39.68],[47.48,39.5],[46.49,38.91],[46.4,39.19],[46.58,39.22],[46.37,39.4],[46.48,39.56],[46.2,39.59],[45.58,39.98],[45.89,40.02],[45.96,40.23],[45.45,40.53],[45.38,40.67],[45.59,40.85],[45.42,40.99],[45.07,41.08],[45.19,41.15],[45.0,41.29],[45.28,41.45],[45.72,41.34],[45.73,41.26],[45.92,41.19],[46.17,41.2],[46.53,41.09],[46.67,41.29],[46.18,41.66],[46.43,41.89],[46.57,41.8],[46.75,41.81],[47.14,41.52],[47.32,41.28],[47.79,41.2],[48.06,41.46],[48.39,41.6],[48.57,41.84],[48.66,41.79],[49.46,40.8],[49.78,40.58],[50.18,40.5],[50.37,40.28],[49.92,40.32],[49.55,40.19],[49.32,39.61],[49.36,39.35],[49.17,39.03],[49.01,39.13],[48.85,38.84],[48.87,38.44]],[[45.55,40.62],[45.56,40.65],[45.53,40.66],[45.5,40.66],[45.48,40.65],[45.48,40.61],[45.51,40.6],[45.55,40.62]]],[[[45.02,41.03],[45.0,41.02],[44.97,41.03],[44.96,41.05],[44.96,41.08],[44.99,41.09],[45.02,41.08],[45.03,41.05],[45.02,41.03]]]]}},{"type":"Feature","properties":{"iso":"ARM","name":"Armenia","label_lon":44.92,"label_lat":40.29},"geometry":{"type":"MultiPolygon","coordinates":[[[[44.77,39.7],[44.29,40.04],[44.01,40.01],[43.67,40.13],[43.71,40.17],[43.57,40.48],[43.72,40.72],[43.63,40.93],[43.44,41.11],[44.84,41.21],[44.81,41.26],[45.0,41.29],[45.19,41.15],[45.07,41.08],[45.42,40.99],[45.59,40.85],[45.38,40.64],[45.57,40.42],[45.97,40.17],[45.89,40.02],[45.58,39.98],[46.2,39.59],[46.48,39.56],[46.37,39.4],[46.58,39.22],[46.4,39.19],[46.49,38.91],[46.11,38.88],[45.98,39.24],[45.77,39.38],[45.75,39.56],[45.46,39.49],[45.15,39.58],[45.03,39.77],[44.77,39.7]],[[45.02,41.03],[45.03,41.05],[45.02,41.08],[44.99,41.09],[44.96,41.08],[44.96,41.05],[44.97,41.03],[45.0,41.02],[45.02,41.03]]],[[[45.55,40.62],[45.51,40.6],[45.48,40.61],[45.48,40.65],[45.5,40.66],[45.53,40.66],[45.56,40.65],[45.55,40.62]]]]}}]}