{"type":"FeatureCollection","features":[{"type":"Feature","properties":{"asset_class":"pipeline_oil","scope":"context","route_quality":"osm_mapped","osm_id":122220663,"name":"Oleoducto Rota - San Roque","operator":"Exolum"},"geometry":{"type":"LineString","coordinates":[[-5.433,36.208],[-5.675,36.24],[-6.035,36.546]]}},{"type":"Feature","properties":{"asset_class":"pipeline_oil","scope":"context","route_quality":"osm_mapped","osm_id":268557490,"name":"Oleoducto Huelva - Coria - Sevilla","operator":"Exolum"},"geometry":{"type":"LineString","coordinates":[[-6.919,37.19],[-6.198,37.276]]}},{"type":"Feature","properties":{"asset_class":"pipeline_oil","scope":"context","route_quality":"osm_mapped","osm_id":142059792,"name":"Oleoducto Cartagena - Puertollano","operator":"Repsol"},"geometry":{"type":"LineString","coordinates":[[-4.041,38.675],[-2.191,38.671],[-1.971,38.488],[-1.88,38.303],[-1.567,38.123],[-1.444,37.837],[-1.078,37.716]]}},{"type":"Feature","properties":{"asset_class":"pipeline_oil","scope":"context","route_quality":"osm_mapped","osm_id":263972998,"name":"Oleoducto Arahal - Adamuz","operator":"Exolum"},"geometry":{"type":"LineString","coordinates":[[-4.574,37.961],[-4.916,37.716],[-5.045,37.528],[-5.356,37.368]]}},{"type":"Feature","properties":{"asset_class":"pipeline_oil","scope":"context","route_quality":"osm_mapped","osm_id":264037662,"name":"Oleoducto Adamuz - Poblete","operator":"Exolum"},"geometry":{"type":"LineString","coordinates":[[-4.171,38.727],[-4.475,38.508],[-4.532,38.033]]}},{"type":"Feature","properties":{"asset_class":"pipeline_oil","scope":"context","route_quality":"osm_mapped","osm_id":565868316,"name":"Port-Jérôme Ouistréham","operator":"Trapil"},"geometry":{"type":"LineString","coordinates":[[0.521,49.487],[0.079,49.29],[-0.268,49.253]]}},{"type":"Feature","properties":{"asset_class":"pipeline_oil","scope":"context","route_quality":"osm_mapped","osm_id":174743430,"name":"Norpipe","operator":"ConocoPhillips"},"geometry":{"type":"LineString","coordinates":[[-0.847,54.814],[3.198,56.55]]}},{"type":"Feature","properties":{"asset_class":"pipeline_oil","scope":"context","route_quality":"osm_mapped","osm_id":174743660,"name":"Beatrice Line (BL)","operator":"Ithaca Energy"},"geometry":{"type":"LineString","coordinates":[[-2.316,58.778],[-2.068,58.702],[-1.644,58.703],[0.25,58.466]]}},{"type":"Feature","properties":{"asset_class":"pipeline_oil","scope":"context","route_quality":"osm_mapped","osm_id":174745537,"name":"Brent Multi-field System","operator":null},"geometry":{"type":"LineString","coordinates":[[-1.257,60.468],[-0.737,60.527],[-0.196,60.819],[1.063,61.099]]}},{"type":"Feature","properties":{"asset_class":"pipeline_oil","scope":"context","route_quality":"osm_mapped","osm_id":457397240,"name":"Oléoduc sud-européen","operator":"Société du Pipeline Sud-Européen"},"geometry":{"type":"LineString","coordinates":[[5.02,45.381],[5.109,45.576],[5.126,45.809],[5.192,45.828],[5.339,46.249],[5.327,46.435],[5.519,46.762],[5.688,47.008],[6.272,47.334]]}},{"type":"Feature","properties":{"asset_class":"pipeline_oil","scope":"context","route_quality":"osm_mapped","osm_id":232593024,"name":"Pipeline Sud-Européen","operator":"Société du Pipeline Sud-Européen"},"geometry":{"type":"LineString","coordinates":[[4.923,43.889],[4.962,44.78]]}},{"type":"Feature","properties":{"asset_class":"pipeline_oil","scope":"context","route_quality":"osm_mapped","osm_id":486391913,"name":"Pipeline de l'Île de France","operator":"Total"},"geometry":{"type":"LineString","coordinates":[[2.942,48.585],[2.08,48.655],[1.732,48.916],[0.55,49.438],[0.189,49.487]]}},{"type":"Feature","properties":{"asset_class":"pipeline_oil","scope":"context","route_quality":"osm_mapped","osm_id":197762285,"name":"Pipeline Sud-Européen","operator":"Société du Pipeline Sud-Européen"},"geometry":{"type":"LineString","coordinates":[[6.272,47.334],[6.867,47.578],[7.137,47.765]]}},{"type":"Feature","properties":{"asset_class":"pipeline_oil","scope":"context","route_quality":"osm_mapped","osm_id":232593027,"name":"Pipeline Sud-Européen","operator":"Société du Pipeline Sud-Européen"},"geometry":{"type":"LineString","coordinates":[[7.137,47.765],[7.527,48.153],[7.662,48.636],[7.856,48.726]]}},{"type":"Feature","properties":{"asset_class":"pipeline_oil","scope":"context","route_quality":"osm_mapped","osm_id":338003961,"name":"Mitteleuropäische Rohölleitung","operator":"MERO Germany AG"},"geometry":{"type":"LineString","coordinates":[[11.602,48.771],[11.785,48.781],[12.594,49.133],[12.48,49.506],[12.529,49.654]]}},{"type":"Feature","properties":{"asset_class":"pipeline_oil","scope":"context","route_quality":"osm_mapped","osm_id":95474852,"name":"Nord-West-Ölleitung","operator":"Nord-West Oelleitung GmbH"},"geometry":{"type":"LineString","coordinates":[[7.164,52.275],[6.813,51.771]]}},{"type":"Feature","properties":{"asset_class":"pipeline_oil","scope":"context","route_quality":"osm_mapped","osm_id":132239998,"name":"Gorm-Fredericia Oil Pipeline","operator":"Danish Oil Pipe"},"geometry":{"type":"LineString","coordinates":[[9.738,55.596],[8.194,55.688]]}},{"type":"Feature","properties":{"asset_class":"pipeline_oil","scope":"context","route_quality":"osm_mapped","osm_id":637286669,"name":"Grane oil transport","operator":"Equinor"},"geometry":{"type":"LineString","coordinates":[[2.491,59.172],[4.75,60.585]]}},{"type":"Feature","properties":{"asset_class":"pipeline_oil","scope":"context","route_quality":"osm_mapped","osm_id":685329866,"name":"Johan Sverdrup oil transport","operator":"Equinor"},"geometry":{"type":"LineString","coordinates":[[2.556,58.837],[3.566,59.649],[4.421,60.534],[4.541,60.845],[5.023,60.818]]}},{"type":"Feature","properties":{"asset_class":"pipeline_oil","scope":"context","route_quality":"osm_mapped","osm_id":1118733032,"name":"Oseberg oil transport","operator":"Equinor"},"geometry":{"type":"LineString","coordinates":[[2.827,60.491],[3.947,60.499],[4.75,60.585]]}},{"type":"Feature","properties":{"asset_class":"pipeline_oil","scope":"context","route_quality":"osm_mapped","osm_id":236430356,"name":"Adria-Wien Pipeline","operator":"Adria-Wien Pipeline GmbH"},"geometry":{"type":"LineString","coordinates":[[13.07,46.65],[13.644,46.559],[13.906,46.596],[14.101,46.528],[14.461,46.54],[14.569,46.617],[15.16,46.711],[15.627,46.915],[16.012,47.282]]}},{"type":"Feature","properties":{"asset_class":"pipeline_oil","scope":"context","route_quality":"osm_mapped","osm_id":432760339,"name":"Oleodotto Transalpino","operator":"Societá Italiana per l’Oleodotto Transalpino S.p.A."},"geometry":{"type":"LineString","coordinates":[[13.465,45.922],[13.06,46.282],[12.99,46.588]]}},{"type":"Feature","properties":{"asset_class":"pipeline_oil","scope":"context","route_quality":"osm_mapped","osm_id":814022703,"name":"Mitteleuropäische Rohölleitung","operator":"MERO Germany AG"},"geometry":{"type":"LineString","coordinates":[[12.529,49.654],[12.959,49.728],[13.007,49.816],[13.245,49.89],[13.491,50.079],[13.902,50.234]]}},{"type":"Feature","properties":{"asset_class":"pipeline_oil","scope":"context","route_quality":"osm_mapped","osm_id":1333438686,"name":"Transalpine Ölleitung","operator":"Transalpine Ölleitung in Österreich Ges.m.b.H"},"geometry":{"type":"LineString","coordinates":[[12.99,46.588],[13.029,46.659],[12.965,46.733],[12.578,46.933]]}},{"type":"Feature","properties":{"asset_class":"pipeline_oil","scope":"context","route_quality":"osm_mapped","osm_id":158910168,"name":"Transalpine Ölleitung","operator":"Transalpine Ölleitung in Österreich Ges.m.b.H"},"geometry":{"type":"LineString","coordinates":[[12.17,47.528],[12.129,47.561],[12.192,47.647],[12.046,47.835],[12.051,48.106]]}},{"type":"Feature","properties":{"asset_class":"pipeline_oil","scope":"context","route_quality":"osm_mapped","osm_id":847788794,"name":"Sisak-Slavonski Brod","operator":"Jadranski naftovod"},"geometry":{"type":"LineString","coordinates":[[16.411,45.438],[16.653,45.51],[17.206,45.229],[17.951,45.171]]}},{"type":"Feature","properties":{"asset_class":"pipeline_oil","scope":"context","route_quality":"osm_mapped","osm_id":579799445,"name":"Нафтопровід Одеса-Броди","operator":"Укртранснафта"},"geometry":{"type":"LineString","coordinates":[[25.126,50.066],[25.375,49.902],[26.353,49.647],[28.378,48.799],[30.355,47.1],[30.739,46.829],[30.963,46.746],[31.053,46.621]]}},{"type":"Feature","properties":{"asset_class":"pipeline_oil","scope":"context","route_quality":"osm_mapped","osm_id":275828600,"name":"Omišalj–Sisak","operator":"Jadranski naftovod"},"geometry":{"type":"LineString","coordinates":[[16.411,45.438],[15.939,45.33],[15.222,45.39]]}},{"type":"Feature","properties":{"asset_class":"pipeline_oil","scope":"context","route_quality":"osm_mapped","osm_id":580473505,"name":"Sisak-Virje-Gola","operator":"Jadranski naftovod"},"geometry":{"type":"LineString","coordinates":[[16.411,45.438],[16.541,45.509],[16.541,45.597],[16.708,45.839],[17.015,46.094]]}},{"type":"Feature","properties":{"asset_class":"pipeline_oil","scope":"context","route_quality":"osm_mapped","osm_id":1050320058,"name":"Virje-Lendava","operator":"Jadranski naftovod"},"geometry":{"type":"LineString","coordinates":[[16.472,46.511],[16.822,46.331],[16.803,46.245],[17.015,46.095]]}},{"type":"Feature","properties":{"asset_class":"pipeline_oil","scope":"context","route_quality":"osm_mapped","osm_id":879643929,"name":"Slavonski Brod-Sotin","operator":"Jadranski naftovod"},"geometry":{"type":"LineString","coordinates":[[19.133,45.279],[18.53,45.265],[18.131,45.167]]}},{"type":"Feature","properties":{"asset_class":"pipeline_oil","scope":"context","route_quality":"osm_mapped","osm_id":970041355,"name":"Osijek-Budapest","operator":"MOL"},"geometry":{"type":"LineString","coordinates":[[17.73,46.433],[18.239,46.819]]}},{"type":"Feature","properties":{"asset_class":"pipeline_oil","scope":"context","route_quality":"osm_mapped","osm_id":236430520,"name":"Adria-Wien Pipeline","operator":"Adria-Wien Pipeline GmbH"},"geometry":{"type":"LineString","coordinates":[[16.012,47.282],[16.133,47.588],[16.372,47.753],[16.6,48.065],[16.506,48.134]]}},{"type":"Feature","properties":{"asset_class":"pipeline_oil","scope":"context","route_quality":"osm_mapped","osm_id":564620618,"name":"Friendship Pipeline (Slovakia)","operator":"Transpetrol"},"geometry":{"type":"LineString","coordinates":[[22.159,48.542],[21.929,48.621],[21.429,48.635],[21.195,48.559],[20.745,48.602],[20.435,48.537],[20.317,48.435],[19.69,48.308]]}},{"type":"Feature","properties":{"asset_class":"pipeline_oil","scope":"context","route_quality":"osm_mapped","osm_id":801992210,"name":"Friendship Pipeline (Slovakia)","operator":"Transpetrol"},"geometry":{"type":"LineString","coordinates":[[17.185,48.841],[17.392,48.683],[17.446,48.538],[17.776,48.379],[18.167,48.231],[18.896,48.1]]}},{"type":"Feature","properties":{"asset_class":"pipeline_oil","scope":"context","route_quality":"osm_mapped","osm_id":1030213900,"name":"Friendship Pipeline (Slovakia)","operator":"Transpetrol"},"geometry":{"type":"LineString","coordinates":[[17.697,48.429],[17.524,48.375],[17.499,48.295],[17.195,48.107]]}},{"type":"Feature","properties":{"asset_class":"pipeline_oil","scope":"context","route_quality":"osm_mapped","osm_id":566241458,"name":"Barátság II. kőolajvezeték","operator":"MOL"},"geometry":{"type":"LineString","coordinates":[[18.906,47.289],[19.034,47.282],[19.58,47.551],[20.082,47.692]]}},{"type":"Feature","properties":{"asset_class":"pipeline_oil","scope":"context","route_quality":"osm_mapped","osm_id":580260776,"name":"Barátság I. kőolajvezeték","operator":"MOL"},"geometry":{"type":"LineString","coordinates":[[18.896,48.1],[19.119,47.992],[19.332,47.535],[19.28,47.387],[18.907,47.288]]}},{"type":"Feature","properties":{"asset_class":"pipeline_oil","scope":"context","route_quality":"osm_mapped","osm_id":793405601,"name":"Friendship Pipeline (Slovakia)","operator":"Transpetrol"},"geometry":{"type":"LineString","coordinates":[[19.69,48.308],[19.132,48.107],[18.889,48.103]]}},{"type":"Feature","properties":{"asset_class":"pipeline_oil","scope":"context","route_quality":"osm_mapped","osm_id":580531828,"name":"Нафтопровід Дружба","operator":"MOL Nyrt."},"geometry":{"type":"LineString","coordinates":[[23.266,48.87],[22.989,48.738],[22.965,48.562],[22.746,48.468]]}},{"type":"Feature","properties":{"asset_class":"pipeline_oil","scope":"context","route_quality":"osm_mapped","osm_id":580531824,"name":"Дружба","operator":"Броди-2"},"geometry":{"type":"LineString","coordinates":[[25.126,50.066],[25.029,49.977],[24.739,49.914],[24.43,49.754],[24.226,49.394],[23.661,49.101]]}},{"type":"Feature","properties":{"asset_class":"pipeline_oil","scope":"context","route_quality":"osm_mapped","osm_id":657971261,"name":"Družba","operator":"MERO ČR, a.s."},"geometry":{"type":"LineString","coordinates":[[14.698,50.14],[13.899,50.38]]}},{"type":"Feature","properties":{"asset_class":"pipeline_oil","scope":"context","route_quality":"osm_mapped","osm_id":578626376,"name":"Przyjaźń","operator":null},"geometry":{"type":"LineString","coordinates":[[18.485,52.395],[17.618,52.336],[16.816,52.49]]}},{"type":"Feature","properties":{"asset_class":"pipeline_oil","scope":"context","route_quality":"osm_mapped","osm_id":1433874907,"name":"Przyjaźń","operator":null},"geometry":{"type":"LineString","coordinates":[[19.665,52.501],[19.388,52.428],[18.539,52.394]]}},{"type":"Feature","properties":{"asset_class":"pipeline_oil","scope":"context","route_quality":"osm_mapped","osm_id":155213401,"name":"Przyjaźń","operator":null},"geometry":{"type":"LineString","coordinates":[[20.026,52.52],[20.849,52.496]]}},{"type":"Feature","properties":{"asset_class":"pipeline_oil","scope":"context","route_quality":"osm_mapped","osm_id":578626379,"name":"Przyjaźń","operator":"PERN"},"geometry":{"type":"LineString","coordinates":[[22.868,52.399],[21.001,52.407],[20.864,52.482]]}},{"type":"Feature","properties":{"asset_class":"pipeline_oil","scope":"context","route_quality":"osm_mapped","osm_id":274735521,"name":"Дружба","operator":"Броди-2"},"geometry":{"type":"LineString","coordinates":[[29.263,51.921],[28.975,51.502],[28.937,51.326],[28.538,51.003],[28.062,50.862],[27.603,50.633],[26.218,50.398],[25.126,50.066]]}},{"type":"Feature","properties":{"asset_class":"pipeline_oil","scope":"context","route_quality":"osm_mapped","osm_id":36974540,"name":"Draudzība","operator":"SIA “LatRosTrans”"},"geometry":{"type":"LineString","coordinates":[[24.526,56.282],[24.117,56.388],[22.989,56.89],[22.238,57.058],[21.939,57.214],[21.876,57.321],[21.609,57.423]]}},{"type":"Feature","properties":{"asset_class":"pipeline_oil","scope":"context","route_quality":"osm_mapped","osm_id":320015957,"name":"Defunct Kirkuk–Baniyas pipeline","operator":null},"geometry":{"type":"LineString","coordinates":[[42.344,34.068],[40.861,34.306],[38.667,34.544],[38.277,34.534]]}},{"type":"Feature","properties":{"asset_class":"pipeline_oil","scope":"context","route_quality":"osm_mapped","osm_id":586351372,"name":"Bakü-Tiflis-Ceyhan Petrol Boru Hattı","operator":"BOTAŞ"},"geometry":{"type":"LineString","coordinates":[[36.337,37.46],[36.214,37.417],[35.937,36.905]]}},{"type":"Feature","properties":{"asset_class":"pipeline_oil","scope":"context","route_quality":"osm_mapped","osm_id":170760970,"name":"Bakü-Tiflis-Ceyhan Petrol Boru Hattı","operator":"BTC Co"},"geometry":{"type":"LineString","coordinates":[[37.207,39.611],[37.697,39.824]]}},{"type":"Feature","properties":{"asset_class":"pipeline_oil","scope":"context","route_quality":"osm_mapped","osm_id":20171711,"name":"خط أنابيب كركوك-جيهان","operator":null},"geometry":{"type":"LineString","coordinates":[[43.547,35.03],[43.462,35.032],[43.215,35.233],[43.018,35.538],[42.663,36.457],[42.393,36.831],[42.422,37.133]]}},{"type":"Feature","properties":{"asset_class":"pipeline_oil","scope":"context","route_quality":"osm_mapped","osm_id":1510601187,"name":"Defunct Kirkuk Baniyas Pipeline","operator":null},"geometry":{"type":"LineString","coordinates":[[42.408,34.103],[43.412,34.911]]}},{"type":"Feature","properties":{"asset_class":"pipeline_oil","scope":"context","route_quality":"osm_mapped","osm_id":1510606108,"name":"Kirkuk Baiji Pipeline","operator":null},"geometry":{"type":"LineString","coordinates":[[43.84,35.228],[44.298,35.509]]}},{"type":"Feature","properties":{"asset_class":"pipeline_oil","scope":"context","route_quality":"osm_mapped","osm_id":120914091,"name":"Bakü-Tiflis-Ceyhan Petrol Boru Hattı","operator":"BTC Co"},"geometry":{"type":"LineString","coordinates":[[42.93,40.84],[42.747,40.575],[42.508,40.475]]}},{"type":"Feature","properties":{"asset_class":"pipeline_oil","scope":"context","route_quality":"osm_mapped","osm_id":586351373,"name":"Bakı-Tbilisi-Ceyhan Neft Kəməri","operator":"BTC Co"},"geometry":{"type":"LineString","coordinates":[[48.504,40.295],[47.42,40.526],[47.255,40.62],[47.148,40.575],[47.054,40.639],[46.631,40.649],[46.585,40.747],[46.379,40.868],[46.17,40.853],[45.614,41.034],[45.391,41.285],[45.173,41.413]]}},{"type":"Feature","properties":{"asset_class":"pipeline_oil","scope":"context","route_quality":"osm_mapped","osm_id":305384916,"name":"Bakı-Tbilisi-Ceyhan Neft Kəməri","operator":"BTC Co"},"geometry":{"type":"LineString","coordinates":[[49.433,40.177],[48.944,40.053],[48.504,40.295]]}},{"type":"Feature","properties":{"asset_class":"pipeline_oil","scope":"context","route_quality":"osm_mapped","osm_id":274735631,"name":"Узень - Атырау","operator":"KazTransOil"},"geometry":{"type":"LineString","coordinates":[[52.826,43.359],[53.064,43.371],[53.018,43.627],[53.452,43.998],[53.555,44.338],[54.975,45.026],[55.158,45.148],[55.211,45.318],[54.534,46.124],[54.016,46.914],[53.374,46.944],[52.971,47.083],[51.872,47.175]]}},{"type":"Feature","properties":{"asset_class":"pipeline_oil","scope":"context","route_quality":"osm_mapped","osm_id":284302749,"name":"Bayneu - Aktau Pipeline","operator":null},"geometry":{"type":"LineString","coordinates":[[52.824,43.356],[52.638,43.348],[51.721,43.612],[51.295,43.648],[51.238,43.595]]}},{"type":"Feature","properties":{"asset_class":"pipeline_oil","scope":"context","route_quality":"osm_mapped","osm_id":579312815,"name":"Тенгиз - Кульсары","operator":"KazTransOil"},"geometry":{"type":"LineString","coordinates":[[53.995,46.926],[53.702,46.801],[53.525,46.521],[53.423,46.173]]}},{"type":"Feature","properties":{"asset_class":"pipeline_oil","scope":"context","route_quality":"osm_mapped","osm_id":274735055,"name":"Атырау - Самара","operator":"KazTransOil"},"geometry":{"type":"LineString","coordinates":[[51.873,47.165],[51.565,47.631],[51.471,48.21],[51.573,48.519],[51.76,48.697],[51.809,49.291],[51.575,49.436],[51.204,50.103],[50.998,50.33],[51.123,50.926],[51.115,51.273],[51.039,51.623],[50.785,51.993],[50.833,52.116],[50.513,52.421],[50.476,52.87],[50.537,52.991]]}},{"type":"Feature","properties":{"asset_class":"pipeline_oil","scope":"context","route_quality":"osm_mapped","osm_id":238914784,"name":"ВСТО","operator":"Транснефть"},"geometry":{"type":"LineString","coordinates":[[132.738,44.319],[132.545,44.063],[132.825,43.865],[132.87,43.702],[132.789,43.531],[132.803,43.355],[132.969,43.287],[132.874,42.997],[133.097,42.807]]}},{"type":"Feature","properties":{"asset_class":"pipeline_oil","scope":"context","route_quality":"osm_mapped","osm_id":174814639,"name":"ВСТО","operator":"Транснефть"},"geometry":{"type":"LineString","coordinates":[[124.262,53.947],[124.561,53.798],[125.229,53.661],[125.418,53.522],[125.88,53.416],[126.393,53.165],[126.348,52.99],[126.464,52.881],[126.524,52.682],[127.435,52.127],[127.541,51.923],[127.868,51.901],[128.375,51.433],[128.327,51.237],[128.502,51.019],[128.737,50.945],[128.694,50.857],[128.997,50.653],[129.05,50.509],[129.523,50.242],[129.79,49.772],[129.993,49.716],[130.259,49.384],[130.815,49.161],[130.914,48.991]]}},{"type":"Feature","properties":{"asset_class":"pipeline_oil","scope":"context","route_quality":"osm_mapped","osm_id":578805781,"name":"ВСТО","operator":"Транснефть"},"geometry":{"type":"LineString","coordinates":[[133.746,45.754],[133.641,45.666],[133.596,45.425],[133.676,45.093],[133.069,44.727],[132.957,44.514],[132.738,44.319]]}},{"type":"Feature","properties":{"asset_class":"pipeline_oil","scope":"context","route_quality":"osm_mapped","osm_id":578805780,"name":"ВСТО","operator":"Транснефть"},"geometry":{"type":"LineString","coordinates":[[134.238,46.617],[133.999,46.483],[134.009,46.298],[133.867,46.055],[133.939,45.954],[133.746,45.754]]}},{"type":"Feature","properties":{"asset_class":"pipeline_oil","scope":"context","route_quality":"osm_mapped","osm_id":142436390,"name":"ВСТО","operator":"Транснефть"},"geometry":{"type":"LineString","coordinates":[[130.914,48.991],[131.128,48.926],[131.79,48.973],[131.896,49.077],[132.486,49.045],[133.318,48.622],[133.684,48.559],[134.3,48.585],[134.459,48.699]]}},{"type":"Feature","properties":{"asset_class":"pipeline_oil","scope":"context","route_quality":"osm_mapped","osm_id":321783679,"name":"Отвод \"ВСТО - Китай\"","operator":"Транснефть"},"geometry":{"type":"LineString","coordinates":[[124.262,53.947],[124.121,53.625],[123.998,53.541],[123.979,53.382]]}},{"type":"Feature","properties":{"asset_class":"pipeline_oil","scope":"context","route_quality":"osm_mapped","osm_id":476149495,"name":"ВСТО — Комсомольский НПЗ","operator":"Транснефть"},"geometry":{"type":"LineString","coordinates":[[137.045,50.655],[136.909,50.736],[136.799,50.688],[136.684,50.404],[136.351,50.214],[136.301,50.088],[136.041,49.893],[135.278,49.569],[135.096,49.402],[135.091,49.085],[134.896,48.904]]}},{"type":"Feature","properties":{"asset_class":"pipeline_oil","scope":"context","route_quality":"osm_mapped","osm_id":1035963741,"name":"ВСТО","operator":"Транснефть"},"geometry":{"type":"LineString","coordinates":[[135.207,48.958],[135.404,48.822],[135.439,48.695],[135.341,48.56],[135.453,48.36],[135.207,48.132],[135.201,47.882],[135.072,47.781],[135.063,47.692],[134.501,47.284],[134.308,46.916],[134.294,46.675]]}},{"type":"Feature","properties":{"asset_class":"pipeline_oil","scope":"context","route_quality":"osm_mapped","osm_id":1035963742,"name":"ВСТО","operator":"Транснефть"},"geometry":{"type":"LineString","coordinates":[[134.459,48.699],[134.749,48.761],[134.92,48.949],[135.207,48.958]]}},{"type":"Feature","properties":{"asset_class":"pipeline_oil","scope":"context","route_quality":"osm_mapped","osm_id":394946668,"name":"Транссахалинская трубопроводная система","operator":"Sakhalin Energy"},"geometry":{"type":"LineString","coordinates":[[142.933,49.121],[142.896,48.84],[142.78,48.662],[142.624,48.578],[142.519,48.1]]}},{"type":"Feature","properties":{"asset_class":"pipeline_oil","scope":"context","route_quality":"osm_mapped","osm_id":394946661,"name":"Транссахалинская трубопроводная система","operator":"Sakhalin Energy"},"geometry":{"type":"LineString","coordinates":[[142.499,47.828],[142.726,47.344],[142.674,47.013]]}},{"type":"Feature","properties":{"asset_class":"pipeline_oil","scope":"context","route_quality":"osm_mapped","osm_id":209135245,"name":"Транссахалинская трубопроводная система","operator":"Sakhalin Energy"},"geometry":{"type":"LineString","coordinates":[[142.674,47.013],[142.64,46.953],[142.702,46.83],[142.809,46.787],[142.804,46.698],[142.899,46.642]]}},{"type":"Feature","properties":{"asset_class":"pipeline_oil","scope":"context","route_quality":"osm_mapped","osm_id":394946660,"name":"Транссахалинская трубопроводная система","operator":"Sakhalin Energy"},"geometry":{"type":"LineString","coordinates":[[142.709,50.105],[142.813,49.938],[142.769,49.819],[142.825,49.547],[142.964,49.281],[142.933,49.121]]}},{"type":"Feature","properties":{"asset_class":"pipeline_oil","scope":"context","route_quality":"osm_mapped","osm_id":394946663,"name":"Транссахалинская трубопроводная система","operator":"Sakhalin Energy"},"geometry":{"type":"LineString","coordinates":[[143.366,51.417],[143.064,51.211],[143.025,51.12],[142.819,51.102],[142.71,51.02],[142.686,50.879],[142.625,50.855],[142.703,50.603],[142.647,50.39],[142.709,50.105]]}}]}