{"type":"FeatureCollection","features":[{"type":"Feature","properties":{"asset_class":"pipeline_gas","scope":"context","route_quality":"osm_mapped","osm_id":229290151,"name":"أنبوب الغاز بيدرو دوران فارال","operator":null},"geometry":{"type":"LineString","coordinates":[[-3.913,34.272],[-3.108,34.295],[-2.602,34.025],[-1.655,34.043],[-1.148,33.863],[-0.428,33.485],[0.274,33.287],[0.564,33.128],[0.573,33.018],[2.632,32.953],[3.141,33.133],[3.209,33.023]]}},{"type":"Feature","properties":{"asset_class":"pipeline_gas","scope":"context","route_quality":"osm_mapped","osm_id":578918617,"name":"أنبوب الغاز بيدرو دوران فارال","operator":null},"geometry":{"type":"LineString","coordinates":[[-3.913,34.272],[-5.349,34.986],[-5.938,35.742]]}},{"type":"Feature","properties":{"asset_class":"pipeline_gas","scope":"context","route_quality":"osm_mapped","osm_id":787640057,"name":"Gasoducto Al-Ándalus (Tramo Málaga - Estepona)","operator":"Enagás"},"geometry":{"type":"LineString","coordinates":[[-4.709,36.539],[-4.973,36.529],[-5.13,36.445]]}},{"type":"Feature","properties":{"asset_class":"pipeline_gas","scope":"context","route_quality":"osm_mapped","osm_id":297353911,"name":"Gasoducto Conexión Internacional de Medgaz / خط أنابيب الغاز للاتصال الدولي Medgaz","operator":"Sonatrach"},"geometry":{"type":"LineString","coordinates":[[-1.277,35.354],[-1.564,35.627],[-1.651,36.246],[-1.768,36.47],[-2.239,36.679],[-2.351,36.84]]}},{"type":"Feature","properties":{"asset_class":"pipeline_gas","scope":"context","route_quality":"osm_mapped","osm_id":1316630656,"name":"RGZ3","operator":"sonatrach"},"geometry":{"type":"LineString","coordinates":[[0.79,35.662],[0.714,35.614],[0.146,35.656],[-0.047,35.616]]}},{"type":"Feature","properties":{"asset_class":"pipeline_gas","scope":"context","route_quality":"osm_mapped","osm_id":1258797691,"name":"Gasoduto Sines - Setúbal","operator":"REN"},"geometry":{"type":"LineString","coordinates":[[-8.841,37.942],[-8.653,38.451],[-8.841,38.536]]}},{"type":"Feature","properties":{"asset_class":"pipeline_gas","scope":"context","route_quality":"osm_mapped","osm_id":328669841,"name":"Gasoducto Huelva - Sevilla - Córdoba - Madrid","operator":"Enagás"},"geometry":{"type":"LineString","coordinates":[[-6.906,37.171],[-6.27,37.274]]}},{"type":"Feature","properties":{"asset_class":"pipeline_gas","scope":"context","route_quality":"osm_mapped","osm_id":647028149,"name":"Gasoducto Ramal Huelva - Ayamonte","operator":null},"geometry":{"type":"LineString","coordinates":[[-6.867,37.304],[-6.986,37.345],[-7.37,37.228]]}},{"type":"Feature","properties":{"asset_class":"pipeline_gas","scope":"context","route_quality":"osm_mapped","osm_id":1310803449,"name":"Gasoducto Huelva - Sevilla - Villafranca de Córdoba - Santa Cruz de Mudela","operator":"Enagás"},"geometry":{"type":"LineString","coordinates":[[-6.906,37.171],[-6.27,37.274]]}},{"type":"Feature","properties":{"asset_class":"pipeline_gas","scope":"context","route_quality":"osm_mapped","osm_id":828258602,"name":"Gasoduto Setúbal - Leiria","operator":"REN"},"geometry":{"type":"LineString","coordinates":[[-8.841,38.536],[-8.898,38.915],[-8.972,38.963],[-8.966,39.356]]}},{"type":"Feature","properties":{"asset_class":"pipeline_gas","scope":"context","route_quality":"osm_mapped","osm_id":770528781,"name":"Gasoduto Campo Maior - Leiria","operator":"REN"},"geometry":{"type":"LineString","coordinates":[[-8.002,39.282],[-8.125,39.437],[-8.415,39.449],[-8.475,39.703],[-8.74,39.856]]}},{"type":"Feature","properties":{"asset_class":"pipeline_gas","scope":"context","route_quality":"osm_mapped","osm_id":1258797692,"name":"Gasoduto Setúbal - Leiria","operator":"REN"},"geometry":{"type":"LineString","coordinates":[[-8.966,39.356],[-8.934,39.689],[-8.74,39.856]]}},{"type":"Feature","properties":{"asset_class":"pipeline_gas","scope":"context","route_quality":"osm_mapped","osm_id":1258797682,"name":"Gasoduto Campo Maior - Leiria","operator":"REN"},"geometry":{"type":"LineString","coordinates":[[-7.025,38.934],[-7.252,38.97],[-7.576,39.218],[-8.002,39.282]]}},{"type":"Feature","properties":{"asset_class":"pipeline_gas","scope":"context","route_quality":"osm_mapped","osm_id":770528775,"name":"Gasoduto Portalegre - Guarda","operator":"REN"},"geometry":{"type":"LineString","coordinates":[[-7.245,40.524],[-7.492,40.212],[-7.364,40.112],[-7.436,39.834],[-7.612,39.668],[-7.453,39.144]]}},{"type":"Feature","properties":{"asset_class":"pipeline_gas","scope":"context","route_quality":"osm_mapped","osm_id":1258797685,"name":"Gasoduto Coimbra - Viseu","operator":"REN"},"geometry":{"type":"LineString","coordinates":[[-8.484,40.384],[-8.137,40.426],[-7.936,40.562],[-7.826,40.564]]}},{"type":"Feature","properties":{"asset_class":"pipeline_gas","scope":"context","route_quality":"osm_mapped","osm_id":1258797696,"name":"Gasoduto Leiria - Braga","operator":"REN"},"geometry":{"type":"LineString","coordinates":[[-8.516,40.175],[-8.445,40.309],[-8.561,40.542],[-8.504,41.075]]}},{"type":"Feature","properties":{"asset_class":"pipeline_gas","scope":"context","route_quality":"osm_mapped","osm_id":1258797700,"name":"Gasoduto Braga - Tui","operator":"REN"},"geometry":{"type":"LineString","coordinates":[[-8.485,41.459],[-8.555,41.548],[-8.627,42.038]]}},{"type":"Feature","properties":{"asset_class":"pipeline_gas","scope":"context","route_quality":"osm_mapped","osm_id":269003506,"name":"Gasoducto Huelva - Sevilla - Córdoba - Madrid","operator":"Enagas"},"geometry":{"type":"LineString","coordinates":[[-5.204,37.668],[-5.688,37.476],[-5.996,37.268]]}},{"type":"Feature","properties":{"asset_class":"pipeline_gas","scope":"context","route_quality":"osm_mapped","osm_id":269008159,"name":"Gasoducto Huelva - Sevilla - Villafranca de Córdoba - Santa Cruz de Mudela","operator":"Enagás"},"geometry":{"type":"LineString","coordinates":[[-5.996,37.268],[-5.832,37.265],[-5.371,37.429]]}},{"type":"Feature","properties":{"asset_class":"pipeline_gas","scope":"context","route_quality":"osm_mapped","osm_id":263974746,"name":"Gasoducto Córdoba - Campo Maior - Leiria","operator":"Enagás"},"geometry":{"type":"LineString","coordinates":[[-4.665,37.92],[-6.384,38.711]]}},{"type":"Feature","properties":{"asset_class":"pipeline_gas","scope":"context","route_quality":"osm_mapped","osm_id":331373354,"name":"Gasoducto Al-Ándalus (Tramo Tarifa - Córdoba)","operator":"Enagás"},"geometry":{"type":"LineString","coordinates":[[-5.846,36.714],[-5.796,36.84],[-5.508,37.122]]}},{"type":"Feature","properties":{"asset_class":"pipeline_gas","scope":"context","route_quality":"osm_mapped","osm_id":331405426,"name":"Gasoducto Al-Ándalus (Tramo Tarifa - Córdoba)","operator":"Enagás"},"geometry":{"type":"LineString","coordinates":[[-5.508,37.122],[-4.876,37.463]]}},{"type":"Feature","properties":{"asset_class":"pipeline_gas","scope":"context","route_quality":"osm_mapped","osm_id":305991008,"name":"Gasoducto Huelva - Sevilla - Villafranca de Córdoba - Santa Cruz de Mudela","operator":"Enagás"},"geometry":{"type":"LineString","coordinates":[[-4.578,37.914],[-4.78,37.68],[-5.371,37.429]]}},{"type":"Feature","properties":{"asset_class":"pipeline_gas","scope":"context","route_quality":"osm_mapped","osm_id":366947872,"name":"Gasoducto Al-Ándalus (Tramo Puente Genil - Málaga)","operator":"Enagás"},"geometry":{"type":"LineString","coordinates":[[-4.642,37.044],[-4.876,37.463]]}},{"type":"Feature","properties":{"asset_class":"pipeline_gas","scope":"context","route_quality":"osm_mapped","osm_id":647516989,"name":"Gasoducto Al-Ándalus (Tramo Córdoba - Jaén - Granada)","operator":"Enagas"},"geometry":{"type":"LineString","coordinates":[[-3.994,37.733],[-3.925,37.516],[-3.652,37.237]]}},{"type":"Feature","properties":{"asset_class":"pipeline_gas","scope":"context","route_quality":"osm_mapped","osm_id":647817130,"name":"Gasoducto Al-Ándalus (Tramo Granada - Motril)","operator":"Enagás"},"geometry":{"type":"LineString","coordinates":[[-3.652,37.237],[-3.708,37.163],[-3.518,36.868],[-3.588,36.786],[-3.543,36.731]]}},{"type":"Feature","properties":{"asset_class":"pipeline_gas","scope":"context","route_quality":"osm_mapped","osm_id":264039037,"name":"Gasoducto Huelva - Sevilla - Córdoba - Madrid","operator":"Enagas"},"geometry":{"type":"LineString","coordinates":[[-4.315,38.597],[-4.526,38.105]]}},{"type":"Feature","properties":{"asset_class":"pipeline_gas","scope":"context","route_quality":"osm_mapped","osm_id":437639729,"name":"Gasoducto Huelva - Sevilla - Villafranca de Córdoba - Santa Cruz de Mudela","operator":"Enagás"},"geometry":{"type":"LineString","coordinates":[[-3.599,38.252],[-4.188,37.919],[-4.575,37.915]]}},{"type":"Feature","properties":{"asset_class":"pipeline_gas","scope":"context","route_quality":"osm_mapped","osm_id":777461438,"name":"Gasoducto Al-Ándalus (Tramo Tarifa - Córdoba)","operator":"Enagás"},"geometry":{"type":"LineString","coordinates":[[-4.444,37.806],[-4.876,37.463]]}},{"type":"Feature","properties":{"asset_class":"pipeline_gas","scope":"context","route_quality":"osm_mapped","osm_id":305615667,"name":"Gasaducto Almendralejo-Cáceres","operator":"Enagas"},"geometry":{"type":"LineString","coordinates":[[-6.181,39.439],[-6.322,39.039],[-6.289,38.942]]}},{"type":"Feature","properties":{"asset_class":"pipeline_gas","scope":"context","route_quality":"osm_mapped","osm_id":305190222,"name":"Gasaducto Cáceres-Salamanca","operator":"Enagas"},"geometry":{"type":"LineString","coordinates":[[-5.883,40.349],[-6.182,39.996],[-6.137,39.758],[-6.181,39.439]]}},{"type":"Feature","properties":{"asset_class":"pipeline_gas","scope":"context","route_quality":"osm_mapped","osm_id":268334045,"name":"Gasoducto Córdoba-Alcazar de San Juan","operator":"Enagas"},"geometry":{"type":"LineString","coordinates":[[-3.279,39.381],[-3.352,38.758]]}},{"type":"Feature","properties":{"asset_class":"pipeline_gas","scope":"context","route_quality":"osm_mapped","osm_id":777477128,"name":"Gasoducto Huelva - Sevilla - Córdoba - Madrid","operator":"Enagas"},"geometry":{"type":"LineString","coordinates":[[-3.824,39.43],[-3.922,39.294],[-3.919,39.079],[-3.99,38.939]]}},{"type":"Feature","properties":{"asset_class":"pipeline_gas","scope":"context","route_quality":"osm_mapped","osm_id":167174195,"name":"Gaseoducto Albacete-Montesa","operator":"Enagas"},"geometry":{"type":"LineString","coordinates":[[-0.617,38.959],[-0.913,38.815],[-1.111,38.888],[-1.694,38.889]]}},{"type":"Feature","properties":{"asset_class":"pipeline_gas","scope":"context","route_quality":"osm_mapped","osm_id":198767621,"name":"Gasoducto Tivissa-Paterna","operator":"Enagas"},"geometry":{"type":"LineString","coordinates":[[-0.282,39.66],[0.24,40.555],[0.566,40.748]]}},{"type":"Feature","properties":{"asset_class":"pipeline_gas","scope":"context","route_quality":"osm_mapped","osm_id":159717590,"name":"Gasoducto Lorca-Chinchilla","operator":"Enagas"},"geometry":{"type":"LineString","coordinates":[[-1.703,38.253],[-1.61,38.296],[-1.579,38.535],[-1.65,38.606],[-1.72,38.893]]}},{"type":"Feature","properties":{"asset_class":"pipeline_gas","scope":"context","route_quality":"osm_mapped","osm_id":783143372,"name":"Gaseoducto Alcázar de S. Juan-Villarrobledo","operator":"Enagás"},"geometry":{"type":"LineString","coordinates":[[-2.6,39.238],[-3.279,39.382]]}},{"type":"Feature","properties":{"asset_class":"pipeline_gas","scope":"context","route_quality":"osm_mapped","osm_id":305783810,"name":"Gasoducto Cáceres-Salamanca","operator":"Enagas"},"geometry":{"type":"LineString","coordinates":[[-5.883,40.349],[-5.82,40.829],[-5.726,40.986]]}},{"type":"Feature","properties":{"asset_class":"pipeline_gas","scope":"context","route_quality":"osm_mapped","osm_id":298207558,"name":"Gasoducto Algete-Yela","operator":"Enagas"},"geometry":{"type":"LineString","coordinates":[[-2.824,40.808],[-3.206,40.69],[-3.318,40.536],[-3.546,40.587]]}},{"type":"Feature","properties":{"asset_class":"pipeline_gas","scope":"context","route_quality":"osm_mapped","osm_id":300187023,"name":"Gasoducto Villamayor-Algete","operator":"Enagas"},"geometry":{"type":"LineString","coordinates":[[-3.533,40.761],[-3.645,40.975],[-3.587,41.188],[-3.727,41.523],[-3.727,41.665]]}},{"type":"Feature","properties":{"asset_class":"pipeline_gas","scope":"context","route_quality":"osm_mapped","osm_id":305261741,"name":"Gasoducto Zamora-Aranda","operator":"Enagas"},"geometry":{"type":"LineString","coordinates":[[-5.632,41.56],[-4.895,41.543]]}},{"type":"Feature","properties":{"asset_class":"pipeline_gas","scope":"context","route_quality":"osm_mapped","osm_id":777484156,"name":"Gasoducto Villamayor-Algete","operator":"Enagas"},"geometry":{"type":"LineString","coordinates":[[-3.727,41.665],[-3.785,42.107]]}},{"type":"Feature","properties":{"asset_class":"pipeline_gas","scope":"context","route_quality":"osm_mapped","osm_id":304527085,"name":"Gasoducto Zarza de Tajo-Yela","operator":"Enagas"},"geometry":{"type":"LineString","coordinates":[[-2.825,40.808],[-3.092,40.46],[-3.144,40.017]]}},{"type":"Feature","properties":{"asset_class":"pipeline_gas","scope":"context","route_quality":"osm_mapped","osm_id":218907733,"name":"Gasoducto Tivissa-Castelnou","operator":"Enagas"},"geometry":{"type":"LineString","coordinates":[[-0.122,41.176],[0.251,41.051],[0.659,41.059]]}},{"type":"Feature","properties":{"asset_class":"pipeline_gas","scope":"context","route_quality":"osm_mapped","osm_id":217666761,"name":"Gasoducto Castellnou-Villar de Arnedo","operator":"Enagás; Enagas"},"geometry":{"type":"LineString","coordinates":[[-0.908,41.564],[-1.349,41.795],[-1.906,42.217]]}},{"type":"Feature","properties":{"asset_class":"pipeline_gas","scope":"context","route_quality":"osm_mapped","osm_id":273339701,"name":"Gasoducto Larrau-Villar de Arnedo","operator":"Enagas"},"geometry":{"type":"LineString","coordinates":[[-1.361,42.576],[-1.9,42.42]]}},{"type":"Feature","properties":{"asset_class":"pipeline_gas","scope":"context","route_quality":"osm_mapped","osm_id":272586425,"name":"Gasoducto Larrau-Villar de Arnedo","operator":"Enagas"},"geometry":{"type":"LineString","coordinates":[[-0.995,42.975],[-1.112,42.736],[-1.278,42.746],[-1.321,42.667]]}},{"type":"Feature","properties":{"asset_class":"pipeline_gas","scope":"context","route_quality":"osm_mapped","osm_id":317378182,"name":"Gasoduto Vilalba-Llanera","operator":"Enagas"},"geometry":{"type":"LineString","coordinates":[[-7.045,43.481],[-7.342,43.454],[-7.701,43.312]]}},{"type":"Feature","properties":{"asset_class":"pipeline_gas","scope":"context","route_quality":"osm_mapped","osm_id":61057104,"name":"Gasoducto Llanera-Villapresente","operator":"Enagas"},"geometry":{"type":"LineString","coordinates":[[-5.795,43.46],[-5.479,43.368],[-5.251,43.383]]}},{"type":"Feature","properties":{"asset_class":"pipeline_gas","scope":"context","route_quality":"osm_mapped","osm_id":659805031,"name":"Auvers-le Hamon Nozay","operator":"NaTran"},"geometry":{"type":"LineString","coordinates":[[-0.369,47.883],[-1.553,47.586]]}},{"type":"Feature","properties":{"asset_class":"pipeline_gas","scope":"context","route_quality":"osm_mapped","osm_id":238473282,"name":"Auvers-le Hamon Cherré","operator":"NaTran"},"geometry":{"type":"LineString","coordinates":[[-0.369,47.883],[0.268,48.083]]}},{"type":"Feature","properties":{"asset_class":"pipeline_gas","scope":"context","route_quality":"osm_mapped","osm_id":201825943,"name":"Cappagh South - Perssepark  - Ories","operator":"Gas Networks Ireland"},"geometry":{"type":"LineString","coordinates":[[-7.996,53.398],[-8.702,53.24]]}},{"type":"Feature","properties":{"asset_class":"pipeline_gas","scope":"context","route_quality":"osm_mapped","osm_id":201825947,"name":"Barntick - Cappagh South","operator":"Gas Networks Ireland"},"geometry":{"type":"LineString","coordinates":[[-8.702,53.24],[-8.829,53.103],[-8.927,52.838]]}},{"type":"Feature","properties":{"asset_class":"pipeline_gas","scope":"context","route_quality":"osm_mapped","osm_id":200431074,"name":"Bellanaboy - Moneynierin - Turlough","operator":"Gas Networks Ireland"},"geometry":{"type":"LineString","coordinates":[[-9.743,54.232],[-9.29,54.012],[-9.237,53.884]]}},{"type":"Feature","properties":{"asset_class":"pipeline_gas","scope":"context","route_quality":"osm_mapped","osm_id":201825949,"name":"Turlough - Ballymoneen - Cappagh South","operator":"Gas Networks Ireland"},"geometry":{"type":"LineString","coordinates":[[-9.178,53.821],[-8.861,53.342]]}},{"type":"Feature","properties":{"asset_class":"pipeline_gas","scope":"context","route_quality":"osm_mapped","osm_id":201825946,"name":"Ories - Gneevekeel - Gaybrook - Moyfin","operator":"Gas Networks Ireland"},"geometry":{"type":"LineString","coordinates":[[-7.851,53.397],[-7.032,53.467]]}},{"type":"Feature","properties":{"asset_class":"pipeline_gas","scope":"context","route_quality":"osm_mapped","osm_id":60638598,"name":"NTS Feeder 14","operator":null},"geometry":{"type":"LineString","coordinates":[[-1.775,52.74],[-1.253,52.42],[-1.928,52.029],[-2.094,51.65],[-2.238,51.519],[-2.426,51.474],[-2.552,51.34],[-2.661,51.034],[-2.997,50.932],[-3.257,50.734],[-3.524,50.668]]}},{"type":"Feature","properties":{"asset_class":"pipeline_gas","scope":"context","route_quality":"osm_mapped","osm_id":245687579,"name":"KENN SOUTH TO CHOAKFORD","operator":"National Gas Transmission PLC"},"geometry":{"type":"LineString","coordinates":[[-3.985,50.375],[-3.576,50.485],[-3.525,50.668]]}},{"type":"Feature","properties":{"asset_class":"pipeline_gas","scope":"context","route_quality":"osm_mapped","osm_id":677522988,"name":"Milford Haven Pipeline","operator":null},"geometry":{"type":"LineString","coordinates":[[-3.222,52.032],[-3.347,52.036],[-3.489,51.945],[-3.918,51.94]]}},{"type":"Feature","properties":{"asset_class":"pipeline_gas","scope":"context","route_quality":"osm_mapped","osm_id":1051232844,"name":"National Transmission System : Feeder 4","operator":"National Gas Transmission"},"geometry":{"type":"LineString","coordinates":[[1.46,52.858],[-1.192,52.536],[-1.756,52.728],[-2.043,52.895],[-2.2,52.863],[-2.396,53.013]]}},{"type":"Feature","properties":{"asset_class":"pipeline_gas","scope":"context","route_quality":"osm_mapped","osm_id":440424760,"name":"UK-Ireland Interconnector 2 (IC2)","operator":"Gas Networks Ireland"},"geometry":{"type":"LineString","coordinates":[[-5.193,54.088],[-4.447,54.502],[-4.097,54.781]]}},{"type":"Feature","properties":{"asset_class":"pipeline_gas","scope":"context","route_quality":"osm_mapped","osm_id":908435960,"name":"St Fergus to Mossmorran","operator":"Shell"},"geometry":{"type":"LineString","coordinates":[[-3.357,56.382],[-3.139,56.596],[-2.441,56.823],[-2.305,56.924],[-2.219,57.003],[-2.306,57.102],[-2.235,57.214],[-1.891,57.391],[-1.851,57.576]]}},{"type":"Feature","properties":{"asset_class":"pipeline_gas","scope":"context","route_quality":"osm_mapped","osm_id":902882371,"name":"UK-Ireland Interconnector","operator":"Gas Networks Ireland"},"geometry":{"type":"LineString","coordinates":[[-5.164,53.974],[-5.425,53.604],[-5.62,53.582]]}},{"type":"Feature","properties":{"asset_class":"pipeline_gas","scope":"context","route_quality":"osm_mapped","osm_id":902882373,"name":"UK-Ireland Interconnector 2 (IC2)","operator":"Gas Networks Ireland"},"geometry":{"type":"LineString","coordinates":[[-5.845,53.804],[-5.193,54.088]]}},{"type":"Feature","properties":{"asset_class":"pipeline_gas","scope":"context","route_quality":"osm_mapped","osm_id":700200074,"name":"Feeder 13","operator":"National Gas"},"geometry":{"type":"LineString","coordinates":[[-2.732,55.997],[-2.419,55.745],[-2.221,55.671]]}},{"type":"Feature","properties":{"asset_class":"pipeline_gas","scope":"context","route_quality":"osm_mapped","osm_id":1290911114,"name":"Aberdeen to Kirriemuir","operator":"National Gas"},"geometry":{"type":"LineString","coordinates":[[-2.383,57.135],[-2.301,57.055],[-2.317,56.966],[-2.526,56.783],[-2.727,56.735]]}},{"type":"Feature","properties":{"asset_class":"pipeline_gas","scope":"context","route_quality":"osm_mapped","osm_id":174152570,"name":"FLAGS","operator":"Shell"},"geometry":{"type":"LineString","coordinates":[[1.698,61.02],[1.532,60.722],[0.836,60.384],[0.71,60.216],[-0.084,59.708],[-0.791,59.065],[-1.059,58.491],[-1.519,57.758]]}},{"type":"Feature","properties":{"asset_class":"pipeline_gas","scope":"context","route_quality":"osm_mapped","osm_id":579498271,"name":"SIRGE","operator":null},"geometry":{"type":"LineString","coordinates":[[-1.206,60.443],[-1.022,60.461],[-0.734,60.342],[-0.599,59.048],[-0.308,58.821]]}},{"type":"Feature","properties":{"asset_class":"pipeline_gas","scope":"context","route_quality":"osm_mapped","osm_id":996266673,"name":"Aberdeen to Arbroath","operator":"National Gas"},"geometry":{"type":"LineString","coordinates":[[-2.383,57.135],[-2.275,57.089],[-2.244,56.99],[-2.458,56.784]]}},{"type":"Feature","properties":{"asset_class":"pipeline_gas","scope":"context","route_quality":"osm_mapped","osm_id":174152610,"name":"West of Shetland Gas Pipeline (WOSP)","operator":"BP"},"geometry":{"type":"LineString","coordinates":[[-4.276,60.315],[-4.125,60.29],[-3.96,60.354],[-3.806,60.281],[-1.602,60.808],[-1.282,60.757],[-1.209,60.656],[-1.266,60.477]]}},{"type":"Feature","properties":{"asset_class":"pipeline_gas","scope":"context","route_quality":"osm_mapped","osm_id":174152525,"name":"East of Shetland Gas Pipeline (EOSP)","operator":"BP"},"geometry":{"type":"LineString","coordinates":[[-1.265,60.477],[-1.237,60.722],[-1.002,60.972],[1.293,61.525],[1.315,61.584]]}},{"type":"Feature","properties":{"asset_class":"pipeline_gas","scope":"context","route_quality":"osm_mapped","osm_id":224794671,"name":"GG1","operator":"Sonelgaz"},"geometry":{"type":"LineString","coordinates":[[3.704,36.713],[3.827,36.344],[3.746,35.998],[3.754,35.284],[3.307,33.913],[3.25,32.937]]}},{"type":"Feature","properties":{"asset_class":"pipeline_gas","scope":"context","route_quality":"osm_mapped","osm_id":578918608,"name":"LZ2","operator":"SONATRACH"},"geometry":{"type":"LineString","coordinates":[[1.222,35.366],[0.666,35.633],[0.177,35.639]]}},{"type":"Feature","properties":{"asset_class":"pipeline_gas","scope":"context","route_quality":"osm_mapped","osm_id":225282712,"name":"GALSI","operator":"SONATRACH"},"geometry":{"type":"LineString","coordinates":[[6.175,36.024],[6.516,36.153],[7.041,36.173]]}},{"type":"Feature","properties":{"asset_class":"pipeline_gas","scope":"context","route_quality":"osm_mapped","osm_id":379118070,"name":"GALSI","operator":"SONATRACH"},"geometry":{"type":"LineString","coordinates":[[7.382,36.237],[7.811,36.628],[8.232,36.743],[8.219,36.856],[8.074,36.878]]}},{"type":"Feature","properties":{"asset_class":"pipeline_gas","scope":"context","route_quality":"osm_mapped","osm_id":174152545,"name":"Europipe","operator":"Gassco"},"geometry":{"type":"LineString","coordinates":[[7.476,53.7],[7.391,53.803],[6.931,54.012],[4.166,55.749],[2.947,57.138],[2.518,57.543],[2.427,57.748],[2.42,58.142],[2.464,58.188]]}},{"type":"Feature","properties":{"asset_class":"pipeline_gas","scope":"context","route_quality":"osm_mapped","osm_id":174152585,"name":"Franpipe","operator":"Gassco"},"geometry":{"type":"LineString","coordinates":[[2.446,58.185],[2.388,58.141],[2.396,57.08],[2.861,56.408],[3.274,56.071],[3.413,55.817],[3.091,53.264],[3.207,52.778],[3.089,51.838],[2.405,51.321]]}},{"type":"Feature","properties":{"asset_class":"pipeline_gas","scope":"context","route_quality":"osm_mapped","osm_id":174152599,"name":"Statpipe","operator":"Gassco"},"geometry":{"type":"LineString","coordinates":[[7.034,53.492],[6.696,53.995],[6.363,54.293],[4.083,55.752],[3.249,56.576],[3.171,56.584]]}},{"type":"Feature","properties":{"asset_class":"pipeline_gas","scope":"context","route_quality":"osm_mapped","osm_id":174152618,"name":"Zeepipe I","operator":"Gassco"},"geometry":{"type":"LineString","coordinates":[[1.909,58.367],[1.978,58.116],[2.381,57.47],[2.402,57.063],[2.859,56.407],[3.273,56.07],[3.41,55.826],[3.09,53.264],[3.205,52.76],[3.041,51.543]]}},{"type":"Feature","properties":{"asset_class":"pipeline_gas","scope":"context","route_quality":"osm_mapped","osm_id":721648960,"name":"Etrez - Allerey","operator":"NaTran"},"geometry":{"type":"LineString","coordinates":[[4.992,46.927],[5.103,46.812],[5.213,46.341]]}},{"type":"Feature","properties":{"asset_class":"pipeline_gas","scope":"context","route_quality":"osm_mapped","osm_id":233855888,"name":"Oyonnax - Groisy","operator":"NaTran"},"geometry":{"type":"LineString","coordinates":[[6.15,46.009],[5.75,46.107],[5.616,46.216],[5.625,46.283]]}},{"type":"Feature","properties":{"asset_class":"pipeline_gas","scope":"context","route_quality":"osm_mapped","osm_id":372717748,"name":"Arc de Dierrey","operator":"NaTran"},"geometry":{"type":"LineString","coordinates":[[3.796,48.307],[3.54,48.56],[3.425,48.767],[3.085,48.916],[3.074,49.035],[2.927,49.2],[2.67,49.291],[2.611,49.399],[2.708,49.513]]}},{"type":"Feature","properties":{"asset_class":"pipeline_gas","scope":"context","route_quality":"osm_mapped","osm_id":461846577,"name":"Arc de Dierrey","operator":"NaTran"},"geometry":{"type":"LineString","coordinates":[[3.797,48.307],[5.174,47.877]]}},{"type":"Feature","properties":{"asset_class":"pipeline_gas","scope":"context","route_quality":"osm_mapped","osm_id":266944645,"name":"Artère de Bourgogne","operator":"NaTran"},"geometry":{"type":"LineString","coordinates":[[5.037,46.978],[5.166,47.105],[5.219,47.317],[5.175,47.877]]}},{"type":"Feature","properties":{"asset_class":"pipeline_gas","scope":"context","route_quality":"osm_mapped","osm_id":717425769,"name":"Canalisation GAZ HP DN 550 Dieppe / Blénod-lès-PàM","operator":"NaTran"},"geometry":{"type":"LineString","coordinates":[[6.064,48.869],[5.523,49.228]]}},{"type":"Feature","properties":{"asset_class":"pipeline_gas","scope":"context","route_quality":"osm_mapped","osm_id":717425698,"name":"Canalisation GAZ HP DN 450 Cerville / Baldenheim (Alsace 1)","operator":"NaTran"},"geometry":{"type":"LineString","coordinates":[[6.877,48.416],[6.463,48.697],[6.306,48.7]]}},{"type":"Feature","properties":{"asset_class":"pipeline_gas","scope":"context","route_quality":"osm_mapped","osm_id":38351659,"name":"Trans Europa Naturgas Pipeline","operator":"TENP Trans Europa Naturgas Pipeline GmbH & Co. KG"},"geometry":{"type":"LineString","coordinates":[[6.557,50.6],[7.112,50.072],[7.242,50.052],[7.335,49.849],[7.515,49.663],[7.515,49.44]]}},{"type":"Feature","properties":{"asset_class":"pipeline_gas","scope":"context","route_quality":"osm_mapped","osm_id":1006253849,"name":"MEGAL Nord Hauptleitung","operator":"MEGAL Mittel-Europäische Gasleitungsgesellschaft mbH & Co. KG"},"geometry":{"type":"LineString","coordinates":[[8.557,49.745],[8.08,49.576],[7.78,49.545],[7.516,49.435],[7.565,49.376]]}},{"type":"Feature","properties":{"asset_class":"pipeline_gas","scope":"context","route_quality":"osm_mapped","osm_id":1109771309,"name":"MEGAL Nord Parallelleitung","operator":"MEGAL Mittel-Europäische Gasleitungsgesellschaft mbH & Co. KG"},"geometry":{"type":"LineString","coordinates":[[8.557,49.745],[8.08,49.576],[7.78,49.545],[7.516,49.435],[7.565,49.376]]}},{"type":"Feature","properties":{"asset_class":"pipeline_gas","scope":"context","route_quality":"osm_mapped","osm_id":1144158249,"name":"MEGAL Nord Hauptleitung","operator":"MEGAL Mittel-Europäische Gasleitungsgesellschaft mbH & Co. KG"},"geometry":{"type":"LineString","coordinates":[[11.055,49.529],[9.948,49.842]]}},{"type":"Feature","properties":{"asset_class":"pipeline_gas","scope":"context","route_quality":"osm_mapped","osm_id":846918888,"name":"Rheintalsüdleitung 3","operator":"Terranets BW"},"geometry":{"type":"LineString","coordinates":[[7.853,48.557],[7.903,48.455],[7.767,48.342],[7.729,47.993]]}},{"type":"Feature","properties":{"asset_class":"pipeline_gas","scope":"context","route_quality":"osm_mapped","osm_id":1117461425,"name":"Trans Europa Naturgas Pipeline II","operator":"TENP Trans Europa Naturgas Pipeline GmbH & Co. KG"},"geometry":{"type":"LineString","coordinates":[[7.754,48.359],[7.757,48.049],[7.596,47.836]]}},{"type":"Feature","properties":{"asset_class":"pipeline_gas","scope":"context","route_quality":"osm_mapped","osm_id":1117461426,"name":"Trans Europa Naturgas Pipeline I","operator":"TENP Trans Europa Naturgas Pipeline GmbH & Co. KG"},"geometry":{"type":"LineString","coordinates":[[7.754,48.359],[7.757,48.049],[7.596,47.836]]}},{"type":"Feature","properties":{"asset_class":"pipeline_gas","scope":"context","route_quality":"osm_mapped","osm_id":1293623841,"name":"Schwarzwaldleitung","operator":"Terranets BW"},"geometry":{"type":"LineString","coordinates":[[7.906,48.495],[8.063,48.292],[8.192,48.282],[8.232,48.191]]}},{"type":"Feature","properties":{"asset_class":"pipeline_gas","scope":"context","route_quality":"osm_mapped","osm_id":117478612,"name":"Trans Europa Naturgas Pipeline II","operator":"TENP Trans Europa Naturgas Pipeline GmbH & Co. KG"},"geometry":{"type":"LineString","coordinates":[[8.055,48.726],[7.859,48.57],[7.754,48.359]]}},{"type":"Feature","properties":{"asset_class":"pipeline_gas","scope":"context","route_quality":"osm_mapped","osm_id":517074699,"name":"Main-Neckar-Ferngasleitung 10/10","operator":"Open Grid Europe GmbH"},"geometry":{"type":"LineString","coordinates":[[8.502,49.582],[8.6,49.439],[8.538,49.203],[8.336,49.055]]}},{"type":"Feature","properties":{"asset_class":"pipeline_gas","scope":"context","route_quality":"osm_mapped","osm_id":846918887,"name":"Trans Europa Naturgas Pipeline I","operator":"TENP Trans Europa Naturgas Pipeline GmbH & Co. KG"},"geometry":{"type":"LineString","coordinates":[[8.056,48.726],[7.859,48.57],[7.754,48.359]]}},{"type":"Feature","properties":{"asset_class":"pipeline_gas","scope":"context","route_quality":"osm_mapped","osm_id":309281287,"name":"Trans Europa Naturgas Pipeline","operator":"TENP Trans Europa Naturgas Pipeline GmbH & Co. KG"},"geometry":{"type":"LineString","coordinates":[[7.514,49.444],[7.589,49.289],[8.01,49.137]]}},{"type":"Feature","properties":{"asset_class":"pipeline_gas","scope":"context","route_quality":"osm_mapped","osm_id":310404890,"name":"Trans Europa Naturgas Pipeline","operator":"TENP Trans Europa Naturgas Pipeline GmbH & Co. KG"},"geometry":{"type":"LineString","coordinates":[[7.515,49.44],[7.589,49.289],[8.01,49.137]]}},{"type":"Feature","properties":{"asset_class":"pipeline_gas","scope":"context","route_quality":"osm_mapped","osm_id":467778325,"name":"MEGAL Nord Hauptleitung","operator":"MEGAL Mittel-Europäische Gasleitungsgesellschaft mbH & Co. KG"},"geometry":{"type":"LineString","coordinates":[[9.787,49.837],[9.084,49.761]]}},{"type":"Feature","properties":{"asset_class":"pipeline_gas","scope":"context","route_quality":"osm_mapped","osm_id":795938757,"name":"Mitte-Deutschland Anbindungs-Leitung","operator":"GASCADE"},"geometry":{"type":"LineString","coordinates":[[9.285,50.23],[8.921,50.086],[8.896,50.001],[8.943,49.97],[8.657,49.686]]}},{"type":"Feature","properties":{"asset_class":"pipeline_gas","scope":"context","route_quality":"osm_mapped","osm_id":205165238,"name":"Loopleitung Sannerz-Rimpar","operator":"Open Grid Europe GmbH"},"geometry":{"type":"LineString","coordinates":[[9.949,49.844],[9.793,50.05],[9.748,50.231],[9.582,50.319]]}},{"type":"Feature","properties":{"asset_class":"pipeline_gas","scope":"context","route_quality":"osm_mapped","osm_id":131118535,"name":"Forchheim - Finsing","operator":"Bayerngas"},"geometry":{"type":"LineString","coordinates":[[11.702,48.823],[11.843,48.4],[11.838,48.214]]}},{"type":"Feature","properties":{"asset_class":"pipeline_gas","scope":"context","route_quality":"osm_mapped","osm_id":795424193,"name":"Ulm - Anwalting","operator":"Bayerngas"},"geometry":{"type":"LineString","coordinates":[[10.923,48.462],[10.85,48.46],[10.857,48.405],[10.201,48.393]]}},{"type":"Feature","properties":{"asset_class":"pipeline_gas","scope":"context","route_quality":"osm_mapped","osm_id":795812582,"name":"MEGAL Nord Hauptleitung","operator":"MEGAL Mittel-Europäische Gasleitungsgesellschaft mbH & Co. KG"},"geometry":{"type":"LineString","coordinates":[[12.513,49.657],[11.562,49.571],[11.255,49.466]]}},{"type":"Feature","properties":{"asset_class":"pipeline_gas","scope":"context","route_quality":"osm_mapped","osm_id":174152504,"name":"BBL Pipeline (Balgzand Bacton Line)","operator":"BBL Company"},"geometry":{"type":"LineString","coordinates":[[2.265,52.749],[3.496,52.993],[4.271,52.978]]}},{"type":"Feature","properties":{"asset_class":"pipeline_gas","scope":"context","route_quality":"osm_mapped","osm_id":174152593,"name":"Interconnector","operator":"Interconnector (UK) Limited"},"geometry":{"type":"LineString","coordinates":[[2.965,51.543],[2.467,51.788],[2.497,52.006],[2.226,52.577],[2.125,52.67]]}},{"type":"Feature","properties":{"asset_class":"pipeline_gas","scope":"context","route_quality":"osm_mapped","osm_id":174743273,"name":"Northern Offshore Gas Transport (NOGAT)","operator":"Engie"},"geometry":{"type":"LineString","coordinates":[[4.707,52.881],[4.486,52.947],[4.83,53.331],[4.707,53.547],[4.347,53.822],[4.83,54.209],[4.695,54.853]]}},{"type":"Feature","properties":{"asset_class":"pipeline_gas","scope":"context","route_quality":"osm_mapped","osm_id":972097307,"name":"Zeelink","operator":"Open Grid Europe GmbH"},"geometry":{"type":"LineString","coordinates":[[6.483,51.37],[6.457,51.314],[6.567,51.285],[6.596,51.181],[6.26,51.018],[6.21,50.912],[6.246,50.836],[6.117,50.721]]}},{"type":"Feature","properties":{"asset_class":"pipeline_gas","scope":"context","route_quality":"osm_mapped","osm_id":972097319,"name":"Zeelink","operator":"Open Grid Europe GmbH"},"geometry":{"type":"LineString","coordinates":[[7.12,52.041],[6.92,51.796],[6.749,51.725],[6.73,51.625],[6.614,51.616],[6.43,51.466],[6.483,51.37]]}},{"type":"Feature","properties":{"asset_class":"pipeline_gas","scope":"context","route_quality":"osm_mapped","osm_id":174152605,"name":"Statpipe","operator":"Gassco"},"geometry":{"type":"LineString","coordinates":[[3.171,56.584],[3.069,56.768],[2.813,57.005],[2.479,57.736],[2.471,58.187]]}},{"type":"Feature","properties":{"asset_class":"pipeline_gas","scope":"context","route_quality":"osm_mapped","osm_id":174152562,"name":"Europipe II","operator":"Gassco"},"geometry":{"type":"LineString","coordinates":[[7.475,53.7],[7.18,53.892],[6.955,54.619],[6.822,54.8],[6.853,54.907],[5.968,57.197],[5.276,58.759],[5.257,58.952],[5.377,59.206]]}},{"type":"Feature","properties":{"asset_class":"pipeline_gas","scope":"context","route_quality":"osm_mapped","osm_id":1199752357,"name":"Tyra West – F3 pipeline","operator":"GDF Suez"},"geometry":{"type":"LineString","coordinates":[[4.695,54.853],[4.75,55.711]]}},{"type":"Feature","properties":{"asset_class":"pipeline_gas","scope":"context","route_quality":"osm_mapped","osm_id":823014571,"name":"STEGAL (Sachsen-Thüringen-Erdgas-Leitung)","operator":null},"geometry":{"type":"LineString","coordinates":[[11.005,50.903],[10.881,50.894],[10.651,51.014],[10.331,51.018],[9.992,50.87]]}},{"type":"Feature","properties":{"asset_class":"pipeline_gas","scope":"context","route_quality":"osm_mapped","osm_id":951790422,"name":"MIDAL (Mitte-Deutschland Anbindungs-Leitung)","operator":"GASCADE"},"geometry":{"type":"LineString","coordinates":[[9.788,50.785],[9.743,50.519],[9.285,50.23]]}},{"type":"Feature","properties":{"asset_class":"pipeline_gas","scope":"context","route_quality":"osm_mapped","osm_id":821252443,"name":"MIDAL (Mitte-Deutschland Anbindungs-Leitung)","operator":"GASCADE"},"geometry":{"type":"LineString","coordinates":[[9.287,51.365],[9.095,51.593],[9.074,51.758],[8.974,51.877]]}},{"type":"Feature","properties":{"asset_class":"pipeline_gas","scope":"context","route_quality":"osm_mapped","osm_id":1167931141,"name":"MIDAL (Mitte-Deutschland Anbindungs-Leitung)","operator":"GASCADE"},"geometry":{"type":"LineString","coordinates":[[7.107,53.404],[7.495,53.329],[8.088,52.906]]}},{"type":"Feature","properties":{"asset_class":"pipeline_gas","scope":"context","route_quality":"osm_mapped","osm_id":1167437588,"name":"Norddeutsche Erdgas-Transversale (NETRA)","operator":"Open Grid Europe GmbH"},"geometry":{"type":"LineString","coordinates":[[7.9,53.45],[8.015,53.426],[8.173,53.074]]}},{"type":"Feature","properties":{"asset_class":"pipeline_gas","scope":"context","route_quality":"osm_mapped","osm_id":795938758,"name":"MIDAL (Mitte-Deutschland Anbindungs-Leitung)","operator":"GASCADE Gastransport GmbH"},"geometry":{"type":"LineString","coordinates":[[8.495,52.613],[8.549,52.571],[8.527,52.33],[8.617,52.098],[8.699,52.059]]}},{"type":"Feature","properties":{"asset_class":"pipeline_gas","scope":"context","route_quality":"osm_mapped","osm_id":1321655746,"name":"FGL 103","operator":"ONTRAS Gastransport GmbH"},"geometry":{"type":"LineString","coordinates":[[12.251,51.702],[11.763,51.874],[11.511,52.078],[11.455,52.268],[11.178,52.595],[11.107,52.822]]}},{"type":"Feature","properties":{"asset_class":"pipeline_gas","scope":"context","route_quality":"osm_mapped","osm_id":1360324015,"name":"FGL 102","operator":"ONTRAS Gastransport GmbH"},"geometry":{"type":"LineString","coordinates":[[11.727,51.845],[11.665,52.016],[11.547,52.082],[11.203,52.596],[11.107,52.821]]}},{"type":"Feature","properties":{"asset_class":"pipeline_gas","scope":"context","route_quality":"osm_mapped","osm_id":1243290043,"name":"ETL DEUDAN","operator":"Deutsch/Dänische Erdgastransport-Gesellschaft"},"geometry":{"type":"LineString","coordinates":[[9.783,53.94],[9.642,54.076],[9.652,54.254],[9.458,54.465],[9.289,54.802]]}},{"type":"Feature","properties":{"asset_class":"pipeline_gas","scope":"context","route_quality":"osm_mapped","osm_id":274794649,"name":"ETL 176 Fockbek - Ellund","operator":"Gasunie Transport Services GmbH, Hannover"},"geometry":{"type":"LineString","coordinates":[[9.289,54.802],[9.578,54.306]]}},{"type":"Feature","properties":{"asset_class":"pipeline_gas","scope":"context","route_quality":"osm_mapped","osm_id":1095495854,"name":"Baltic Pipe","operator":"Energinet"},"geometry":{"type":"LineString","coordinates":[[9.733,55.483],[10.162,55.322],[10.757,55.379]]}},{"type":"Feature","properties":{"asset_class":"pipeline_gas","scope":"context","route_quality":"osm_mapped","osm_id":530878674,"name":"Nordeuropäische Erdgasleitung NEL","operator":"NEL Gastransport GmbH / GASCADE Gastransport"},"geometry":{"type":"LineString","coordinates":[[10.385,53.373],[10.914,53.403],[11.282,53.525]]}},{"type":"Feature","properties":{"asset_class":"pipeline_gas","scope":"context","route_quality":"osm_mapped","osm_id":279661571,"name":"Nordeuropäische Erdgasleitung","operator":"WINGAS GmbH & Co. KG"},"geometry":{"type":"LineString","coordinates":[[11.488,53.525],[12.052,53.621],[12.767,53.904],[13.537,54.067],[13.654,54.152]]}},{"type":"Feature","properties":{"asset_class":"pipeline_gas","scope":"context","route_quality":"osm_mapped","osm_id":1055345076,"name":"Baltic Pipe","operator":"Energinet"},"geometry":{"type":"LineString","coordinates":[[11.986,55.212],[11.564,55.282],[11.22,55.43]]}},{"type":"Feature","properties":{"asset_class":"pipeline_gas","scope":"context","route_quality":"osm_mapped","osm_id":174152604,"name":"Statpipe","operator":"Gassco"},"geometry":{"type":"LineString","coordinates":[[2.234,59.568],[2.26,59.152],[2.471,58.189]]}},{"type":"Feature","properties":{"asset_class":"pipeline_gas","scope":"context","route_quality":"osm_mapped","osm_id":174152606,"name":"Statpipe","operator":"Gassco"},"geometry":{"type":"LineString","coordinates":[[1.829,61.206],[3.151,60.401],[3.388,60.366],[4.706,59.453],[4.965,59.335],[5.194,59.335]]}},{"type":"Feature","properties":{"asset_class":"pipeline_gas","scope":"context","route_quality":"osm_mapped","osm_id":174152607,"name":"Sleipner gas condensates","operator":"Equinor"},"geometry":{"type":"LineString","coordinates":[[1.91,58.368],[3.537,58.598],[3.787,58.743],[4.887,59.139],[5.082,59.321],[5.196,59.335]]}},{"type":"Feature","properties":{"asset_class":"pipeline_gas","scope":"context","route_quality":"osm_mapped","osm_id":174152608,"name":"Statpipe","operator":"Gassco"},"geometry":{"type":"LineString","coordinates":[[2.476,58.191],[4.882,59.137],[5.087,59.326],[5.194,59.335]]}},{"type":"Feature","properties":{"asset_class":"pipeline_gas","scope":"context","route_quality":"osm_mapped","osm_id":174152631,"name":"Zeepipe II B","operator":null},"geometry":{"type":"LineString","coordinates":[[2.467,58.192],[4.354,60.186],[4.798,60.527]]}},{"type":"Feature","properties":{"asset_class":"pipeline_gas","scope":"context","route_quality":"osm_mapped","osm_id":174152632,"name":"Zeepipe II A","operator":null},"geometry":{"type":"LineString","coordinates":[[1.91,58.368],[3.255,59.422],[3.601,59.523],[4.664,60.475],[4.797,60.528]]}},{"type":"Feature","properties":{"asset_class":"pipeline_gas","scope":"context","route_quality":"osm_mapped","osm_id":1192659501,"name":"Johan Sverdrup gas transport","operator":"Equinor"},"geometry":{"type":"LineString","coordinates":[[2.557,58.838],[4.491,59.192]]}},{"type":"Feature","properties":{"asset_class":"pipeline_gas","scope":"context","route_quality":"osm_mapped","osm_id":174152595,"name":"Langeled","operator":"Gassco"},"geometry":{"type":"LineString","coordinates":[[6.942,62.85],[6.75,62.953],[6.547,62.951],[5.194,62.654],[4.894,62.395],[4.647,62.301],[3.968,61.583],[3.399,61.183],[3.355,60.56],[3.077,60.337],[3.035,60.072],[2.663,59.237],[2.029,58.433],[1.907,58.367]]}},{"type":"Feature","properties":{"asset_class":"pipeline_gas","scope":"context","route_quality":"osm_mapped","osm_id":174152612,"name":"Åsgard Transport","operator":"Gassco"},"geometry":{"type":"LineString","coordinates":[[6.791,65.111],[6.718,64.831],[6.539,64.576],[6.287,63.922],[5.663,63.182],[4.439,62.07],[4.073,61.267],[4.11,60.948],[4.624,59.742],[4.935,59.459],[5.195,59.335]]}},{"type":"Feature","properties":{"asset_class":"pipeline_gas","scope":"context","route_quality":"osm_mapped","osm_id":174152626,"name":"Oseberg gas transport","operator":null},"geometry":{"type":"LineString","coordinates":[[2.827,60.49],[2.616,59.995],[2.227,59.575]]}},{"type":"Feature","properties":{"asset_class":"pipeline_gas","scope":"context","route_quality":"osm_mapped","osm_id":1118096582,"name":"Kvitebjørn Gas Export","operator":"Gassco"},"geometry":{"type":"LineString","coordinates":[[2.5,61.08],[3.503,60.689],[4.66,60.504],[4.822,60.543]]}},{"type":"Feature","properties":{"asset_class":"pipeline_gas","scope":"context","route_quality":"osm_mapped","osm_id":637286677,"name":"Troll P10","operator":"Equinor"},"geometry":{"type":"LineString","coordinates":[[3.735,60.644],[4.66,60.498],[4.797,60.528]]}},{"type":"Feature","properties":{"asset_class":"pipeline_gas","scope":"context","route_quality":"osm_mapped","osm_id":637286678,"name":"Troll P11","operator":"Equinor"},"geometry":{"type":"LineString","coordinates":[[3.735,60.644],[4.662,60.496],[4.797,60.528]]}},{"type":"Feature","properties":{"asset_class":"pipeline_gas","scope":"context","route_quality":"osm_mapped","osm_id":637286679,"name":"Troll P12","operator":"Equinor"},"geometry":{"type":"LineString","coordinates":[[3.735,60.645],[4.66,60.498],[4.797,60.528]]}},{"type":"Feature","properties":{"asset_class":"pipeline_gas","scope":"context","route_quality":"osm_mapped","osm_id":849720568,"name":"Trans Adriatic Pipeline","operator":"Trans Adriatic Pipeline AG"},"geometry":{"type":"LineString","coordinates":[[18.393,40.311],[18.548,40.452],[19.118,40.642],[19.373,40.794]]}},{"type":"Feature","properties":{"asset_class":"pipeline_gas","scope":"context","route_quality":"osm_mapped","osm_id":222321388,"name":"Türkiye Yunanistan Doğalgaz Boru Hattı Faz 1","operator":"BOTAŞ"},"geometry":{"type":"LineString","coordinates":[[26.385,40.965],[26.913,40.608]]}},{"type":"Feature","properties":{"asset_class":"pipeline_gas","scope":"context","route_quality":"osm_mapped","osm_id":1040219169,"name":"Trans Adriatic Pipeline","operator":"Trans Adriatic Pipeline AG"},"geometry":{"type":"LineString","coordinates":[[26.309,40.97],[25.981,40.876],[25.717,40.945]]}},{"type":"Feature","properties":{"asset_class":"pipeline_gas","scope":"context","route_quality":"osm_mapped","osm_id":853859602,"name":"TurkStream","operator":null},"geometry":{"type":"LineString","coordinates":[[36.223,43.407],[34.087,43.118],[30.767,42.822],[29.123,41.923],[28.092,41.66]]}},{"type":"Feature","properties":{"asset_class":"pipeline_gas","scope":"context","route_quality":"osm_mapped","osm_id":1016267932,"name":"plynovod GAZELA","operator":"NET4GAS"},"geometry":{"type":"LineString","coordinates":[[13.454,50.601],[13.49,50.255],[13.388,50.156],[13.372,49.983],[13.007,49.816],[12.959,49.728],[12.513,49.657]]}},{"type":"Feature","properties":{"asset_class":"pipeline_gas","scope":"context","route_quality":"osm_mapped","osm_id":749003675,"name":"Penta-West","operator":"Gas Connect Austria GmbH"},"geometry":{"type":"LineString","coordinates":[[12.853,48.194],[13.084,48.158],[13.443,48.251],[13.745,48.471],[13.752,48.555]]}},{"type":"Feature","properties":{"asset_class":"pipeline_gas","scope":"context","route_quality":"osm_mapped","osm_id":178992071,"name":"MEGAL Süd Parallelleitung","operator":"Mittel-Europäische Gasleitungsgesellschaft mbH & Co. KG - MEGAL"},"geometry":{"type":"LineString","coordinates":[[12.754,48.948],[12.036,49.299]]}},{"type":"Feature","properties":{"asset_class":"pipeline_gas","scope":"context","route_quality":"osm_mapped","osm_id":46100754,"name":"EUGAL","operator":"GASCADE Gastransport GmbH"},"geometry":{"type":"LineString","coordinates":[[13.454,50.601],[13.483,50.689],[13.351,50.768],[13.503,51.088]]}},{"type":"Feature","properties":{"asset_class":"pipeline_gas","scope":"context","route_quality":"osm_mapped","osm_id":25800542,"name":"Jamal-Gas-Anbindungseitung","operator":"GASCADE"},"geometry":{"type":"LineString","coordinates":[[12.115,51.401],[12.061,51.491],[12.195,51.687],[12.5,51.794]]}},{"type":"Feature","properties":{"asset_class":"pipeline_gas","scope":"context","route_quality":"osm_mapped","osm_id":594032325,"name":"FGL 27","operator":"MITNETZ GAS"},"geometry":{"type":"LineString","coordinates":[[12.364,51.409],[12.204,51.603],[12.145,51.877]]}},{"type":"Feature","properties":{"asset_class":"pipeline_gas","scope":"context","route_quality":"osm_mapped","osm_id":1068926050,"name":"Baltic Pipe","operator":"Gaz-System"},"geometry":{"type":"LineString","coordinates":[[15.145,54.112],[14.882,54.5],[14.828,54.706],[14.871,54.873],[14.577,55.029],[14.303,55.105],[12.126,55.188]]}},{"type":"Feature","properties":{"asset_class":"pipeline_gas","scope":"context","route_quality":"osm_mapped","osm_id":274064717,"name":"Plinovod Bosiljevo - Split","operator":"Plinacro"},"geometry":{"type":"LineString","coordinates":[[15.273,45.395],[15.269,45.187],[15.426,45.006],[15.441,44.846],[15.38,44.74],[15.43,44.557],[15.803,44.276],[15.717,44.167],[15.758,44.082],[15.628,43.989]]}},{"type":"Feature","properties":{"asset_class":"pipeline_gas","scope":"context","route_quality":"osm_mapped","osm_id":177862161,"name":"Nord Stream 1","operator":"Nord Stream AG"},"geometry":{"type":"LineString","coordinates":[[28.074,60.528],[28.03,60.405],[27.837,60.253],[27.526,60.149],[26.938,60.128],[26.13,59.987],[25.885,59.886],[25.046,59.904],[24.121,59.673],[21.128,59.22],[20.355,58.754],[18.826,56.552],[18.576,56.345],[18.125,56.253],[16.534,55.69],[15.7,55.535],[15.421,55.373],[15.204,54.926],[14.805,54.826],[14.502,54.609],[14.082,54.531],[13.654,54.154]]}},{"type":"Feature","properties":{"asset_class":"pipeline_gas","scope":"context","route_quality":"osm_mapped","osm_id":1021785907,"name":"Kondratki -> Wloclawek","operator":"EuRoPol GAZ"},"geometry":{"type":"LineString","coordinates":[[23.895,53.017],[22.089,52.903],[20.554,52.925],[20.243,52.832],[19.361,52.727],[18.955,52.739]]}},{"type":"Feature","properties":{"asset_class":"pipeline_gas","scope":"context","route_quality":"osm_mapped","osm_id":1098580572,"name":"Nord Stream 2","operator":"Nord Stream AG"},"geometry":{"type":"LineString","coordinates":[[26.535,59.963],[26.24,60.036],[25.902,59.907],[25.009,59.907],[23.865,59.645],[21.087,59.222],[20.431,58.886],[20.119,58.559],[20.138,58.374],[19.952,57.968],[19.618,57.607],[18.829,56.534],[18.589,56.344],[18.115,56.245],[16.472,55.661],[15.739,55.529],[15.739,55.337],[15.383,54.846],[14.088,54.548],[13.65,54.219],[13.643,54.149]]}},{"type":"Feature","properties":{"asset_class":"pipeline_gas","scope":"context","route_quality":"osm_mapped","osm_id":245445797,"name":"Plinovod Pula - Karlovac","operator":"Plinacro"},"geometry":{"type":"LineString","coordinates":[[14.723,45.295],[14.5,45.4],[14.279,45.376],[13.901,44.953]]}},{"type":"Feature","properties":{"asset_class":"pipeline_gas","scope":"context","route_quality":"osm_mapped","osm_id":276186611,"name":"Plinovod Pula - Karlovac","operator":"Plinacro"},"geometry":{"type":"LineString","coordinates":[[15.613,45.563],[15.484,45.561],[15.288,45.397],[14.815,45.397],[14.723,45.295]]}},{"type":"Feature","properties":{"asset_class":"pipeline_gas","scope":"context","route_quality":"osm_mapped","osm_id":865707501,"name":"Városföld – Slobodnica gázvezeték","operator":"FGSZ Zrt."},"geometry":{"type":"LineString","coordinates":[[19.678,46.545],[19.334,46.248],[18.892,46.101],[18.303,46.053]]}},{"type":"Feature","properties":{"asset_class":"pipeline_gas","scope":"context","route_quality":"osm_mapped","osm_id":848204577,"name":"Plinovod Városföld – Slobodnica","operator":"Plinacro"},"geometry":{"type":"LineString","coordinates":[[17.951,45.171],[18.143,45.612]]}},{"type":"Feature","properties":{"asset_class":"pipeline_gas","scope":"context","route_quality":"osm_mapped","osm_id":133310888,"name":"West Austria Gasleitung I","operator":"Gas Connect Austria GmbH"},"geometry":{"type":"LineString","coordinates":[[16.634,48.339],[15.797,48.423],[15.421,48.523],[13.752,48.555]]}},{"type":"Feature","properties":{"asset_class":"pipeline_gas","scope":"context","route_quality":"osm_mapped","osm_id":686625869,"name":"Gellénháza–Jánosháza-gázvezeték","operator":"FGSZ Zrt."},"geometry":{"type":"LineString","coordinates":[[17.187,47.12],[16.772,46.769]]}},{"type":"Feature","properties":{"asset_class":"pipeline_gas","scope":"context","route_quality":"osm_mapped","osm_id":724500344,"name":"Trans Austria Gasleitung II","operator":"Trans Austria Gasleitung GmbH"},"geometry":{"type":"LineString","coordinates":[[16.322,47.873],[16.02,47.341]]}},{"type":"Feature","properties":{"asset_class":"pipeline_gas","scope":"context","route_quality":"osm_mapped","osm_id":756078859,"name":"Jánosháza–Kőszeg-gázvezeték","operator":"FGSZ Zrt."},"geometry":{"type":"LineString","coordinates":[[17.187,47.12],[16.674,47.222],[16.553,47.377]]}},{"type":"Feature","properties":{"asset_class":"pipeline_gas","scope":"context","route_quality":"osm_mapped","osm_id":946017857,"name":"Trans Austria Gasleitung I","operator":"Trans Austria Gasleitung GmbH"},"geometry":{"type":"LineString","coordinates":[[16.322,47.873],[16.02,47.341]]}},{"type":"Feature","properties":{"asset_class":"pipeline_gas","scope":"context","route_quality":"osm_mapped","osm_id":946017858,"name":"Trans Austria Gasleitung Loop2","operator":"Trans Austria Gasleitung GmbH"},"geometry":{"type":"LineString","coordinates":[[16.322,47.873],[16.02,47.341]]}},{"type":"Feature","properties":{"asset_class":"pipeline_gas","scope":"context","route_quality":"osm_mapped","osm_id":184690851,"name":"Trans Austria Gasleitung I","operator":"Trans Austria Gasleitung GmbH"},"geometry":{"type":"LineString","coordinates":[[16.874,48.317],[16.326,47.874]]}},{"type":"Feature","properties":{"asset_class":"pipeline_gas","scope":"context","route_quality":"osm_mapped","osm_id":184690852,"name":"Trans Austria Gasleitung II","operator":"Trans Austria Gasleitung GmbH"},"geometry":{"type":"LineString","coordinates":[[16.874,48.317],[16.326,47.874]]}},{"type":"Feature","properties":{"asset_class":"pipeline_gas","scope":"context","route_quality":"osm_mapped","osm_id":184690853,"name":"Trans Austria Gasleitung Loop2","operator":"Trans Austria Gasleitung GmbH"},"geometry":{"type":"LineString","coordinates":[[16.873,48.316],[16.326,47.874]]}},{"type":"Feature","properties":{"asset_class":"pipeline_gas","scope":"context","route_quality":"osm_mapped","osm_id":504098894,"name":"Győr–Ajka-gázvezeték","operator":"FGSZ Zrt."},"geometry":{"type":"LineString","coordinates":[[17.712,47.678],[17.689,47.515],[17.523,47.306],[17.547,47.127]]}},{"type":"Feature","properties":{"asset_class":"pipeline_gas","scope":"context","route_quality":"osm_mapped","osm_id":1005412409,"name":"Beregradóc OH-Zsámbok gázvezeték","operator":"FGSZ Zrt."},"geometry":{"type":"LineString","coordinates":[[19.605,47.56],[20.997,47.882]]}},{"type":"Feature","properties":{"asset_class":"pipeline_gas","scope":"context","route_quality":"osm_mapped","osm_id":504007390,"name":"Magyarország–Ausztria-gázvezeték","operator":"FGSZ Zrt."},"geometry":{"type":"LineString","coordinates":[[17.711,47.679],[17.675,47.631],[17.554,47.662],[17.234,47.851],[17.124,47.992]]}},{"type":"Feature","properties":{"asset_class":"pipeline_gas","scope":"context","route_quality":"osm_mapped","osm_id":840561871,"name":"Répcelak-Mosonszentmiklós gázvezeték","operator":"FGSZ Zrt."},"geometry":{"type":"LineString","coordinates":[[17.003,47.421],[17.038,47.564],[17.268,47.592],[17.449,47.726]]}},{"type":"Feature","properties":{"asset_class":"pipeline_gas","scope":"context","route_quality":"osm_mapped","osm_id":504098888,"name":"Pilisvörösvár-Győr DN600 gázvezeték","operator":"FGSZ Zrt."},"geometry":{"type":"LineString","coordinates":[[18.517,47.731],[17.711,47.678]]}},{"type":"Feature","properties":{"asset_class":"pipeline_gas","scope":"context","route_quality":"osm_mapped","osm_id":564620616,"name":"Vecsés - Hajdúszoboszló nagynyomású gázvezeték","operator":"FGSZ Zrt."},"geometry":{"type":"LineString","coordinates":[[19.306,47.402],[19.853,47.177],[20.161,47.146]]}},{"type":"Feature","properties":{"asset_class":"pipeline_gas","scope":"context","route_quality":"osm_mapped","osm_id":994109656,"name":"Vecsés–Balassagyarmat DN800 nagynyomású gázvezeték","operator":null},"geometry":{"type":"LineString","coordinates":[[19.284,47.613],[19.166,47.878],[19.314,48.087]]}},{"type":"Feature","properties":{"asset_class":"pipeline_gas","scope":"context","route_quality":"osm_mapped","osm_id":925189073,"name":"Bátonyterenye–Zsámbok-gázvezeték","operator":"FGSZ Zrt."},"geometry":{"type":"LineString","coordinates":[[19.605,47.56],[19.727,47.98]]}},{"type":"Feature","properties":{"asset_class":"pipeline_gas","scope":"context","route_quality":"osm_mapped","osm_id":189650220,"name":"Уренгой — Помари — Ужгород","operator":"Укртрансгаз"},"geometry":{"type":"LineString","coordinates":[[23.188,48.737],[22.865,48.705],[22.521,48.502],[22.159,48.539]]}},{"type":"Feature","properties":{"asset_class":"pipeline_gas","scope":"context","route_quality":"osm_mapped","osm_id":1069100677,"name":"Уренгой — Помари — Ужгород","operator":"Укртрансгаз"},"geometry":{"type":"LineString","coordinates":[[23.712,48.882],[23.188,48.737]]}},{"type":"Feature","properties":{"asset_class":"pipeline_gas","scope":"context","route_quality":"osm_mapped","osm_id":371155886,"name":"Уренгой — Помари — Ужгород","operator":"Укртрансгаз"},"geometry":{"type":"LineString","coordinates":[[27.73,49.006],[26.755,48.976],[26.607,49.05],[26.277,49.062],[26.137,49.016]]}},{"type":"Feature","properties":{"asset_class":"pipeline_gas","scope":"context","route_quality":"osm_mapped","osm_id":1069100639,"name":"Уренгой — Помари — Ужгород","operator":"Укртрансгаз"},"geometry":{"type":"LineString","coordinates":[[26.137,49.016],[25.453,48.755],[25.129,48.727],[24.681,48.811]]}},{"type":"Feature","properties":{"asset_class":"pipeline_gas","scope":"context","route_quality":"osm_mapped","osm_id":523231385,"name":"Wloclawek (Poland) -> Mallnow (Germany)","operator":"EuRoPol GAZ, Gascade Gastransport GmbH"},"geometry":{"type":"LineString","coordinates":[[18.955,52.739],[18.425,52.74],[17.546,52.575],[16.856,52.635],[16.003,52.467],[14.475,52.444]]}},{"type":"Feature","properties":{"asset_class":"pipeline_gas","scope":"context","route_quality":"osm_mapped","osm_id":41605255,"name":"OPAL","operator":"OPAL NEL Transport GmbH"},"geometry":{"type":"LineString","coordinates":[[13.617,52.179],[13.54,52.075],[13.657,52.037],[13.706,51.483],[13.64,51.429]]}},{"type":"Feature","properties":{"asset_class":"pipeline_gas","scope":"context","route_quality":"osm_mapped","osm_id":1332003889,"name":"EUGAL","operator":"GASCADE Gastransport GmbH"},"geometry":{"type":"LineString","coordinates":[[13.64,51.429],[13.706,51.483],[13.66,51.966]]}},{"type":"Feature","properties":{"asset_class":"pipeline_gas","scope":"context","route_quality":"osm_mapped","osm_id":1022054385,"name":"gazociąg Gustorzyn-Wronów","operator":"Gaz-System"},"geometry":{"type":"LineString","coordinates":[[19.715,52.179],[20.141,51.843]]}},{"type":"Feature","properties":{"asset_class":"pipeline_gas","scope":"context","route_quality":"osm_mapped","osm_id":1014590236,"name":"EUGAL","operator":null},"geometry":{"type":"LineString","coordinates":[[13.945,53.618],[13.576,53.864],[13.646,53.953],[13.588,54.016],[13.644,54.142]]}},{"type":"Feature","properties":{"asset_class":"pipeline_gas","scope":"context","route_quality":"osm_mapped","osm_id":505685787,"name":"Gazociąg Świnoujście-Szczecin","operator":null},"geometry":{"type":"LineString","coordinates":[[14.296,53.904],[14.646,53.85],[14.636,53.637],[14.928,53.545]]}},{"type":"Feature","properties":{"asset_class":"pipeline_gas","scope":"context","route_quality":"osm_mapped","osm_id":1021730781,"name":"gazociąg Gustorzyn-Wronów","operator":"Gaz-System"},"geometry":{"type":"LineString","coordinates":[[22.049,51.462],[21.282,51.605],[20.924,51.573],[20.141,51.843]]}},{"type":"Feature","properties":{"asset_class":"pipeline_gas","scope":"context","route_quality":"osm_mapped","osm_id":1514020267,"name":"Nord Stream 2","operator":"Nord Stream AG"},"geometry":{"type":"LineString","coordinates":[[28.089,59.544],[27.337,59.675],[26.948,59.864],[26.535,59.963]]}},{"type":"Feature","properties":{"asset_class":"pipeline_gas","scope":"context","route_quality":"osm_mapped","osm_id":702684306,"name":"Balticconnector","operator":"Elering"},"geometry":{"type":"LineString","coordinates":[[24.785,59.273],[24.365,59.293],[24.072,59.382]]}},{"type":"Feature","properties":{"asset_class":"pipeline_gas","scope":"context","route_quality":"osm_mapped","osm_id":804553521,"name":"Baltic Connector","operator":null},"geometry":{"type":"LineString","coordinates":[[23.965,60.013],[24.1,59.919],[24.028,59.775],[24.127,59.5],[24.133,59.405],[24.077,59.385]]}},{"type":"Feature","properties":{"asset_class":"pipeline_gas","scope":"context","route_quality":"osm_mapped","osm_id":580622008,"name":"Isaccea - Negru Vodă","operator":"Transgaz"},"geometry":{"type":"LineString","coordinates":[[28.352,44.264],[28.144,43.791]]}},{"type":"Feature","properties":{"asset_class":"pipeline_gas","scope":"context","route_quality":"osm_mapped","osm_id":1530365858,"name":"Isaccea - Negru Vodă","operator":"Transgaz"},"geometry":{"type":"LineString","coordinates":[[28.555,44.627],[28.309,44.311],[28.337,44.239],[28.17,43.967],[28.142,43.791]]}},{"type":"Feature","properties":{"asset_class":"pipeline_gas","scope":"context","route_quality":"osm_mapped","osm_id":1530391803,"name":"Isaccea - Negru Vodă","operator":"Transgaz"},"geometry":{"type":"LineString","coordinates":[[28.145,43.79],[28.352,44.264]]}},{"type":"Feature","properties":{"asset_class":"pipeline_gas","scope":"context","route_quality":"osm_mapped","osm_id":371155888,"name":"Уренгой — Помари — Ужгород","operator":"Укртрансгаз"},"geometry":{"type":"LineString","coordinates":[[30.764,49.505],[30.413,49.478],[29.818,49.277],[29.268,49.188]]}},{"type":"Feature","properties":{"asset_class":"pipeline_gas","scope":"context","route_quality":"osm_mapped","osm_id":1069100638,"name":"Уренгой — Помари — Ужгород","operator":"Укртрансгаз"},"geometry":{"type":"LineString","coordinates":[[29.268,49.188],[28.325,48.979],[27.73,49.006]]}},{"type":"Feature","properties":{"asset_class":"pipeline_gas","scope":"context","route_quality":"osm_mapped","osm_id":1069106507,"name":"Уренгой — Помари — Ужгород","operator":"Укртрансгаз"},"geometry":{"type":"LineString","coordinates":[[32.115,49.791],[32.1,49.736],[31.611,49.668],[31.295,49.523],[30.764,49.505]]}},{"type":"Feature","properties":{"asset_class":"pipeline_gas","scope":"context","route_quality":"osm_mapped","osm_id":579695337,"name":"\"Союз\"","operator":null},"geometry":{"type":"LineString","coordinates":[[31.816,48.943],[31.017,48.813]]}},{"type":"Feature","properties":{"asset_class":"pipeline_gas","scope":"context","route_quality":"osm_mapped","osm_id":217178640,"name":"BOTAŞ Boru Hattı","operator":"BOTAŞ"},"geometry":{"type":"LineString","coordinates":[[38.822,37.536],[39.378,37.706],[40.035,38.033]]}},{"type":"Feature","properties":{"asset_class":"pipeline_gas","scope":"context","route_quality":"osm_mapped","osm_id":174153770,"name":"Blue Stream","operator":"Gazprom"},"geometry":{"type":"LineString","coordinates":[[38.603,44.352],[38.418,44.321],[38.345,44.065],[38.191,43.997],[38.135,43.779],[37.313,42.098],[37.241,41.743],[36.797,41.487],[36.711,41.361]]}},{"type":"Feature","properties":{"asset_class":"pipeline_gas","scope":"context","route_quality":"osm_mapped","osm_id":134402117,"name":"Pipeline to Samsun Power Plant","operator":"BOTAŞ"},"geometry":{"type":"LineString","coordinates":[[36.668,41.35],[37.155,41.142]]}},{"type":"Feature","properties":{"asset_class":"pipeline_gas","scope":"context","route_quality":"osm_mapped","osm_id":288595851,"name":"Erbil - Duhok Gas Pipeline","operator":"KAR Group"},"geometry":{"type":"LineString","coordinates":[[42.782,36.943],[42.776,36.846],[42.857,36.756],[43.315,36.632],[43.654,36.428],[43.711,36.315]]}},{"type":"Feature","properties":{"asset_class":"pipeline_gas","scope":"context","route_quality":"osm_mapped","osm_id":471291195,"name":"Шебелінка - Дніпро - Одеса","operator":"Харківтрансгаз"},"geometry":{"type":"LineString","coordinates":[[34.074,48.106],[33.534,47.834]]}},{"type":"Feature","properties":{"asset_class":"pipeline_gas","scope":"context","route_quality":"osm_mapped","osm_id":807491112,"name":"Диканька - Кременчук - Кривий Ріг","operator":"Черкаситрансгаз"},"geometry":{"type":"LineString","coordinates":[[33.604,49.073],[33.487,48.795],[33.588,48.534],[33.571,48.297],[33.675,47.933]]}},{"type":"Feature","properties":{"asset_class":"pipeline_gas","scope":"context","route_quality":"osm_mapped","osm_id":807719098,"name":"Єлець - Кременчук - Кривий Ріг","operator":"Харківтрансгаз"},"geometry":{"type":"LineString","coordinates":[[33.323,48.986],[33.427,48.87],[33.445,48.7],[33.583,48.551],[33.571,48.294],[33.699,47.946]]}},{"type":"Feature","properties":{"asset_class":"pipeline_gas","scope":"context","route_quality":"osm_mapped","osm_id":853882124,"name":"TurkStream","operator":null},"geometry":{"type":"LineString","coordinates":[[37.597,44.483],[37.678,44.375],[37.65,44.249],[36.234,43.41]]}},{"type":"Feature","properties":{"asset_class":"pipeline_gas","scope":"context","route_quality":"osm_mapped","osm_id":312519493,"name":"Магистральный газопровод \"Макат - Северный Кавказ\"","operator":null},"geometry":{"type":"LineString","coordinates":[[49.06,46.692],[49.915,46.768],[50.453,47.065]]}},{"type":"Feature","properties":{"asset_class":"pipeline_gas","scope":"context","route_quality":"osm_mapped","osm_id":312517700,"name":"Магистральный газопровод \"Макат - Северный Кавказ\"","operator":null},"geometry":{"type":"LineString","coordinates":[[51.848,47.356],[50.83,47.311],[50.625,47.244],[50.453,47.065]]}},{"type":"Feature","properties":{"asset_class":"pipeline_gas","scope":"context","route_quality":"osm_mapped","osm_id":312518324,"name":"Магистральный газопровод \"Макат - Северный Кавказ\"","operator":null},"geometry":{"type":"LineString","coordinates":[[53.347,47.681],[53.207,47.678],[52.742,47.475],[51.848,47.356]]}},{"type":"Feature","properties":{"asset_class":"pipeline_gas","scope":"context","route_quality":"osm_mapped","osm_id":238914783,"name":"Магистральный газопровод Сахалин-Хабаровск-Владивосток","operator":null},"geometry":{"type":"LineString","coordinates":[[133.934,46.163],[133.868,46.059],[133.936,45.961],[133.741,45.755]]}},{"type":"Feature","properties":{"asset_class":"pipeline_gas","scope":"context","route_quality":"osm_mapped","osm_id":476173311,"name":"Сила Сибири","operator":null},"geometry":{"type":"LineString","coordinates":[[126.423,52.902],[126.415,52.792],[126.509,52.668],[126.704,52.6],[126.951,52.381],[127.421,52.121],[127.533,51.916],[127.937,51.84],[128.203,51.559]]}},{"type":"Feature","properties":{"asset_class":"pipeline_gas","scope":"context","route_quality":"osm_mapped","osm_id":476173307,"name":"Сила Сибири","operator":null},"geometry":{"type":"LineString","coordinates":[[128.193,51.573],[128.071,51.575],[128.06,51.467],[127.689,51.074],[127.562,50.778],[127.442,50.673],[127.456,50.507],[127.363,50.445],[127.392,50.312]]}},{"type":"Feature","properties":{"asset_class":"pipeline_gas","scope":"context","route_quality":"osm_mapped","osm_id":238838726,"name":"Магистральный газопровод Сахалин-Хабаровск-Владивосток","operator":null},"geometry":{"type":"LineString","coordinates":[[135.11,47.809],[135.064,47.692],[134.847,47.513],[134.566,47.369],[134.309,46.916],[134.318,46.702],[134.238,46.618]]}},{"type":"Feature","properties":{"asset_class":"pipeline_gas","scope":"context","route_quality":"osm_mapped","osm_id":238838727,"name":"Магистральный газопровод Сахалин-Хабаровск-Владивосток","operator":null},"geometry":{"type":"LineString","coordinates":[[136.179,48.887],[135.959,48.853],[135.863,48.744],[135.717,48.719],[135.526,48.515],[135.529,48.328],[135.229,48.158],[135.18,47.866]]}},{"type":"Feature","properties":{"asset_class":"pipeline_gas","scope":"context","route_quality":"osm_mapped","osm_id":220102755,"name":"Магистральный газопровод Сахалин-Хабаровск-Владивосток","operator":null},"geometry":{"type":"LineString","coordinates":[[136.257,48.884],[136.342,48.888],[136.516,49.042],[136.513,49.318],[136.781,49.452]]}},{"type":"Feature","properties":{"asset_class":"pipeline_gas","scope":"context","route_quality":"osm_mapped","osm_id":394946672,"name":"Транссахалинская трубопроводная система","operator":"Sakhalin Energy"},"geometry":{"type":"LineString","coordinates":[[142.933,49.121],[142.896,48.84],[142.78,48.663],[142.624,48.578],[142.519,48.1]]}},{"type":"Feature","properties":{"asset_class":"pipeline_gas","scope":"context","route_quality":"osm_mapped","osm_id":394946662,"name":"Транссахалинская трубопроводная система","operator":"Sakhalin Energy"},"geometry":{"type":"LineString","coordinates":[[142.499,47.828],[142.726,47.344],[142.674,47.013]]}},{"type":"Feature","properties":{"asset_class":"pipeline_gas","scope":"context","route_quality":"osm_mapped","osm_id":209135241,"name":"Транссахалинская трубопроводная система","operator":"Sakhalin Energy"},"geometry":{"type":"LineString","coordinates":[[142.674,47.013],[142.64,46.953],[142.702,46.83],[142.809,46.787],[142.804,46.698],[142.899,46.642]]}},{"type":"Feature","properties":{"asset_class":"pipeline_gas","scope":"context","route_quality":"osm_mapped","osm_id":394946659,"name":"Транссахалинская трубопроводная система","operator":"Sakhalin Energy"},"geometry":{"type":"LineString","coordinates":[[142.709,50.104],[142.813,49.938],[142.769,49.819],[142.825,49.547],[142.964,49.281],[142.933,49.121]]}},{"type":"Feature","properties":{"asset_class":"pipeline_gas","scope":"context","route_quality":"osm_mapped","osm_id":325803284,"name":"Транссахалинская трубопроводная система","operator":"Sakhalin Energy"},"geometry":{"type":"LineString","coordinates":[[143.366,51.417],[143.064,51.211],[143.025,51.12],[142.819,51.102],[142.71,51.02],[142.686,50.879],[142.625,50.855],[142.703,50.603],[142.647,50.39],[142.709,50.104]]}}]}