{"type":"FeatureCollection","features":[{"type":"Feature","properties":{"scalerank":3,"reveal_zoom":3.4,"name":"Al Furat"},"geometry":{"type":"LineString","coordinates":[[38.56,35.86],[38.25,35.95],[38.08,36.07],[38.18,36.34]]}},{"type":"Feature","properties":{"scalerank":3,"reveal_zoom":3.4,"name":"Amur"},"geometry":{"type":"MultiLineString","coordinates":[[[137.07,50.45],[137.1,50.3],[137.06,50.22],[136.87,50.1],[136.77,49.91],[136.81,49.76]],[[140.11,51.76],[139.86,51.58]]]}},{"type":"Feature","properties":{"scalerank":2,"reveal_zoom":2.6,"name":"Angara"},"geometry":{"type":"MultiLineString","coordinates":[[[106.5,52.38],[106.44,52.41],[106.22,52.36],[105.56,51.91],[105.14,51.82],[104.87,51.87]],[[103.37,53.11],[103.38,53.59],[103.09,54.03],[103.06,54.22],[103.25,54.48],[103.19,54.7],[103.11,54.77],[103.13,54.89],[103.33,55.18],[103.15,55.78],[103.07,55.83],[102.89,56.13],[102.54,56.19],[101.86,56.07],[101.78,56.17],[101.8,56.29]],[[102.67,57.94],[102.65,57.79],[102.37,57.45],[102.36,57.0]]]}},{"type":"Feature","properties":{"scalerank":4,"reveal_zoom":4.2,"name":"Dnieper"},"geometry":{"type":"MultiLineString","coordinates":[[[33.54,46.83],[33.86,47.15],[34.0,47.41],[34.15,47.49],[34.45,47.54],[35.09,47.53],[35.15,47.66],[35.11,47.84]],[[33.19,49.09],[31.89,49.55]],[[31.44,50.0],[31.48,49.93],[31.47,49.75]],[[30.51,51.22],[30.48,50.75],[30.51,50.6]]]}},{"type":"Feature","properties":{"scalerank":2,"reveal_zoom":2.6,"name":"Ertis"},"geometry":{"type":"LineString","coordinates":[[83.36,49.64],[83.96,49.38],[84.2,49.16],[83.53,48.89],[83.45,48.67],[83.52,48.45],[83.59,48.4],[83.52,48.22],[84.28,47.73],[84.36,47.73]]}},{"type":"Feature","properties":{"scalerank":3,"reveal_zoom":3.4,"name":"Firat"},"geometry":{"type":"LineString","coordinates":[[38.77,38.81],[38.81,38.87],[38.74,39.08]]}},{"type":"Feature","properties":{"scalerank":3,"reveal_zoom":3.4,"name":"Huang"},"geometry":{"type":"MultiLineString","coordinates":[[[97.29,34.84],[97.25,34.89],[97.07,34.93]],[[97.76,35.09],[97.71,34.96],[97.55,34.88]]]}},{"type":"Feature","properties":{"scalerank":3,"reveal_zoom":3.4,"name":"Indus"},"geometry":{"type":"LineString","coordinates":[[72.78,34.62],[72.85,34.26],[72.8,34.15],[72.71,34.09]]}},{"type":"Feature","properties":{"scalerank":5,"reveal_zoom":5.0,"name":"Naryn"},"geometry":{"type":"LineString","coordinates":[[73.3,41.78],[72.77,41.76],[72.65,41.67]]}},{"type":"Feature","properties":{"scalerank":5,"reveal_zoom":5.0,"name":"Neva"},"geometry":{"type":"LineString","coordinates":[[31.04,59.95],[31.27,60.05],[31.41,60.23]]}},{"type":"Feature","properties":{"scalerank":4,"reveal_zoom":4.2,"name":"Ob"},"geometry":{"type":"LineString","coordinates":[[83.03,54.85],[82.31,54.49],[81.74,54.27],[81.39,54.05],[81.33,53.99],[81.33,53.89]]}},{"type":"Feature","properties":{"scalerank":4,"reveal_zoom":4.2,"name":"Rhein"},"geometry":{"type":"MultiLineString","coordinates":[[[9.13,47.67],[8.88,47.66]],[[9.18,47.67],[9.55,47.51]]]}},{"type":"Feature","properties":{"scalerank":4,"reveal_zoom":4.2,"name":"Shishhid Gol"},"geometry":{"type":"LineString","coordinates":[[99.43,51.35],[99.31,51.41]]}},{"type":"Feature","properties":{"scalerank":4,"reveal_zoom":4.2,"name":"Sukhona"},"geometry":{"type":"LineString","coordinates":[[39.05,59.87],[39.69,59.53],[39.8,59.53]]}},{"type":"Feature","properties":{"scalerank":5,"reveal_zoom":5.0,"name":"Svir’"},"geometry":{"type":"LineString","coordinates":[[31.41,60.23],[31.59,60.41],[32.09,60.63],[32.36,60.65],[32.61,60.6],[32.82,60.48]]}},{"type":"Feature","properties":{"scalerank":5,"reveal_zoom":5.0,"name":"Syr Darya"},"geometry":{"type":"MultiLineString","coordinates":[[[70.36,40.44],[70.32,40.37],[69.83,40.27]],[[68.46,41.11],[68.05,41.17],[67.99,41.25]],[[61.76,46.02],[61.56,46.11]]]}},{"type":"Feature","properties":{"scalerank":5,"reveal_zoom":5.0,"name":"Tajo"},"geometry":{"type":"MultiLineString","coordinates":[[[-6.0,39.85],[-5.66,39.8],[-5.21,39.81]],[[-2.73,40.53],[-2.58,40.72]]]}},{"type":"Feature","properties":{"scalerank":4,"reveal_zoom":4.2,"name":"Ural"},"geometry":{"type":"LineString","coordinates":[[58.84,52.2],[58.74,51.79],[58.63,51.7]]}},{"type":"Feature","properties":{"scalerank":4,"reveal_zoom":4.2,"name":"Verkhniy Yenisey"},"geometry":{"type":"LineString","coordinates":[[91.51,53.74],[91.45,53.83],[91.55,54.08],[91.27,54.48],[90.94,54.72],[90.99,54.93],[91.06,55.0],[91.85,55.18],[92.18,55.29],[92.41,55.5]]}},{"type":"Feature","properties":{"scalerank":5,"reveal_zoom":5.0,"name":"Vistula"},"geometry":{"type":"LineString","coordinates":[[18.81,49.93],[18.94,49.93]]}},{"type":"Feature","properties":{"scalerank":3,"reveal_zoom":3.4,"name":"Volga"},"geometry":{"type":"MultiLineString","coordinates":[[[45.66,50.22],[45.83,50.36],[45.84,50.46],[45.68,50.7],[45.98,50.82],[46.04,50.93],[45.84,51.19],[45.87,51.32],[45.98,51.46],[46.37,51.75],[46.77,51.75]],[[49.06,55.48],[49.29,55.23],[49.25,55.11],[49.02,55.04],[48.9,54.91],[48.88,54.74],[48.78,54.62],[48.51,54.49],[48.46,54.26],[48.83,53.98],[48.96,53.83],[49.01,53.58],[49.1,53.48],[49.9,53.46]],[[43.43,56.67],[43.34,56.73],[43.09,57.12],[43.18,57.33],[42.72,57.43],[42.58,57.42]],[[37.15,56.75],[36.88,56.78],[36.52,56.64],[36.37,56.71]],[[37.76,57.29],[37.94,57.31],[38.08,57.38],[38.3,57.57]],[[41.34,57.49],[41.21,57.52],[40.84,57.8],[40.49,57.75],[40.01,57.57]],[[38.44,58.02],[38.33,58.08],[38.32,58.15],[38.41,58.29],[38.7,58.11]]]}},{"type":"Feature","properties":{"scalerank":3,"reveal_zoom":3.4,"name":"Al Furat"},"geometry":{"type":"MultiLineString","coordinates":[[[38.56,35.86],[38.92,35.91],[39.23,35.88],[39.83,35.68],[40.0,35.47],[40.38,35.23],[40.47,35.02],[40.93,34.58],[40.95,34.46],[40.99,34.43]],[[38.03,36.84],[38.06,36.74],[38.27,36.56],[38.18,36.34]]]}},{"type":"Feature","properties":{"scalerank":4,"reveal_zoom":4.2,"name":"Aldan"},"geometry":{"type":"LineString","coordinates":[[123.57,56.53],[123.1,56.56],[123.06,56.63],[123.19,56.95],[123.56,57.34],[123.6,57.45],[123.51,57.54],[123.55,57.65],[123.76,57.67],[123.81,57.72],[123.72,57.98],[123.75,58.07],[123.96,58.21],[124.02,58.31],[124.3,58.37],[124.44,58.63],[124.58,58.72],[125.03,58.86],[125.15,58.99],[125.3,59.04],[125.34,59.07],[125.34,59.32],[125.53,59.28],[125.73,59.15],[126.27,58.95],[127.07,58.74],[127.66,58.85],[127.76,58.83],[127.93,58.69],[128.16,58.82],[128.33,58.75],[128.43,58.83],[128.82,58.55],[129.66,58.5],[130.23,58.64],[130.59,58.63],[130.6,58.84],[130.65,58.87],[131.0,58.94],[131.21,58.9],[131.36,58.97],[131.65,58.97],[131.89,59.07],[131.95,59.16],[132.21,59.18],[132.64,59.37],[132.96,59.41],[133.06,59.46],[133.18,59.63],[133.29,59.65],[134.2,60.27],[134.55,60.44],[134.7,60.46],[135.1,60.39],[135.13,60.45],[134.93,60.63],[134.92,60.68],[135.36,60.95],[135.51,61.19],[135.46,61.31],[135.5,61.36],[135.38,61.42],[135.38,61.47],[135.53,61.61],[135.22,61.72],[135.53,61.84],[135.6,61.98],[135.71,62.04],[135.71,62.21],[135.83,62.26],[135.83,62.32],[135.49,62.68],[135.25,62.62],[134.9,62.65],[134.33,62.83],[134.18,62.91],[134.19,62.96],[133.97,63.01],[133.95,63.07],[133.8,63.13],[133.22,63.09],[133.15,63.18],[133.21,63.22],[133.23,63.34],[132.02,63.32],[131.34,63.39],[131.01,63.31],[130.43,63.34],[129.38,63.49]]}},{"type":"Feature","properties":{"scalerank":5,"reveal_zoom":5.0,"name":"Amu  Darya"},"geometry":{"type":"MultiLineString","coordinates":[[[68.21,37.02],[68.07,36.95],[67.96,36.97],[67.77,37.14],[67.75,37.2],[67.52,37.27],[67.32,37.21],[67.2,37.24],[67.07,37.33],[66.83,37.37],[66.47,37.34],[66.11,37.41],[65.34,37.71],[65.13,37.94],[64.27,38.43],[63.9,38.9],[63.41,39.23],[63.08,39.34],[62.9,39.61],[62.57,39.84],[62.44,40.04],[62.38,40.33],[62.1,40.68],[61.9,41.09],[61.64,41.24],[61.26,41.3],[60.53,41.82],[60.48,41.92],[60.1,42.23],[59.74,42.34],[59.32,42.59],[59.32,42.7],[59.21,42.81],[59.16,42.97],[59.1,43.29]],[[59.1,43.29],[59.1,43.29]],[[59.1,43.29],[59.05,43.53],[59.2,43.58],[59.26,43.72],[59.08,43.97],[59.54,44.15]],[[59.1,43.29],[59.0,43.42],[59.02,43.73],[58.83,43.84],[58.66,43.87],[58.57,43.95],[58.58,44.07],[58.51,44.2],[58.32,44.43]]]}},{"type":"Feature","properties":{"scalerank":3,"reveal_zoom":3.4,"name":"Amur","label_name":"Amur","label_lon":130.849,"label_lat":47.929,"label_zoom":4.4},"geometry":{"type":"MultiLineString","coordinates":[[[136.81,49.76],[136.83,49.59],[136.39,49.37],[136.27,49.17],[136.27,49.09],[136.16,48.99],[135.74,48.76],[135.44,48.77],[135.18,48.7],[135.08,48.64],[135.03,48.48],[134.96,48.42],[134.21,48.36],[133.84,48.27],[133.47,48.1],[133.14,48.11],[132.71,47.95],[132.48,47.71],[131.56,47.68],[131.32,47.73],[131.0,47.69],[130.85,47.93],[130.73,48.02],[130.71,48.13],[130.8,48.34],[130.55,48.6],[130.62,48.77],[130.55,48.86],[130.2,48.89],[129.67,49.28],[129.53,49.32],[129.5,49.39],[129.07,49.37],[128.82,49.46],[128.77,49.49],[128.77,49.58],[128.7,49.6],[128.24,49.56],[127.81,49.62],[127.5,49.87],[127.51,50.07],[127.59,50.21]],[[139.86,51.58],[139.6,51.54],[139.28,51.37],[138.92,51.35],[138.83,51.25],[138.67,51.21],[138.07,50.86],[137.71,50.71],[137.19,50.61],[137.05,50.49],[137.07,50.45]],[[140.11,51.76],[140.21,51.81],[140.21,52.05],[140.39,52.23],[140.4,52.47],[140.18,52.61],[140.0,52.82],[139.8,52.92],[139.76,53.03],[139.86,53.15],[140.0,53.22],[140.18,53.22],[140.61,53.09],[140.84,53.09]]]}},{"type":"Feature","properties":{"scalerank":2,"reveal_zoom":2.6,"name":"Angara","label_name":"Angara","label_lon":98.322,"label_lat":58.446,"label_zoom":3.6},"geometry":{"type":"MultiLineString","coordinates":[[[104.87,51.87],[103.97,52.54],[103.94,52.61],[103.71,52.8],[103.7,52.87],[103.39,53.03],[103.37,53.11]],[[101.8,56.29],[101.82,56.56],[101.77,56.69],[101.67,56.76],[101.45,56.81],[101.39,56.85],[101.39,56.92],[101.61,57.0],[102.24,56.89],[102.32,56.92],[102.36,57.0]],[[102.67,57.94],[102.8,58.12],[102.84,58.37],[102.66,58.7],[102.46,58.84]],[[102.49,58.83],[102.46,58.84]],[[102.46,58.84],[102.1,58.93]],[[102.46,58.84],[102.1,58.93]],[[102.1,58.93],[101.28,58.94],[100.98,58.9],[100.95,58.83],[100.82,58.76],[100.44,58.63],[100.44,58.44],[100.25,58.35],[99.11,58.72],[98.79,58.65],[98.56,58.48],[98.32,58.45],[96.98,58.39],[96.76,58.49],[96.51,58.53],[95.78,58.52],[95.42,58.42],[94.97,58.2],[94.6,58.14],[93.73,58.13],[93.47,58.17],[93.0,58.1]],[[102.1,58.93],[101.95,58.97]]]}},{"type":"Feature","properties":{"scalerank":3,"reveal_zoom":3.4,"name":"Ergun","label_name":"Ergun","label_lon":120.682,"label_lat":51.973,"label_zoom":4.4},"geometry":{"type":"LineString","coordinates":[[121.41,53.32],[120.99,53.28],[120.7,53.17],[120.04,52.72],[120.07,52.63],[120.17,52.6],[120.36,52.63],[120.66,52.57],[120.7,52.49],[120.65,52.4],[120.67,52.3],[120.74,52.21],[120.75,52.1],[120.68,51.97],[120.51,51.85],[120.07,51.6],[119.81,51.27],[119.75,51.11],[119.51,50.86],[119.45,50.7],[119.16,50.41],[119.3,50.35],[119.35,50.28],[119.26,50.07],[118.76,49.96],[118.45,49.84],[117.87,49.51]]}},{"type":"Feature","properties":{"scalerank":2,"reveal_zoom":2.6,"name":"Borcea"},"geometry":{"type":"LineString","coordinates":[[27.27,44.14],[27.77,44.36],[27.93,44.49],[27.88,44.74]]}},{"type":"Feature","properties":{"scalerank":2,"reveal_zoom":2.6,"name":"Bratul Chillia","label_name":"Bratul Chillia","label_lon":28.894,"label_lat":45.29,"label_zoom":3.6},"geometry":{"type":"LineString","coordinates":[[29.71,45.26],[29.57,45.37],[29.4,45.42],[29.22,45.4],[28.89,45.29],[28.78,45.31],[28.76,45.23],[28.88,45.18]]}},{"type":"Feature","properties":{"scalerank":2,"reveal_zoom":2.6,"name":"Bratul Sfintu Gheorghe"},"geometry":{"type":"LineString","coordinates":[[28.88,45.18],[29.2,45.08],[29.35,44.97],[29.61,44.92]]}},{"type":"Feature","properties":{"scalerank":2,"reveal_zoom":2.6,"name":"Bratul Sulina"},"geometry":{"type":"LineString","coordinates":[[28.88,45.18],[29.68,45.15]]}},{"type":"Feature","properties":{"scalerank":1,"reveal_zoom":0.0,"name":"Bykovskaya Protoka"},"geometry":{"type":"LineString","coordinates":[[126.69,72.29],[126.66,72.42],[126.73,72.52],[127.73,72.41]]}},{"type":"Feature","properties":{"scalerank":2,"reveal_zoom":2.6,"name":"Danube","label_name":"Danube","label_lon":22.498,"label_lat":44.706,"label_zoom":3.6},"geometry":{"type":"LineString","coordinates":[[17.21,48.06],[17.76,47.77],[19.0,47.82],[19.1,47.78],[19.12,47.71],[19.06,47.48],[18.96,47.36],[18.88,47.15],[18.98,46.74],[18.87,46.59],[18.92,46.27],[18.73,46.01],[18.95,45.66],[18.92,45.6],[19.06,45.52],[19.0,45.4],[19.27,45.28],[19.7,45.23],[19.86,45.27],[20.25,45.15],[20.31,45.1],[20.35,44.91],[20.64,44.83],[20.73,44.69],[21.36,44.83],[21.64,44.71],[21.91,44.67],[22.09,44.54],[22.5,44.71],[22.64,44.65],[22.73,44.57],[22.55,44.54],[22.49,44.44],[22.69,44.25],[23.03,44.08],[22.87,43.95],[22.87,43.86],[22.92,43.83],[23.22,43.87],[24.23,43.76],[24.43,43.79],[25.16,43.69],[25.5,43.67],[25.69,43.71],[26.22,44.01],[26.49,44.08],[27.09,44.17],[27.41,44.14],[28.02,44.34],[28.08,44.48],[27.99,44.66],[27.83,44.8],[28.01,45.36],[28.21,45.45],[28.45,45.29],[28.76,45.23]]}},{"type":"Feature","properties":{"scalerank":5,"reveal_zoom":5.0,"name":"Zapadnaya Dvina"},"geometry":{"type":"LineString","coordinates":[[32.08,56.91],[32.06,56.88],[32.32,56.75],[32.27,56.61],[32.09,56.39],[32.07,56.19],[32.0,56.18],[31.99,56.09],[31.48,56.04],[31.39,55.99],[31.38,55.89],[31.45,55.74],[31.42,55.66],[31.17,55.6],[31.06,55.51],[30.41,55.37],[30.21,55.28],[30.15,55.19],[29.81,55.21],[29.72,55.13],[29.49,55.07],[28.92,55.45],[28.09,55.62],[27.88,55.82],[27.46,55.8],[27.01,55.9],[26.49,55.9],[26.18,56.26],[26.17,56.34],[25.76,56.6],[25.05,56.61],[24.22,56.89],[24.05,57.07]]}},{"type":"Feature","properties":{"scalerank":4,"reveal_zoom":4.2,"name":"Dicle"},"geometry":{"type":"LineString","coordinates":[[39.64,38.42],[40.02,38.35],[40.18,38.18],[40.17,38.11],[40.23,38.09],[40.25,37.9],[40.43,37.83],[41.8,37.71],[41.84,37.48],[42.23,37.32],[42.38,37.06]]}},{"type":"Feature","properties":{"scalerank":4,"reveal_zoom":4.2,"name":"Dnepre"},"geometry":{"type":"LineString","coordinates":[[33.74,55.87],[33.89,55.71],[33.77,55.57],[33.62,55.56],[33.58,55.5],[33.57,55.29],[33.39,54.92]]}},{"type":"Feature","properties":{"scalerank":4,"reveal_zoom":4.2,"name":"Dnieper"},"geometry":{"type":"MultiLineString","coordinates":[[[32.58,46.62],[33.07,46.76],[33.54,46.83]],[[35.11,47.84],[35.13,47.97],[35.08,48.08],[35.19,48.2],[35.11,48.39],[33.72,48.94],[33.19,49.09]],[[31.89,49.55],[31.46,49.76]],[[31.44,50.0],[31.24,49.98],[30.86,50.13],[30.62,50.31],[30.51,50.6]],[[33.39,54.92],[32.98,55.0],[32.74,54.92],[32.51,54.69],[32.01,54.78],[30.72,54.61],[30.41,54.49],[30.3,54.33],[30.41,53.9],[30.32,53.88],[30.26,53.67],[30.37,53.3],[30.28,53.25],[30.25,53.12],[30.16,53.12],[30.04,53.05],[30.03,52.95],[30.08,52.81],[30.26,52.61],[30.35,52.41],[30.55,52.31],[30.53,52.27],[30.58,52.2],[30.8,52.0],[30.77,51.89],[30.55,51.66],[30.61,51.33],[30.51,51.22]]]}},{"type":"Feature","properties":{"scalerank":2,"reveal_zoom":2.6,"name":"Danube"},"geometry":{"type":"MultiLineString","coordinates":[[[8.22,48.05],[8.49,47.93],[8.7,47.94],[8.98,48.05],[9.42,48.12],[9.59,48.24],[10.39,48.52],[10.71,48.68],[11.68,48.79],[11.77,48.87],[12.02,48.96],[12.03,49.03],[12.36,48.99],[12.51,48.92]],[[17.21,48.06],[17.03,48.17],[16.66,48.16],[16.49,48.21],[16.36,48.33],[16.21,48.38],[15.57,48.42],[15.15,48.2],[14.58,48.22],[14.04,48.35],[13.87,48.46],[13.49,48.58],[13.2,48.64],[12.91,48.84],[12.51,48.93]]]}},{"type":"Feature","properties":{"scalerank":5,"reveal_zoom":5.0,"name":"Ebro"},"geometry":{"type":"LineString","coordinates":[[-4.19,43.01],[-4.1,43.0],[-3.96,42.83],[-3.76,42.82],[-3.63,42.9],[-3.45,42.81],[-3.01,42.76],[-2.64,42.52],[-2.4,42.51],[-1.99,42.39],[-1.41,41.98],[-0.75,41.62],[-0.3,41.31],[-0.1,41.28],[0.04,41.31],[0.17,41.41],[0.26,41.4],[0.36,41.33],[0.36,41.26],[0.53,41.25],[0.63,41.16],[0.65,41.08],[0.54,40.98],[0.52,40.9],[0.55,40.8],[0.65,40.74],[0.89,40.72]]}},{"type":"Feature","properties":{"scalerank":5,"reveal_zoom":5.0,"name":"Elbe"},"geometry":{"type":"MultiLineString","coordinates":[[[15.58,50.69],[15.74,50.48],[15.88,50.37],[15.82,50.11],[15.68,50.05],[15.24,50.03],[15.09,50.15],[14.63,50.22],[14.39,50.44],[14.24,50.45],[14.04,50.57],[14.2,50.75],[14.21,50.85],[14.14,50.92],[13.52,51.14],[13.23,51.38],[13.18,51.47]],[[13.19,51.47],[12.93,51.62],[12.84,51.71],[12.83,51.79],[12.74,51.84],[12.15,51.87],[11.69,52.07],[11.69,52.21],[11.98,52.44],[12.01,52.77],[11.92,52.92],[11.72,53.01],[11.11,53.15],[10.68,53.37],[10.08,53.44]],[[10.08,53.44],[9.78,53.55],[10.05,53.52],[10.08,53.44]]]}},{"type":"Feature","properties":{"scalerank":2,"reveal_zoom":2.6,"name":"Ertis","label_name":"Ertis","label_lon":77.334,"label_lat":51.886,"label_zoom":3.6},"geometry":{"type":"MultiLineString","coordinates":[[[85.27,47.99],[85.0,47.93],[84.6,47.74],[84.36,47.73]],[[83.36,49.64],[83.13,49.68],[82.15,50.22],[81.77,50.23],[81.48,50.33],[81.09,50.38],[80.43,50.37],[80.14,50.47],[79.7,50.52],[79.31,50.66],[78.9,50.65],[78.35,50.86],[78.17,50.99],[77.96,51.34],[77.52,51.56],[77.44,51.65],[77.45,51.77],[77.33,51.89],[76.96,52.11],[76.9,52.3],[76.78,52.41],[76.77,52.55],[76.65,52.64],[76.66,52.74],[76.49,52.83],[76.46,52.9],[76.31,52.91],[76.24,52.98],[75.85,53.08],[75.57,53.28],[75.46,53.46],[75.05,53.71],[75.06,53.95],[74.99,53.99]]]}},{"type":"Feature","properties":{"scalerank":2,"reveal_zoom":2.6,"name":"Irtysh"},"geometry":{"type":"LineString","coordinates":[[90.33,47.65],[90.25,47.43],[89.41,46.99],[89.23,47.01],[88.51,47.23],[87.56,47.43],[87.33,47.55],[87.1,47.59],[86.43,47.88],[86.15,47.88],[85.52,48.02],[85.27,47.99]]}},{"type":"Feature","properties":{"scalerank":3,"reveal_zoom":3.4,"name":"Euphrates"},"geometry":{"type":"LineString","coordinates":[[40.99,34.43],[41.18,34.39],[41.28,34.44],[41.5,34.44],[41.83,34.51],[41.99,34.45],[42.12,34.3],[42.37,34.33],[42.33,34.23],[42.38,34.11],[42.51,34.0],[42.56,33.87],[42.73,33.87],[42.72,33.75],[42.88,33.58],[43.03,33.5],[43.11,33.53],[43.65,33.38],[43.87,33.2],[44.03,33.16],[44.12,33.05],[44.25,32.83],[44.26,32.5],[44.45,31.98],[44.48,31.76],[44.55,31.65],[44.77,31.48],[45.47,31.31]]}},{"type":"Feature","properties":{"scalerank":3,"reveal_zoom":3.4,"name":"Firat"},"geometry":{"type":"MultiLineString","coordinates":[[[38.77,38.81],[38.45,38.71],[38.37,38.55],[39.08,38.34],[39.15,38.19],[39.25,38.15],[39.24,38.1],[38.98,37.89],[38.92,37.75],[38.84,37.71],[38.81,37.64],[38.44,37.49],[37.92,37.38],[37.85,37.29],[37.86,37.12],[37.99,37.0],[38.03,36.84]],[[41.46,40.18],[41.33,40.02],[40.98,39.94],[40.4,39.94],[40.17,39.89],[40.24,39.69],[40.12,39.57],[39.41,39.68],[38.49,39.45],[38.43,39.34],[38.72,39.14],[38.74,39.08]]]}},{"type":"Feature","properties":{"scalerank":3,"reveal_zoom":3.4,"name":"Hailar"},"geometry":{"type":"LineString","coordinates":[[117.87,49.51],[117.91,49.43],[118.06,49.32],[118.44,49.44],[118.52,49.41],[118.62,49.26],[118.75,49.21],[119.23,49.2],[119.45,49.27],[120.12,49.23],[120.52,49.26],[120.91,49.37],[122.29,49.85]]}},{"type":"Feature","properties":{"scalerank":3,"reveal_zoom":3.4,"name":"Amur"},"geometry":{"type":"LineString","coordinates":[[127.59,50.21],[127.34,50.35],[127.31,50.45],[127.35,50.62],[127.31,50.71],[126.92,51.1],[126.81,51.51],[126.71,51.57],[126.7,51.7],[126.51,51.93],[126.34,52.36],[126.19,52.52],[126.02,52.61],[126.05,52.74],[125.87,52.87],[125.73,52.89],[125.65,53.04],[125.08,53.2],[124.81,53.13],[124.47,53.23],[124.22,53.37],[123.61,53.55],[123.15,53.54],[122.52,53.46],[122.34,53.49],[121.41,53.32]]}},{"type":"Feature","properties":{"scalerank":3,"reveal_zoom":3.4,"name":"Huang"},"geometry":{"type":"MultiLineString","coordinates":[[[97.29,34.84],[97.55,34.88]],[[97.76,35.09],[97.93,35.08],[98.2,34.87],[98.38,34.8],[98.4,34.67],[98.35,34.59],[98.56,34.39],[98.71,34.38],[98.72,34.43],[98.81,34.47],[99.0,34.43],[99.12,33.92],[99.32,33.75],[99.39,33.81],[99.72,33.79],[100.19,33.6],[100.33,33.76],[100.74,33.93],[100.94,33.78],[101.01,33.76],[101.03,33.84],[101.12,33.83],[101.48,33.68],[101.66,33.68],[101.81,33.61],[102.07,33.36],[102.48,33.48],[102.21,33.9],[101.33,34.27],[101.09,34.51],[100.91,34.59],[100.88,34.68],[100.63,34.71],[100.38,34.83],[100.22,35.24],[100.26,35.28],[100.17,35.42],[100.17,35.54],[100.25,35.7],[100.9,36.14],[101.34,36.06],[101.76,36.15],[101.99,36.0],[102.06,35.89],[102.18,35.84],[102.61,35.86],[102.95,35.81],[103.18,35.81],[103.3,35.88],[103.32,35.93],[103.23,35.97],[103.39,36.14],[103.56,36.16],[104.0,36.08],[104.07,36.23],[104.18,36.32],[104.71,36.63],[104.63,36.8],[104.33,36.95],[104.35,37.17],[104.58,37.31],[105.0,37.46],[105.8,37.56],[105.91,37.66],[106.04,37.92],[106.46,38.38],[106.64,38.78],[106.87,39.08],[106.76,39.48],[106.77,39.76],[106.72,40.02],[107.15,40.4],[107.24,40.59],[107.75,40.84],[108.07,40.87],[108.39,40.82],[108.65,40.63],[108.88,40.55],[109.31,40.49],[109.63,40.53],[109.69,40.49],[110.08,40.52],[110.3,40.48],[110.67,40.3],[111.0,40.29],[111.13,40.23],[111.41,40.01],[111.38,39.79],[111.43,39.58],[111.37,39.49],[111.17,39.4],[111.2,39.24],[110.98,38.96],[110.89,38.56],[110.5,38.11],[110.51,38.01],[110.78,37.61],[110.66,37.43],[110.61,37.22],[110.38,37.01],[110.58,35.53],[110.32,35.13],[110.27,34.64],[110.47,34.6],[110.8,34.65],[111.1,34.79],[111.59,34.9],[111.84,35.07],[112.86,34.81],[113.4,34.97],[113.9,34.89],[113.97,34.93],[114.47,34.91],[114.68,34.93],[114.83,35.02]],[[96.16,35.13],[96.75,35.05],[97.07,34.93]]]}},{"type":"Feature","properties":{"scalerank":3,"reveal_zoom":3.4,"name":"Yellow"},"geometry":{"type":"LineString","coordinates":[[114.84,35.02],[114.91,35.23],[115.01,35.33],[115.34,35.5],[115.46,35.68],[115.87,35.88],[115.88,35.94],[116.12,36.14],[116.58,36.44],[116.74,36.66],[117.02,36.77],[117.35,37.08],[117.61,37.23],[118.13,37.35],[118.39,37.6],[118.95,37.82],[119.04,37.81]]}},{"type":"Feature","properties":{"scalerank":2,"reveal_zoom":2.6,"name":"Ideriyn","label_name":"Ideriyn","label_lon":98.05,"label_lat":48.736,"label_zoom":3.6},"geometry":{"type":"LineString","coordinates":[[98.01,48.0],[97.62,48.07],[97.45,48.14],[97.41,48.2],[97.44,48.44],[97.71,48.67],[98.05,48.74],[98.55,48.73],[99.18,48.64],[99.59,48.72],[100.61,49.1],[100.7,49.26]]}},{"type":"Feature","properties":{"scalerank":5,"reveal_zoom":5.0,"name":"Indigirka"},"geometry":{"type":"MultiLineString","coordinates":[[[144.71,62.77],[144.32,63.09],[143.06,63.47],[142.45,63.6],[141.91,63.95],[141.89,64.04],[141.92,64.14],[142.01,64.22],[142.16,64.28],[142.79,64.3],[142.86,64.5],[143.27,64.63],[143.29,64.75],[143.36,64.79],[143.24,64.98],[143.09,65.09],[143.23,65.37],[142.64,65.46],[142.6,65.52],[142.68,65.69],[143.01,65.88],[143.15,66.02],[143.22,66.31],[143.07,66.57],[142.75,66.81],[142.65,67.01],[142.64,67.26],[142.58,67.36],[142.66,67.45],[143.34,67.6],[144.65,67.64],[144.71,67.69],[144.51,67.79],[145.02,67.87],[145.09,67.98],[145.28,68.02],[145.36,68.18],[145.64,68.22],[145.71,68.29],[145.86,68.3],[145.9,68.43],[146.07,68.55],[146.94,68.57],[147.14,68.8],[147.35,68.86],[147.33,68.93],[147.48,68.94],[147.44,69.07],[147.49,69.15],[147.47,69.22],[147.39,69.29],[147.64,69.44],[147.57,69.6],[147.42,69.67],[147.47,69.73],[147.52,70.0],[147.39,70.07],[147.35,70.14],[147.38,70.27],[147.54,70.38],[147.54,70.43],[147.87,70.6],[148.49,70.68],[148.94,70.84],[149.56,70.93],[149.69,71.05],[149.91,71.11],[149.91,71.17],[150.1,71.23]],[[144.71,62.77],[145.01,62.51]]]}},{"type":"Feature","properties":{"scalerank":3,"reveal_zoom":3.4,"name":"Indus"},"geometry":{"type":"MultiLineString","coordinates":[[[79.44,32.74],[79.34,32.88],[79.04,33.13],[78.91,33.19],[78.81,33.16],[78.64,33.21],[78.25,33.4],[78.08,33.62],[77.53,34.11],[76.97,34.29],[76.29,34.71],[76.22,34.79],[76.21,34.92],[75.9,35.21],[75.86,35.3],[75.57,35.36],[75.26,35.59],[74.83,35.69],[74.7,35.84],[74.65,35.83],[74.63,35.6],[74.58,35.5],[74.46,35.45],[74.22,35.41],[73.42,35.54],[73.3,35.47],[73.28,35.33],[73.18,35.2],[72.89,35.0],[72.87,34.94],[72.95,34.85],[72.81,34.73],[72.78,34.62]],[[72.71,34.09],[72.65,34.03],[72.3,33.96],[72.2,33.77],[72.04,33.76],[71.91,33.5],[71.76,33.37],[71.72,33.11],[71.65,32.99],[71.42,32.84],[71.27,32.31],[70.86,31.57],[70.8,31.3],[70.83,30.92],[70.77,30.81],[70.82,30.6],[70.79,30.21],[70.83,30.0],[70.79,29.83],[70.66,29.55],[70.7,29.35],[70.61,29.02],[70.4,28.92],[69.96,28.58],[69.83,28.53],[69.53,28.25],[68.94,27.98],[68.93,27.85],[68.88,27.82],[68.94,27.72],[68.83,27.68],[68.67,27.77],[68.57,27.69],[68.34,27.6],[68.3,27.37],[68.19,27.34],[68.17,27.21],[68.12,27.19],[68.11,27.12],[67.91,26.91],[67.89,26.49],[67.93,26.3],[68.12,26.14],[68.38,25.79],[68.34,25.77],[68.4,25.62],[68.34,25.54],[68.31,25.23],[68.35,25.14],[68.25,24.98],[68.21,25.0],[68.07,24.87],[67.94,24.43],[67.85,24.4],[67.79,24.24],[67.63,24.08],[67.45,24.04]]]}},{"type":"Feature","properties":{"scalerank":2,"reveal_zoom":2.6,"name":"Irtysh","label_name":"Irtysh","label_lon":74.142,"label_lat":57.096,"label_zoom":3.6},"geometry":{"type":"MultiLineString","coordinates":[[[74.99,53.99],[74.92,54.0],[74.87,54.13],[74.56,54.4],[74.13,54.59],[73.73,54.69]],[[73.72,54.69],[73.54,54.81],[73.35,54.85],[73.35,54.96],[73.16,55.1],[73.17,55.19],[72.99,55.27],[73.66,55.62],[74.27,55.74],[74.47,55.83],[74.67,56.01],[74.71,56.06],[74.68,56.26],[74.73,56.29],[74.75,56.4],[74.68,56.48],[74.66,56.61],[74.59,56.63],[74.6,56.76],[74.51,56.89],[74.12,57.05],[74.14,57.1],[74.05,57.16],[73.77,57.18],[73.6,57.27],[73.44,57.28],[72.9,57.46],[72.78,57.44],[72.33,57.57],[71.53,57.65],[71.4,57.72],[71.11,57.71],[70.47,57.85],[70.37,57.96],[70.29,57.98],[70.14,57.96],[69.97,58.02],[69.65,57.96],[69.2,58.03],[68.82,58.01],[68.46,58.15],[68.23,58.17]],[[68.86,61.12],[69.01,61.02],[69.36,60.96],[69.52,60.89],[69.62,60.76],[69.83,60.65],[69.77,60.51],[69.78,60.38],[69.87,60.26],[69.72,60.13],[69.89,60.01],[69.89,59.87],[69.76,59.77],[69.5,59.73],[69.33,59.65],[69.28,59.58],[69.13,59.56],[69.0,59.45],[68.92,59.45],[68.91,59.35],[68.8,59.24],[68.88,59.16],[68.86,59.02],[68.8,59.0],[68.81,58.94],[68.7,58.85],[68.71,58.79],[68.57,58.75],[68.55,58.52],[68.4,58.5],[68.33,58.38],[68.22,58.33],[68.22,58.17]]]}},{"type":"Feature","properties":{"scalerank":4,"reveal_zoom":4.2,"name":"Kolyma"},"geometry":{"type":"LineString","coordinates":[[145.22,61.86],[145.8,61.88],[146.1,61.78],[146.34,61.59],[146.66,61.45],[147.05,61.52],[147.12,61.5],[147.37,61.59],[147.43,61.71],[147.41,61.87],[147.35,61.98],[147.26,62.04],[147.26,62.14],[147.34,62.27],[147.46,62.33],[147.92,62.23],[148.12,62.09],[148.52,62.11],[148.66,61.98],[148.62,61.91],[148.73,61.79],[148.76,61.66],[149.03,61.7],[149.38,61.66],[149.5,61.67],[149.61,61.86],[149.92,62.02],[150.19,62.09],[150.43,62.09],[150.71,62.2],[150.82,62.45],[150.76,62.59],[150.84,62.67],[151.41,62.62],[151.62,62.56],[151.74,62.45],[151.94,62.57],[152.08,62.43],[152.27,62.44],[152.27,62.53],[152.51,62.82],[152.46,62.93],[152.54,63.06],[152.58,63.31],[152.91,63.46],[153.16,63.67],[153.44,63.82],[154.31,64.03],[154.52,64.13],[154.54,64.21],[154.37,64.23],[154.38,64.29],[154.18,64.41],[154.08,64.51],[154.03,64.67],[153.84,64.73],[153.22,64.72],[152.49,64.84],[151.96,65.04],[151.76,65.2],[151.55,65.26],[151.21,65.53],[151.15,65.63],[150.77,65.89],[150.74,65.99],[150.8,66.15],[151.04,66.16],[151.11,66.23],[151.63,66.23],[151.8,66.42],[151.78,66.45],[152.4,66.65],[152.44,66.67],[152.39,66.75],[153.01,67.06],[153.02,67.11],[153.63,67.21],[153.52,67.35],[153.53,67.41],[153.64,67.46],[154.86,67.62],[155.35,67.65],[155.8,67.61],[156.22,67.66],[156.35,67.75],[156.13,67.87],[156.15,67.94],[156.67,67.94],[157.43,68.09],[157.65,68.18],[157.67,68.26],[157.77,68.36],[157.96,68.46],[158.02,68.55],[157.96,68.62],[158.01,68.66],[158.17,68.67],[158.45,68.77],[158.55,68.79],[158.67,68.74],[159.16,68.78],[159.21,68.67],[159.4,68.63],[160.56,68.51],[160.86,68.54]]}},{"type":"Feature","properties":{"scalerank":4,"reveal_zoom":4.2,"name":"Kyzyl-Khem"},"geometry":{"type":"LineString","coordinates":[[98.0,51.51],[97.7,51.48],[97.3,51.36],[96.1,51.38],[95.78,51.29]]}},{"type":"Feature","properties":{"scalerank":4,"reveal_zoom":4.2,"name":"Lek"},"geometry":{"type":"LineString","coordinates":[[5.33,51.96],[5.16,51.99],[4.43,51.9],[4.08,51.99]]}},{"type":"Feature","properties":{"scalerank":1,"reveal_zoom":0.0,"name":"Lena","label_name":"Lena","label_lon":124.211,"label_lat":65.873,"label_zoom":1.0},"geometry":{"type":"MultiLineString","coordinates":[[[120.65,60.4],[120.34,60.4],[120.07,60.26],[119.87,60.23],[119.6,60.25],[119.35,60.19],[119.14,60.05],[118.68,59.92],[118.32,59.72],[117.45,59.99],[117.13,60.13],[116.88,60.38],[116.32,60.51],[115.8,60.72],[115.5,60.77],[114.89,60.75],[114.74,60.69],[114.31,60.37],[113.82,60.12],[113.52,59.91],[113.24,59.78],[112.84,59.67],[112.64,59.54],[112.54,59.36],[112.39,59.27],[111.85,59.19],[111.32,58.93],[111.12,58.74],[110.99,58.76],[110.81,58.66],[109.97,58.61],[109.8,58.54],[109.69,58.36],[109.5,58.23],[109.08,58.26],[108.72,58.11],[108.33,57.82],[108.03,57.76],[108.03,57.7],[107.9,57.64],[107.92,57.57],[107.87,57.52],[107.47,57.29],[107.32,57.26],[107.15,57.33],[106.99,57.31],[106.86,57.08],[106.56,57.03],[106.35,57.05],[105.99,56.83],[105.67,56.74],[106.17,56.67],[106.29,56.56],[106.2,56.41],[105.69,56.27],[105.68,56.22],[105.82,56.07],[105.85,55.98],[105.81,55.87],[105.61,55.63],[105.45,55.33],[105.08,55.01],[105.11,54.85],[105.23,54.75],[105.18,54.46],[105.22,54.38],[105.46,54.24],[105.67,54.02],[105.81,54.01],[106.06,53.86],[107.12,53.86],[107.23,54.0],[107.66,54.26],[107.78,54.29],[108.11,54.2],[108.09,54.08],[107.98,54.0]],[[126.69,72.29],[126.9,72.05],[127.17,71.85],[127.14,71.78],[127.26,71.41],[127.25,71.29],[127.51,71.0],[127.41,70.74],[127.09,70.61],[126.79,70.54],[126.23,70.53],[125.8,70.45],[125.77,70.41],[125.99,70.31],[126.02,70.23],[125.92,70.15],[125.2,69.9],[125.08,69.83],[124.72,69.4],[124.03,69.03],[123.93,68.63],[123.77,68.35],[123.69,68.26],[123.31,68.09],[123.15,67.93],[123.06,67.69],[123.09,67.45],[123.4,67.0],[123.59,66.58],[123.74,66.46],[124.03,66.02],[124.21,65.87],[124.29,65.73],[124.27,65.5],[124.47,65.18],[124.79,64.99],[125.36,64.82],[125.5,64.67],[126.51,64.38],[127.29,63.97],[128.08,63.7],[128.29,63.56],[129.38,63.49],[129.59,63.31],[129.64,63.2],[129.62,63.03],[130.01,62.48],[130.04,62.32],[129.93,62.24],[129.79,61.89],[129.48,61.63],[128.75,61.32],[128.48,61.27],[127.05,61.1],[126.32,61.07],[125.58,60.86],[124.15,60.6],[122.3,60.58],[121.42,60.64],[120.86,60.54],[120.7,60.47],[120.65,60.41]]]}},{"type":"Feature","properties":{"scalerank":5,"reveal_zoom":5.0,"name":"Nizhnyaya Tunguska"},"geometry":{"type":"MultiLineString","coordinates":[[[105.69,58.07],[105.88,57.98],[106.2,58.03],[106.89,57.83],[107.41,57.8],[107.89,57.96],[108.25,58.15],[108.47,58.34],[108.51,58.43],[108.46,58.55],[108.5,58.59],[108.41,58.78],[108.45,58.82],[108.45,59.02],[108.13,59.4],[108.03,59.45],[108.05,59.55],[107.94,59.66],[108.08,59.82],[108.09,60.05],[108.04,60.2],[107.9,60.25],[107.8,60.34],[107.9,60.55],[107.87,60.68],[107.98,60.91],[107.87,60.96],[107.87,61.07],[108.01,61.14],[107.96,61.23],[108.04,61.38],[107.98,61.47],[108.08,61.64],[108.0,61.75],[108.01,61.82],[108.05,61.93],[108.22,62.03],[108.22,62.19],[108.29,62.33],[108.22,62.47],[108.08,62.35],[107.96,62.39],[107.92,62.44],[107.95,62.53],[108.6,62.7],[108.56,62.75],[108.17,62.78],[108.24,62.84],[108.59,62.92],[108.12,62.99],[108.22,63.1],[108.15,63.19],[108.0,63.19],[107.89,63.05],[107.81,63.11],[107.82,63.15],[107.61,63.16],[107.28,63.3],[106.83,63.33],[106.92,63.47],[106.74,63.54],[106.36,63.44],[106.17,63.45],[106.03,63.37],[105.82,63.39],[105.39,63.33],[105.12,63.46],[103.81,63.62],[103.64,63.79],[102.83,64.1],[102.54,64.1],[102.37,64.05],[101.99,64.09],[101.62,64.2],[101.02,64.13],[100.58,64.19],[100.28,64.29],[100.15,64.28],[99.93,64.16],[98.12,64.15],[98.08,64.13],[98.19,64.03],[98.16,63.99],[97.93,63.93],[97.91,63.89],[98.03,63.79],[98.0,63.76],[97.36,63.83],[96.48,63.82],[95.63,64.03],[95.28,64.05],[94.83,64.16],[94.15,64.17],[93.71,64.23],[92.83,64.44],[92.33,64.37],[92.08,64.41]],[[87.96,65.78],[88.84,65.97],[89.74,65.75],[90.04,65.63],[89.99,65.52],[89.99,65.22],[90.05,65.12],[90.27,65.02],[90.34,64.83],[90.66,64.78],[91.01,64.61],[91.34,64.52],[92.08,64.41]]]}},{"type":"Feature","properties":{"scalerank":4,"reveal_zoom":4.2,"name":"Malyy Yenisey"},"geometry":{"type":"LineString","coordinates":[[95.78,51.29],[95.56,51.48],[95.23,51.59],[94.46,51.73]]}},{"type":"Feature","properties":{"scalerank":5,"reveal_zoom":5.0,"name":"Naryn"},"geometry":{"type":"MultiLineString","coordinates":[[[72.65,41.67],[72.35,41.5],[72.05,41.12],[71.87,40.99],[70.96,40.8],[70.36,40.44]],[[77.74,41.88],[78.02,41.84],[77.59,41.54],[75.88,41.46],[75.48,41.4],[75.07,41.45],[74.18,41.4],[73.95,41.52],[73.92,41.65],[73.8,41.74],[73.51,41.8],[73.3,41.78]]]}},{"type":"Feature","properties":{"scalerank":4,"reveal_zoom":4.2,"name":"Nederrijn"},"geometry":{"type":"LineString","coordinates":[[6.04,51.87],[5.92,51.96],[5.33,51.96]]}},{"type":"Feature","properties":{"scalerank":5,"reveal_zoom":5.0,"name":"Neva"},"geometry":{"type":"LineString","coordinates":[[31.04,59.95],[30.8,59.81],[30.35,59.95],[30.16,59.9]]}},{"type":"Feature","properties":{"scalerank":4,"reveal_zoom":4.2,"name":"Ob"},"geometry":{"type":"MultiLineString","coordinates":[[[85.06,52.43],[84.59,52.42],[84.0,52.33],[83.83,52.36],[83.73,52.41],[83.69,52.49],[83.66,53.04],[83.82,53.11],[83.86,53.17],[83.84,53.35],[83.71,53.42],[83.23,53.5],[82.9,53.44],[82.58,53.45],[82.24,53.68],[81.84,53.79],[81.42,53.81],[81.33,53.89]],[[70.35,61.3],[70.98,61.3],[71.26,61.2],[71.45,61.25],[72.35,61.29],[74.0,61.18],[74.22,61.21],[74.43,61.17],[74.65,61.22],[75.33,61.12],[75.71,61.01],[75.99,61.04],[76.31,60.93],[76.52,60.93],[77.22,60.67],[77.6,60.66],[77.81,60.48],[77.95,60.42],[78.29,60.4],[78.56,60.2],[78.84,60.14],[78.96,60.05],[78.98,59.88],[79.13,59.8],[79.15,59.69],[79.28,59.56],[79.62,59.46],[79.66,59.41],[80.09,59.42],[80.16,59.38],[80.15,59.29],[80.23,59.27],[80.47,59.33],[80.52,59.24],[80.8,59.11],[81.26,59.12],[81.57,58.83],[81.55,58.72],[81.78,58.74],[81.9,58.66],[81.91,58.61],[82.17,58.55],[82.43,58.37],[82.88,58.31],[82.96,58.19],[83.16,58.13],[83.41,57.78],[83.78,57.7],[84.0,57.31],[84.34,57.21],[84.44,56.91],[84.4,56.79],[84.06,56.46],[84.02,56.23],[83.93,56.12],[83.88,55.93],[83.64,55.63],[83.32,55.48],[82.89,55.4],[82.88,55.17],[82.84,55.13],[83.05,54.92],[83.03,54.85]]]}},{"type":"Feature","properties":{"scalerank":4,"reveal_zoom":4.2,"name":"Ob"},"geometry":{"type":"LineString","coordinates":[[68.86,61.12],[69.01,61.2],[69.19,61.2],[69.41,61.27],[70.02,61.25],[70.35,61.3]]}},{"type":"Feature","properties":{"scalerank":2,"reveal_zoom":2.6,"name":"Ob","label_name":"Ob","label_lon":65.806,"label_lat":64.076,"label_zoom":3.6},"geometry":{"type":"MultiLineString","coordinates":[[[68.86,61.12],[68.59,61.1],[68.35,61.18],[68.31,61.26],[68.35,61.42],[68.32,61.45],[67.59,61.71],[67.29,62.09],[67.04,62.2],[66.51,62.32],[66.39,62.42],[65.99,62.48],[65.68,62.62],[65.26,62.88],[65.14,63.07],[65.21,63.21],[65.53,63.39],[65.56,63.5],[65.77,63.58],[65.71,63.73],[65.81,63.81],[65.81,64.08],[66.03,64.15],[65.9,64.26],[65.92,64.37],[65.88,64.43],[65.69,64.54],[65.69,64.66],[65.5,64.76],[65.57,64.98],[65.26,65.1],[65.36,65.28],[65.61,65.47],[65.67,65.68],[65.83,65.84],[65.88,65.93],[65.82,66.14],[66.3,66.41],[66.45,66.57],[66.66,66.63],[67.15,66.58],[67.31,66.64]],[[67.31,66.64],[68.2,66.54],[68.66,66.75]],[[67.31,66.64],[67.69,66.78],[68.1,66.81],[68.66,66.75]],[[68.66,66.75],[69.01,66.79]]]}},{"type":"Feature","properties":{"scalerank":4,"reveal_zoom":4.2,"name":"Oder"},"geometry":{"type":"LineString","coordinates":[[17.62,49.74],[17.95,49.64],[18.14,49.73],[18.31,49.89],[18.32,49.97],[18.23,50.14],[18.25,50.22],[17.96,50.53],[17.88,50.72],[17.45,50.88],[16.87,51.23],[16.47,51.24],[16.44,51.32],[16.46,51.52],[16.41,51.6],[16.22,51.68],[15.85,51.74],[15.77,51.81],[15.76,51.96],[15.68,52.01],[14.7,52.11],[14.68,52.25],[14.55,52.36],[14.62,52.53],[14.51,52.65],[14.13,52.88],[14.14,52.93],[14.37,53.11],[14.58,53.45],[14.62,53.53],[14.58,53.64]]}},{"type":"Feature","properties":{"scalerank":1,"reveal_zoom":0.0,"name":"Olenekskaya Protoka","label_name":"Olenekskaya Protoka","label_lon":124.614,"label_lat":72.665,"label_zoom":1.0},"geometry":{"type":"LineString","coordinates":[[126.69,72.29],[126.47,72.35],[126.02,72.3],[125.79,72.34],[124.61,72.66],[123.61,72.79],[123.19,72.77],[122.75,72.91]]}},{"type":"Feature","properties":{"scalerank":5,"reveal_zoom":5.0,"name":"Pamir"},"geometry":{"type":"LineString","coordinates":[[73.6,37.45],[73.48,37.47],[73.21,37.41],[72.76,37.17],[72.66,37.03]]}},{"type":"Feature","properties":{"scalerank":5,"reveal_zoom":5.0,"name":"Panj"},"geometry":{"type":"LineString","coordinates":[[72.66,37.03],[72.36,36.98],[71.8,36.69],[71.6,36.73],[71.43,37.13],[71.58,37.91],[71.28,37.92],[71.33,38.17],[71.26,38.31],[70.88,38.46],[70.62,38.33],[70.42,38.08],[70.21,37.92],[70.25,37.66],[70.12,37.54],[69.82,37.61],[69.49,37.55],[69.4,37.4],[69.41,37.21],[69.3,37.12],[68.91,37.33],[68.39,37.14],[68.26,37.01],[68.21,37.02]]}},{"type":"Feature","properties":{"scalerank":4,"reveal_zoom":4.2,"name":"Pechora"},"geometry":{"type":"MultiLineString","coordinates":[[[59.29,62.06],[59.08,62.02],[58.89,62.06],[58.78,62.0],[58.44,62.07],[58.23,62.07],[57.91,61.91],[57.83,61.81],[57.23,61.7],[57.01,61.73],[56.86,61.8],[56.8,61.98],[56.64,62.1],[56.73,62.34],[56.71,62.49],[56.63,62.6],[56.21,62.75],[56.2,62.88],[55.94,63.19],[56.42,63.31],[56.47,63.42],[56.54,63.44],[56.47,63.54],[56.71,63.76],[57.47,63.91],[57.6,64.09],[57.56,64.23],[57.77,64.41],[57.88,64.74],[57.84,64.81],[57.5,64.99],[57.26,65.06],[57.27,65.11],[57.07,65.15],[57.02,65.24],[57.05,65.42],[56.97,65.57],[56.78,65.68],[56.74,65.79],[56.84,65.97],[56.49,66.26],[56.28,66.33],[56.0,66.33],[55.41,66.2],[55.26,66.14],[55.09,65.91],[54.84,65.75],[54.59,65.69],[54.31,65.52],[54.1,65.46],[52.96,65.33],[52.15,65.47],[52.24,65.76],[52.57,66.02],[52.45,66.35],[52.5,66.47],[52.48,66.6],[52.37,66.71],[52.38,67.11],[52.29,67.15],[52.13,67.32],[52.23,67.43],[52.13,67.51],[52.13,67.56],[52.63,67.7]],[[52.63,67.7],[53.11,67.86]],[[52.63,67.7],[53.02,67.68],[53.18,67.73],[53.29,67.82],[54.07,68.08],[54.23,68.27]],[[53.11,67.86],[53.21,67.93],[53.08,67.97],[53.03,68.01],[53.04,68.07],[53.23,68.2],[53.26,68.27]],[[53.91,68.23],[53.75,68.18],[53.49,67.99],[53.11,67.86]]]}},{"type":"Feature","properties":{"scalerank":4,"reveal_zoom":4.2,"name":"Rhein"},"geometry":{"type":"MultiLineString","coordinates":[[[8.75,46.68],[9.42,46.83]],[[9.41,46.83],[9.53,46.96],[9.48,47.17],[9.63,47.47],[9.55,47.51]],[[9.13,47.67],[9.18,47.67]]]}},{"type":"Feature","properties":{"scalerank":4,"reveal_zoom":4.2,"name":"Rhein"},"geometry":{"type":"LineString","coordinates":[[8.88,47.66],[8.7,47.69],[8.48,47.58],[8.2,47.61],[7.93,47.56],[7.57,47.61],[7.53,47.67],[7.61,48.0],[7.58,48.06],[7.84,48.64],[8.23,48.97]]}},{"type":"Feature","properties":{"scalerank":4,"reveal_zoom":4.2,"name":"Rhine"},"geometry":{"type":"LineString","coordinates":[[8.23,48.97],[8.5,49.4],[8.38,49.61],[8.44,49.77],[8.36,49.91],[8.24,50.02],[7.96,49.99],[7.8,50.04],[7.61,50.22],[7.61,50.37],[7.26,50.56],[7.03,50.8],[6.94,51.04],[6.76,51.19],[6.69,51.3],[6.69,51.52],[6.59,51.59],[6.6,51.64],[6.08,51.87],[5.62,51.89],[5.25,51.81],[4.99,51.82]]}},{"type":"Feature","properties":{"scalerank":4,"reveal_zoom":4.2,"name":"Seine"},"geometry":{"type":"LineString","coordinates":[[4.71,47.58],[4.58,47.74],[4.57,47.89],[4.41,48.08],[4.21,48.19],[3.86,48.52],[3.76,48.55],[3.04,48.39],[2.82,48.41],[2.5,48.58],[2.4,48.7],[2.4,48.81],[2.25,48.91],[1.98,49.0],[1.72,48.99],[1.67,49.05],[1.5,49.08],[1.35,49.21],[1.24,49.22],[1.19,49.31],[1.09,49.31],[0.78,49.47],[0.44,49.47]]}},{"type":"Feature","properties":{"scalerank":2,"reveal_zoom":2.6,"name":"Selenge (Selenga)","label_name":"Selenge (Selenga)","label_lon":106.3,"label_lat":50.929,"label_zoom":3.6},"geometry":{"type":"MultiLineString","coordinates":[[[100.7,49.26],[101.37,49.46],[102.15,49.36],[103.44,49.36],[103.76,49.45],[104.34,49.51],[104.48,49.6],[105.6,49.96],[106.16,50.25],[106.08,50.38],[106.27,50.56],[106.3,50.93],[106.68,51.09],[106.99,51.32],[107.06,51.42],[107.39,51.61],[107.51,51.76],[107.55,51.85],[107.46,52.13],[107.16,52.13],[106.75,52.05],[106.62,52.15]],[[106.62,52.15],[106.58,52.21],[106.61,52.27],[106.75,52.32]],[[106.62,52.15],[106.5,52.23],[106.5,52.38]]]}},{"type":"Feature","properties":{"scalerank":4,"reveal_zoom":4.2,"name":"Shishhid Gol"},"geometry":{"type":"MultiLineString","coordinates":[[[98.81,50.63],[99.06,50.55],[99.21,50.75],[99.4,50.9],[99.49,51.15],[99.44,51.2],[99.47,51.33],[99.42,51.35]],[[99.31,51.41],[99.0,51.47],[98.26,51.44],[98.0,51.51]]]}},{"type":"Feature","properties":{"scalerank":4,"reveal_zoom":4.2,"name":"Sukhona"},"geometry":{"type":"MultiLineString","coordinates":[[[39.8,59.53],[40.22,59.45],[40.26,59.32],[40.35,59.3],[40.92,59.42],[41.16,59.39],[41.56,59.43],[41.9,59.51],[42.04,59.63],[42.46,59.7],[42.85,59.98],[43.73,60.19],[44.49,60.47],[46.34,60.75]],[[39.05,59.87],[38.93,59.94],[38.66,59.93]]]}},{"type":"Feature","properties":{"scalerank":4,"reveal_zoom":4.2,"name":"Severnaya Dvina"},"geometry":{"type":"LineString","coordinates":[[46.34,60.75],[46.55,60.98],[46.62,61.19],[46.59,61.29],[46.25,61.47],[45.29,61.84],[45.06,62.13],[44.83,62.29],[43.91,62.44],[42.66,62.93],[42.61,63.0],[42.21,63.07],[42.08,63.14],[42.02,63.33],[41.87,63.48],[41.89,63.55],[41.45,63.73],[41.63,63.88],[41.75,64.05],[41.74,64.1],[41.86,64.16],[41.86,64.24],[40.95,64.42],[40.53,64.56],[40.41,64.75]]}},{"type":"Feature","properties":{"scalerank":5,"reveal_zoom":5.0,"name":"Svir’"},"geometry":{"type":"LineString","coordinates":[[32.82,60.48],[33.0,60.51],[33.44,60.74],[33.58,60.75],[33.92,60.96],[34.09,60.93],[34.85,61.03]]}},{"type":"Feature","properties":{"scalerank":5,"reveal_zoom":5.0,"name":"Syr Darya"},"geometry":{"type":"MultiLineString","coordinates":[[[69.83,40.27],[69.68,40.3],[69.3,40.23],[69.22,40.26],[69.1,40.46],[69.08,40.6],[68.7,40.9],[68.61,41.02],[68.46,41.11]],[[67.99,41.25],[68.07,41.34],[68.09,41.46],[68.07,41.83],[68.2,42.1],[68.19,42.18],[68.28,42.3],[68.21,42.5],[68.24,42.73],[68.09,42.99],[67.93,43.03],[67.84,43.12],[67.79,43.34],[67.69,43.33],[67.55,43.42],[67.44,43.63],[67.11,43.95],[66.99,44.0],[66.77,43.96],[66.56,44.01],[66.53,44.1],[66.42,44.18],[66.38,44.27],[66.19,44.43],[66.02,44.46],[65.79,44.72],[65.62,44.76],[65.23,44.99],[64.78,45.0],[64.47,45.11],[64.22,45.32],[64.2,45.39],[63.88,45.51],[63.91,45.59],[63.75,45.71],[63.12,45.63],[62.9,45.72],[62.73,45.69],[62.57,45.81],[61.9,45.7],[61.7,45.83],[61.82,45.92],[61.76,46.02]],[[61.56,46.11],[61.26,46.05],[61.09,46.06],[60.88,46.14]]]}},{"type":"Feature","properties":{"scalerank":5,"reveal_zoom":5.0,"name":"Tajo"},"geometry":{"type":"MultiLineString","coordinates":[[[-6.0,39.85],[-6.33,39.76],[-6.9,39.76],[-7.12,39.68]],[[-2.73,40.53],[-2.96,40.28],[-3.23,40.09],[-4.32,39.84],[-4.76,39.98],[-5.07,39.8],[-5.22,39.81]],[[-1.91,40.6],[-2.14,40.8],[-2.58,40.72]]]}},{"type":"Feature","properties":{"scalerank":5,"reveal_zoom":5.0,"name":"Tagus"},"geometry":{"type":"LineString","coordinates":[[-7.12,39.68],[-7.45,39.68],[-7.98,39.49],[-8.38,39.47],[-8.66,39.25],[-8.79,39.08]]}},{"type":"Feature","properties":{"scalerank":4,"reveal_zoom":4.2,"name":"Tigris"},"geometry":{"type":"LineString","coordinates":[[42.38,37.06],[42.56,36.83],[42.9,36.69],[42.77,36.54],[43.17,36.33],[43.26,36.21],[43.35,35.95],[43.31,35.72],[43.26,35.66],[43.26,35.47],[43.57,35.01],[43.54,34.96],[43.78,34.45],[43.85,34.19],[43.96,34.1],[44.4,33.97],[44.42,33.74],[44.31,33.53],[44.4,33.29],[44.67,33.02],[45.03,32.89],[45.08,32.8],[45.22,32.78],[45.38,32.6],[45.81,32.5],[46.14,32.63],[46.69,32.44],[46.74,32.32],[46.71,32.15],[46.83,32.08],[46.94,31.92],[47.14,31.83],[47.22,31.63],[47.36,31.46],[47.43,31.29],[47.44,31.0]]}},{"type":"Feature","properties":{"scalerank":5,"reveal_zoom":5.0,"name":"Tobol"},"geometry":{"type":"LineString","coordinates":[[60.91,51.67],[61.01,51.49],[61.52,51.45],[61.59,51.51],[61.61,51.64],[61.57,52.02],[61.51,52.16],[61.73,52.44],[62.59,52.61],[62.77,52.7],[62.83,52.79],[63.59,53.15],[63.86,53.42],[63.88,53.57],[63.75,53.89],[63.88,54.15],[64.06,54.3],[64.81,54.48],[65.0,54.72],[64.97,54.97],[65.19,55.21],[65.25,55.31],[65.23,55.37],[65.45,55.5],[65.58,55.65],[65.7,55.9],[65.68,55.96],[65.93,56.1],[66.0,56.25],[66.26,56.36],[66.34,56.48],[66.31,56.57],[66.43,56.82],[66.56,56.88],[66.64,57.02],[66.96,57.19],[66.95,57.26],[67.08,57.34],[67.1,57.46],[67.16,57.5],[67.09,57.58],[67.15,57.73],[67.31,57.83],[68.05,57.91],[68.09,58.06],[68.22,58.17]]}},{"type":"Feature","properties":{"scalerank":1,"reveal_zoom":0.0,"name":"Tongtian"},"geometry":{"type":"LineString","coordinates":[[92.99,34.1],[93.09,34.19],[93.71,34.24],[94.01,34.5],[94.48,34.72],[94.66,34.74],[94.87,34.69],[95.52,34.35],[95.6,34.23],[96.02,33.82],[96.23,33.74],[96.42,33.72],[96.7,33.52],[96.76,33.37],[97.01,33.31],[97.08,33.14],[97.34,32.91],[97.41,32.75],[98.21,32.33],[98.39,32.05],[98.45,31.78],[98.54,31.69]]}},{"type":"Feature","properties":{"scalerank":5,"reveal_zoom":5.0,"name":"Trofimovskaya Protoka"},"geometry":{"type":"LineString","coordinates":[[126.47,72.35],[126.44,72.51],[126.81,72.76],[126.81,72.83],[126.9,72.9],[127.07,72.97],[127.91,73.13],[128.26,73.27]]}},{"type":"Feature","properties":{"scalerank":5,"reveal_zoom":5.0,"name":"Tumatskaya Protoka"},"geometry":{"type":"LineString","coordinates":[[126.47,72.35],[126.31,72.49],[126.3,72.59],[126.37,72.77],[126.35,72.9],[126.7,73.08],[126.57,73.23],[126.55,73.33]]}},{"type":"Feature","properties":{"scalerank":1,"reveal_zoom":0.0,"name":"Tuotuo"},"geometry":{"type":"LineString","coordinates":[[90.79,34.3],[91.65,34.28],[92.04,34.16],[92.31,34.24],[92.49,34.22],[92.79,34.09],[92.99,34.1]]}},{"type":"Feature","properties":{"scalerank":4,"reveal_zoom":4.2,"name":"Ural"},"geometry":{"type":"MultiLineString","coordinates":[[[58.63,51.7],[58.63,51.62],[58.75,51.42],[58.71,51.29],[58.18,51.07],[57.8,51.1],[57.25,51.28],[56.22,51.47],[55.71,51.7],[55.12,51.77],[53.41,51.55],[53.04,51.46],[52.73,51.5],[52.51,51.39],[52.23,51.42],[52.01,51.39],[51.4,51.15],[51.18,50.83],[51.11,50.31],[51.33,50.12],[51.35,49.91],[51.95,49.21],[51.85,49.0],[51.88,48.82],[51.8,48.62],[51.61,48.47],[51.63,48.39],[51.57,48.17],[51.64,48.02],[51.62,47.72],[51.67,47.58],[51.88,47.4],[51.87,47.31],[51.93,47.2],[51.72,46.94]],[[59.43,54.52],[59.19,54.32],[59.09,54.09],[59.19,53.86],[59.17,53.75],[59.25,53.64],[59.02,53.46],[59.13,53.22],[58.97,53.07],[58.91,52.94],[58.9,52.81],[58.99,52.57],[59.08,52.51],[59.08,52.47],[58.83,52.2]]]}},{"type":"Feature","properties":{"scalerank":4,"reveal_zoom":4.2,"name":"Verkhniy Yenisey"},"geometry":{"type":"MultiLineString","coordinates":[[[94.46,51.73],[94.07,51.6],[93.65,51.57],[92.77,51.58],[92.15,51.8],[92.04,51.9],[92.07,52.01],[92.44,52.3],[92.31,52.57],[91.77,52.62],[91.75,52.66],[91.37,52.71],[91.5,53.01],[91.47,53.14],[91.79,53.23],[91.95,53.4],[91.63,53.57],[91.56,53.66],[91.58,53.71],[91.51,53.74]],[[93.0,58.1],[92.99,58.05],[93.11,58.02],[93.22,57.9],[93.31,57.64],[93.26,57.42],[93.29,57.33],[93.45,57.18],[93.38,56.99],[93.46,56.86],[93.66,56.73],[93.74,56.6],[93.74,56.48],[93.55,56.32],[93.16,56.13],[93.15,56.09],[92.3,55.92],[92.27,55.86],[92.3,55.81],[92.41,55.77],[92.49,55.66],[92.41,55.5]]]}},{"type":"Feature","properties":{"scalerank":5,"reveal_zoom":5.0,"name":"Vistula"},"geometry":{"type":"MultiLineString","coordinates":[[[18.88,49.64],[18.79,49.82],[18.77,49.89],[18.81,49.93]],[[18.94,49.93],[19.07,49.95],[19.2,50.04],[19.85,50.01],[20.52,50.14],[20.74,50.26],[21.29,50.39],[21.51,50.48],[21.78,50.69],[21.82,50.85],[21.78,51.19],[21.96,51.39],[21.82,51.54],[21.45,51.7],[21.24,51.92],[21.22,52.07],[20.84,52.38],[19.96,52.42],[19.64,52.55],[19.2,52.64],[18.54,53.04],[18.27,53.09],[18.2,53.17],[18.31,53.29],[18.74,53.52],[18.78,53.67],[18.87,53.78],[18.85,54.13],[18.98,54.35]]]}},{"type":"Feature","properties":{"scalerank":3,"reveal_zoom":3.4,"name":"Volga","label_name":"Volga","label_lon":46.498,"label_lat":47.756,"label_zoom":4.4},"geometry":{"type":"MultiLineString","coordinates":[[[47.84,46.73],[48.11,46.68],[48.22,46.61],[48.31,46.4],[48.68,46.09]],[[45.66,50.22],[45.41,50.06],[45.36,49.83],[45.11,49.51],[44.98,49.19],[44.53,48.6],[44.86,48.47],[45.34,48.42],[45.56,48.45],[45.86,48.35],[46.08,48.22],[46.16,48.11],[46.15,47.99],[46.19,47.92],[46.5,47.76],[46.87,47.44],[47.01,47.4],[47.08,47.32],[47.09,47.21],[47.46,47.03],[47.58,46.94],[47.61,46.85],[47.69,46.85],[47.8,46.77],[48.0,46.51],[48.0,46.37],[47.56,45.79],[47.65,45.66]],[[49.9,53.46],[50.04,53.45],[50.11,53.4],[50.15,53.31],[50.13,53.24],[50.05,53.19],[49.86,53.21],[49.43,53.15],[49.12,53.23],[48.52,53.1],[48.49,53.06],[48.56,52.92],[48.5,52.82],[48.33,52.69],[47.9,52.12],[47.27,51.98],[46.77,51.75]],[[43.43,56.67],[43.66,56.5],[44.17,56.27],[44.26,56.18],[44.57,56.09],[45.28,56.14],[45.44,56.1],[45.81,56.2],[46.03,56.17],[46.49,56.34],[46.68,56.31],[46.86,56.2],[47.17,56.15],[47.83,56.15],[48.07,55.93],[48.81,55.78],[49.0,55.69],[49.06,55.48]],[[37.15,56.75],[37.48,56.93],[37.56,57.11],[37.76,57.29]],[[32.6,57.25],[32.73,56.94],[33.06,56.93],[33.53,56.83],[33.96,56.57],[33.98,56.51],[33.86,56.42],[34.67,56.21],[34.9,56.34],[34.94,56.55],[35.22,56.61],[35.33,56.7],[35.67,56.84],[36.07,56.85],[36.34,56.76],[36.37,56.71]],[[41.34,57.49],[41.72,57.45],[42.17,57.48],[42.58,57.42]],[[40.01,57.57],[39.85,57.67],[39.79,57.77],[39.52,57.91],[38.7,58.11]],[[38.3,57.57],[38.48,57.87],[38.44,58.02]]]}},{"type":"Feature","properties":{"scalerank":5,"reveal_zoom":5.0,"name":"Vychegda"},"geometry":{"type":"MultiLineString","coordinates":[[[53.69,61.65],[53.65,61.69],[53.67,61.74],[53.54,61.81],[53.25,61.79],[53.03,61.87],[52.45,61.94],[52.08,61.91],[51.89,61.83],[51.31,61.81],[50.88,61.72],[50.8,61.75],[50.76,61.97],[50.7,62.01],[50.31,62.0],[50.24,62.04],[50.34,62.17],[50.33,62.21],[50.08,62.22],[49.61,62.09],[49.38,62.07],[49.17,62.13],[48.9,62.1],[48.4,61.88],[48.23,61.71],[47.8,61.49],[47.22,61.35],[46.59,61.29]],[[55.4,62.36],[54.8,62.51],[54.57,62.42],[54.3,62.4],[54.25,62.35],[54.21,62.25],[54.3,62.04],[54.52,61.89],[54.89,61.8],[54.88,61.63],[54.13,61.53],[53.83,61.54],[53.68,61.65]]]}},{"type":"Feature","properties":{"scalerank":4,"reveal_zoom":4.2,"name":"Waal"},"geometry":{"type":"LineString","coordinates":[[4.99,51.82],[4.58,51.72],[3.98,51.85]]}},{"type":"Feature","properties":{"scalerank":4,"reveal_zoom":4.2,"name":"Yenisey"},"geometry":{"type":"LineString","coordinates":[[83.11,70.11],[83.46,69.98],[83.55,69.89],[83.79,69.79],[84.18,69.67],[84.49,69.65],[85.1,69.79],[85.41,69.72],[85.85,69.57],[85.95,69.49],[86.05,69.12],[85.95,68.93],[85.99,68.84],[86.29,68.67],[86.34,68.46],[86.52,68.3],[86.54,68.21],[86.44,68.11],[86.48,67.93],[86.29,67.66],[86.29,67.57],[86.35,67.49],[86.57,67.42],[86.62,67.36],[86.6,67.26],[86.7,67.09],[86.73,66.85],[86.63,66.75],[86.29,66.58],[86.74,66.6],[87.03,66.56],[87.46,66.39],[87.51,66.32],[87.27,66.19],[87.91,66.06],[87.93,66.0],[87.77,65.91],[87.77,65.85],[88.03,65.69],[87.82,64.88],[87.54,64.52],[87.58,64.37],[87.56,64.04],[87.6,63.97],[87.35,63.68],[87.38,63.61],[87.28,63.36],[88.02,63.09],[88.43,62.85],[88.6,62.63],[89.01,62.39],[89.08,62.18],[89.33,61.89],[89.71,61.75],[89.84,61.59],[90.15,61.57],[90.17,61.54],[90.12,61.49],[89.81,61.41],[89.68,61.34],[89.64,61.24],[89.75,60.94],[89.95,60.75],[90.06,60.46],[90.17,60.38],[90.17,60.31],[90.49,60.11],[90.7,59.93],[90.86,59.71],[90.88,59.6],[91.35,59.22],[91.68,59.05],[91.72,58.92],[92.04,58.83],[91.98,58.73],[92.05,58.71],[92.14,58.5],[92.28,58.45],[92.54,58.2],[93.0,58.1]]}},{"type":"Feature","properties":{"scalerank":5,"reveal_zoom":5.0,"name":"Loire"},"geometry":{"type":"MultiLineString","coordinates":[[[3.08,46.99],[2.92,47.29],[2.88,47.5],[2.79,47.59],[2.36,47.8],[1.97,47.89],[1.77,47.87],[1.16,47.47],[0.43,47.34],[0.08,47.22],[-0.22,47.36],[-0.42,47.4],[-1.06,47.37],[-1.56,47.22],[-1.74,47.22]],[[3.08,46.99],[3.25,46.95],[3.33,46.85],[3.49,46.83],[3.72,46.64],[3.75,46.56],[3.98,46.46],[4.04,46.24],[4.1,46.17],[4.1,46.06],[4.03,45.98],[4.21,45.74],[4.26,45.48],[4.08,45.24],[3.95,45.2],[3.9,44.97],[3.93,44.87],[4.17,44.77],[4.2,44.82]]]}}]}